country,City,ClinicName,Latitude,Longitude,Address,Phone Number,Website,name,url
italy,Casale Monferrato,Ambulatorio di Procreazione Medicalmente Assistita - Ospedale S. Spirito - ASL 21 - Casale Monferrato,,,,,,,
italy,Tortona,Medicart - Centro Cardiologico e Polispecialistico s.r.l.,44.9079871,8.8753042,"Via Brigata Garibaldi 1/A, 15057 Tortona AL, Italy",0131 866267,http://www.medicartsrl.it/,MedicArt Centri Medici Diagnostici e Polispecialistici,https://maps.google.com/?cid=11621434157890577963
italy,Ancona,Centro PMA - Presidio Ospedaliero G. Salesi,43.6168727,13.5319658,"Via Filippo Corridoni, 11, 60123 Ancona AN, Italy",071 5961,http://www.ospedaliriuniti.marche.it/portale/index.php?id_sezione=37&id_doc=430,Ancona Hospital Salesi,https://maps.google.com/?cid=9126104112662060808
italy,Ancona,Future Medical Care,43.5941954,13.5026966,"Via Achille Barilatti, 7, 60127 Ancona AN, Italy",071 236 0975,https://www.futuremedicalcare.it/,"FMC - FUTURE MEDICAL CARE - Struttura Sanitaria Polispecialistica, Diagnostica, Chirurgica e Centro PMA di II^ Livello",https://maps.google.com/?cid=13695754095971268597
italy,Senigallia,Villa Sorriso,43.7087874,13.2340792,"Lungomare Dante Alighieri, 98, 60019 Senigallia AN, Italy",328 792 0988,http://www.hotelvillasorrisosenigallia.it/,Hotel Villa Sorriso,https://maps.google.com/?cid=6768537471657671830
italy,Aosta,Centro PMA Valle d'Aosta,45.7429634,7.3413605,"Via L. Vaccari, 5, 11100 Aosta AO, Italy",0165 5431,,Ospedale Beauregard,https://maps.google.com/?cid=16534867955615399169
italy,Ascoli Piceno,Fertility Center - Centro Analisi,42.8545104,13.5923244,"Viale Indipendenza, 42, 63100 Ascoli Piceno AP, Italy",0736 336246,https://www.centrodiagnosticopiceno.it/,Centro Diagnostico Piceno,https://maps.google.com/?cid=6499927669051064721
italy,Ascoli Piceno,Fertlity Center,42.8587397,13.5789336,"Viale Vellei Sinibaldo, 16, 63100 Ascoli Piceno AP, Italy",0736 521202,https://centromedicoascoli.it/,Medical Center,https://maps.google.com/?cid=17980815097211115604
italy,L'Aquila,U.O.C. Ostetricia e Ginecologia D.U. (con Centro Fivet) - del P.O. dell'Aquila,,,,,,,
italy,Cortona,Centro Procreazione Medicalmente Assistita - Ospedale Valdichiana Santa Margherita,43.2787274,11.9236675,"Ospedale Santa Margherita di Cortona, Località Fratta, 145, 52044 Cortona AR, Italy",0575 639272,http://www.retepma.it/,Centro di PMA - Ospedale Santa Margherita di Cortona,https://maps.google.com/?cid=11032904310109324476
italy,Asti,Centro di Medicina della Riproduzione - SOC Ostetricia e Ginecologia dell'Ospedale Cardinal Massaia,44.9124245,8.1945359,"Corso Dante Alighieri, 202, 14100 Asti AT, Italy",0141 481111,http://portale.asl.at.it/Apps/portaleasl.nsf/index.htm,Ospedale Cardinal Massaia,https://maps.google.com/?cid=16123837545118080007
italy,Avellino,Fisiopatologia della Riproduzione e Sterilità di Coppia - A.O.R.N. San Giuseppe Moscati di Avellino,,,,,,,
italy,Bari,Centro di Procreazione Medicalmente Assistita (PMA) e Congelamento dei Gameti e Biobanca- A.O. Policlinico Consorziale di Bari,41.1144475,16.862997,"Via Lucera, 6, 70124 Bari BA, Italy",800 088 247,https://ivitalia.it/centri/bari/?utm_source=google-mb&utm_medium=organic&utm_campaign=ivi_it_clinica-bari_conversion,IVI Bari,https://maps.google.com/?cid=2928107983960102917
italy,Bari,"Centro Medico ""San Luca""",41.1096938,16.8602551,"Viale Orazio Flacco, 11, 70124 Bari BA, Italy",080 561 7851,http://www.procreare.it/,San Luca Medical Center,https://maps.google.com/?cid=4088251082718776032
italy,Acquaviva delle Fonti,"Centro per la Diagnosi e Terapia dell'Infertilità di Coppia - Ospedale Generale Regionale ""F. Miulli""",,,,,,,
italy,Bari,Centro PMA - Casa di Cura Santa Maria,41.1087836,16.8615205,"Via Antonio de Ferrariis, 22, 70124 Bari BA, Italy",080 504 0111,https://ospedali.gvmnet.it/osp/ospedale-santa-maria?utm_source=google&utm_medium=Yext&utm_campaign=GVMOSM6&y_source=1_MzE1ODQ0MTEtNzE1LWxvY2F0aW9uLndlYnNpdGU%3D,Santa Maria Spa,https://maps.google.com/?cid=3290454991336463245
italy,Bari,IVI Bari S.r.l.,41.1144475,16.862997,"Via Lucera, 6, 70124 Bari BA, Italy",800 088 247,https://ivitalia.it/centri/bari/?utm_source=google-mb&utm_medium=organic&utm_campaign=ivi_it_clinica-bari_conversion,IVI Bari,https://maps.google.com/?cid=2928107983960102917
italy,Molfetta,Prolab srl,41.2013138,16.5991859,"Via Bettino Ricasoli, 2, 70056 Molfetta BA, Italy",080 876 5177,https://www.prolab-pma.it/,Prolab Srl - Centro di Procreazione Medicalmente Assistita,https://maps.google.com/?cid=14089124267039306385
italy,Conversano,U.O. Fisiopatologia della Riproduzione Umana e P.M.A.,,,,,,,
italy,Bergamo,Centro di Fisiopatologia della Riproduzione - A.O. Papa Giovanni XXIII,45.6859074,9.6365205,"Piazza OMS, 1, 24127 Bergamo BG, Italy",035 267111,http://www.asst-pg23.it/,ASST Ospedale Papa Giovanni XXIII,https://maps.google.com/?cid=11139866532322451328
italy,Osio Sotto,Centro di PMA Istituti Ospedalieri Bergamaschi - Policlinico San Marco,45.6040971,9.591104,"Policlinico San Marco, Corso Europa, 7, 24046 Osio Sotto BG, Italy",348 377 2896,http://eeiasrl.com/,EEIA PMA - Centro Procreazione Medicalmente Assistita,https://maps.google.com/?cid=5967560112277787207
italy,Ponte San Pietro,Centro PMA - Policlinico San Pietro,45.6981874,9.5753808,"Via Carlo Forlanini, 15, 24036 Ponte San Pietro BG, Italy",035 604111,https://www.grupposandonato.it/strutture/policlinico-san-pietro,Policlinico San Pietro,https://maps.google.com/?cid=1218788236015769482
italy,Biella,Centro di PMA - Struttura Complessa di Ostetricia e Ginecologia - Ospedale degli Infermi - ASL 12,,,,,,,
italy,Pieve di Cadore,"Ospedale ""Giovanni Paolo II"" Pieve di Cadore",46.4315758,12.376117,"Via Cogonie, 30, 32044 Pieve di Cadore BL, Italy",0435 3411,https://www.aulss1.veneto.it/sezione/ospedale-di-pieve-di-cadore/,"The Hospital ""Giovanni Paolo II""",https://maps.google.com/?cid=8111704774758568581
italy,Montesarchio,Centro Gamma s.r.l,41.0642911,14.6371709,"Via San Rocco, 20, 82016 Montesarchio BN, Italy",0824 831131,https://www.centrogammamontesarchio.it/,PMA Centro Gamma srl,https://maps.google.com/?cid=11137606987263849548
italy,Benevento,"Fisiopatologia Riproduzione Umana e Diagnosi Prenatale Integrata -P.O. ""G. Rummo"" - A.O. ""San Pio""",,,,,,,
italy,Benevento,Humanafertilitas,41.1304357,14.7991714,"V.le Mario Rotili, 70, 82100 Benevento BN, Italy",351 644 0422,http://www.humanafertilitas.it/,HUMANA Presidio Sanitario - Humanafertilitas - Humanavista,https://maps.google.com/?cid=14185626806606754660
italy,Bologna,Poliambulatorio Privato Day Surgery Next Fertility GynePro,44.4862793,11.3466012,"Viale XII Giugno, 20, 40124 Bologna BO, Italy",051 442094,https://nextfertilitygynepro.it/,Next Fertility GynePro,https://maps.google.com/?cid=16908558905064395324
italy,Bologna,SISMER - Società Italiana Studi di Medicina della Riproduzione,,,,,,,
italy,Bologna,"Str. Sempl. Dipt. di Infertilità e PMA - Centro di riferimento regionale per la preservazione della fertilità nei pazienti oncologici - Dipt. Attività Integrata del Bambino, della Donna e delle Malattie Urologiche - AOU Policlinico S. Orsola Malpighi",,,,,,,
italy,Bologna,Tecnobios Procreazione s.r.l.,44.4872246,11.3587432,"Via Dante, 15, 40125 Bologna BO, Italy",051 286 7511,https://www.tecnobiosprocreazione.it/,Tecnobios Procreazione srl,https://maps.google.com/?cid=15098567160035997412
italy,Brindisi,Casa di Cura SALUS s.r.l.,40.6286999,17.9241193,"Via Appia, 348, 72100 Brindisi BR, Italy",0831 581505,https://www.casadicurasalus.it/,Casa di Cura Salus - Brindisi,https://maps.google.com/?cid=7954733822708542902
italy,Carovigno,Centro PMA I Livello - Dott. Giuseppe Lanzilotti,40.7104824,17.658764,"Viale Foggia, 1, 72012 Carovigno BR, Italy",338 989 0494,https://www.facebook.com/Centrodipma.drlanzilotti/,Centro di PMA Dr. Giuseppe Lanzilotti specialista in ginecologia e ostetricia,https://maps.google.com/?cid=16960340540867348679
italy,Brindisi,Progenia S.r.l.,40.5876992,17.8517506,"Via Cittadella della ricerca, 72100 Brindisi BR, Italy",0831 508553,https://www.progeniacmrl.it/,Progenia CMRL,https://maps.google.com/?cid=4754777721128182828
italy,Brescia,Atheneum s.r.l.,45.5278446,10.2572957,"Borgo Pietro Wuhrer, 25123 Brescia BS, Italy",030 360249,https://www.atheneumsrl.it/,Atheneum S.R.L.,https://maps.google.com/?cid=15418701997847474575
italy,Brescia,"Centro di Fecondazione Medicalmente Assistita - U.O. Ostetricia e Ginecologia - Casa di Cura ""Istituto Clinico Città di Brescia""",45.5538284,10.2271569,"Via Bartolomeo Gualla, 15, 25128 Brescia BS, Italy",030 37101,https://www.grupposandonato.it/strutture/istituto-clinico-citta-di-brescia,Istituto Clinico Città Di Brescia,https://maps.google.com/?cid=13736193159966190290
italy,Montichiari,"Centro di Procreazione Assistita - U. O. Ostetricia e Ginecologia - A.O. ""Spedali Civili"" di Brescia - P.O. di Montichiari",,,,,,,
italy,Brescia,Centro Sanitario S. Giovanni srl,45.5247587,10.2236636,"Via Cremona, 139, 25124 Brescia BS, Italy",030 242 7331,http://www.centrosangiovanni.it/,Centro Sanitario S.Giovanni Srl,https://maps.google.com/?cid=8486446376750025856
italy,Manerbio,Dipartimento di PMA - U.O. Ostetricia e Ginecologia - A.O. di Desenzano del Garda - P.O. di Manerbio,45.3566425,10.1459091,"Lungomella Valsecchi, 2, 25025 Manerbio BS, Italy",030 99291,http://www.asst-garda.it/ospedali/manerbio/,Manerbio Hospital,https://maps.google.com/?cid=5494949606972360106
italy,Esine,Studio e cura della sterilità della coppia - P.O. Vallecamonica - ASL Vallecamonica Sebino,,,,,,,
italy,Brescia,Studio Medico Ginecologico Dott. Luca Fallo,45.5247997,10.2140702,"CAP Tower, Via Aldo Moro, 13, 25124 Brescia BS, Italy",030 245 2138,,Fallo Luca,https://maps.google.com/?cid=14185814672933868742
italy,Bisceglie,MOMO' FertiLIFE,41.2387576,16.5156898,"Str. Cala dell'Arciprete, 2C, 76011 Bisceglie BT, Italy",080 396 2313,http://www.momofertilife.com/,MOMO' fertiLIFE srl,https://maps.google.com/?cid=16892113739943555801
italy,Barletta,PRO ANDROS s.r.l.,41.3195403,16.2841769,"Via Cavour, 22, 76121 Barletta BT, Italy",339 837 3637,http://www.proandros.it/,Pro. Andros,https://maps.google.com/?cid=396959116505934812
italy,Brunico,Centro di medicina della riproduzione umana e crioconservazione gameti - Ospedale di Brunico,,,,,,,
italy,Bressanone,Centro Sterilità - Reparto Ginecologia Ostetricia - Ospedale di Bressanone,46.7243139,11.6478513,"Via Dante, 51, 39042 Bressanone BZ, Italy",0472 812111,http://www.sabes.it/,Ospedale di Bressanone,https://maps.google.com/?cid=1146159481876670626
italy,Bolzano,Donna Salus,46.4932275,11.3616144,"Via del Macello, 30c, 39100 Bolzano BZ, Italy",0471 324034,https://www.donnasalus.it/,Donnasalus,https://maps.google.com/?cid=10045920041311139044
italy,Merano,EuBios - Centri Fivet Prof. Zech,46.6709922,11.1611233,"Via Fossato Molini, 9, 39012 Merano BZ, Italy",0473 270470,https://nextfertilityeubios.it/,Next Fertility Eubios,https://maps.google.com/?cid=3255312795506815503
italy,Merano,Reparto Ginecologia - Ostetricia - Ospedale di Merano,46.6772295,11.1513688,"Via Giacomo Rossini, 5, 39012 Merano BZ, Italy",0473 263333,https://www.asdaa.it/it/home,Ospedale di Merano,https://maps.google.com/?cid=10833030439182142381
italy,Monserrato,"Centro Integrato di Procreazione Medicalmente Assistita (PMA) e Diagnostica Ostetrico-Ginecologica, Blocco Q, Azienda Ospedaliera Universitaria - Policlinico Dullio Casula",,,,,,,
italy,Cagliari,Generalife Cagliari s.r.l.,39.2481381,9.1150307,"Via Edward Jenner, 21, 09121 Cagliari CA, Italy",800 816 969,https://www.generapma.it/cliniche/genera-cagliari/,Genera Cagliari,https://maps.google.com/?cid=5581347867573782094
italy,Cagliari,Servizio Ostetricia e Ginecologia - Diagnosi Prenatale e Preimpianto - Ospedale Regionale Microcitemico di Cagliari,,,,,,,
italy,Campobasso,Eco Center,41.5522417,14.6588291,"Via Conte Rosso, 10, 86100 Campobasso CB, Italy",347 916 0938,,ECOCENTER,https://maps.google.com/?cid=4238846202221566679
italy,Caserta,CARAN s.r.l. - Medicina e Biologia della Riproduzione,41.0824515,14.3314724,"Via Gennaro Tescione, 24, 81100 Caserta CE, Italy",0823 361430,https://www.caran.eu/,Centro Caran,https://maps.google.com/?cid=8439922610944738257
italy,Aversa,Centro Medico Iovino della Puca,40.9770583,14.2125555,"Via Grazia Deledda, 49, 81031 Aversa CE, Italy",081 503 2366,http://www.centromedicoiovinodellapuca.it/,Centro medico Iovino Della Puca,https://maps.google.com/?cid=7271055001754689496
italy,Caserta,Genesis Day Surgery & Scientific Research s.c.a.r.l.,41.0857044,14.3383589,"Via Giuseppe de Falco, 24, 81100 Caserta CE, Italy",0823 325388,http://www.iatropolis.it/,Genesis Day Surgery Caserta,https://maps.google.com/?cid=3496455198065785583
italy,Maddaloni,IATREION s.r.l. - Medicina Polispecialistica,41.0346239,14.4000161,"Via Forche Caudine, 92, 81024 Maddaloni CE, Italy",0823 406633,http://www.iatreion.it/,Clinica Iatreion,https://maps.google.com/?cid=1316710962953338092
italy,Marcianise,UOSD di Fisiopatologia della Riproduzione-P.O. di Marcianise- ASL Caserta,41.0351371,14.2922523,"Piazza Carita, 15, 81025 Marcianise CE, Italy",0823 518470,,Asl marcianise,https://maps.google.com/?cid=3428439934233583217
italy,Chieti,Casa di Cura Spatocco - Centro I.E.M.A. - Istituto Europeo Medicina della Riproduzione Abruzzese,42.3444539,14.1671957,"Via della Liberazione, 65, 66100 Chieti CH, Italy",338 820 6230,https://iemafecondazione.it/,I.E.M.A. Istituto Europeo Medicina della Riproduzione Abruzzese,https://maps.google.com/?cid=12198972348013803325
italy,Ortona,"Centro di Procreazione Medicalmente Assistita - ASL n° 2 Università degli studi ""G. d.Annunzio"" Chieti Pescara - Ospedale Civile ""G. Bernabeo"" di Ortona",42.3499317,14.3891088,"Contrada S. Liberata, 66026 Ortona CH, Italy",085 9171,,Ospedale Gaetano Bernabeo,https://maps.google.com/?cid=3245625555989845741
italy,Vasto,U.O. Medicina della Riproduzione - Ostetricia e Ginecologia - P.O. di Vasto,42.1182804,14.7101902,"Via S. Camillo de Lellis, 66054 Vasto CH, Italy",0873 3081,http://www.info.asl2abruzzo.it/ospedalevasto/,"Ospedale ""San Pio da Pietrelcina""",https://maps.google.com/?cid=2243319746061476626
italy,Racconigi,Centro Medico Racconigese s.a.s.,44.7612651,7.676768,"Via Caduti e Dispersi in Russia, 12, 12035 Racconigi CN, Italy",0172 84645,https://www.centromedicoracconigese.com/,Centro Medico Racconigese,https://maps.google.com/?cid=1017576679245856993
italy,Bra,"Centro PMA - Casa di Cura ""Città di Bra""",44.6962828,7.8587049,"Strada Montenero, 1, 12042 Bra CN, Italy",338 462 2384,http://abraonline.it/,A.B.R.A. s.s. Centro PMA Casa di Cura città di Bra,https://maps.google.com/?cid=10602108716546744395
italy,Fossano,S.S. Fisiopatologia della Riproduzione Umana,44.5519817,7.7214572,"Via S. Giuseppe, 4, 12045 Fossano CN, Italy",0172 370470,https://www.umana.it/?utm_source=gmb&utm_medium=umana&utm_campaign=gmb,Umana S.p.A. | Agenzia per il Lavoro,https://maps.google.com/?cid=12000408770005183969
italy,Cantù,Centro di Fisiopatologia della Riproduzione del P.O. di Cantù - ASST LARIANA,45.7394444,9.14,"Via Domea, 4, 22063 Cantù CO, Italy",031 799111,https://www.asst-lariana.it/v2/whereis/?pr=22&display=0,Ospedale Sant'Antonio Abate di Cantù,https://maps.google.com/?cid=6192216272915477644
italy,Appiano Gentile,LE BETULLE Casa di Cura s.r.l. - Unità di Procreazione Medico Assistita,45.7290329,8.9963517,"Viale Italia, 36, 22070 Appiano Gentile CO, Italy",031 973311,https://www.casadicuralebetulle.it/,LE BETULLE - Casa di Cura Privata,https://maps.google.com/?cid=8428115853420684620
italy,Cremona,Ambulatorio di Fisiopatologia della Riproduzione,45.1377547,10.0414345,"Via Mantova, 127, 26100 Cremona CR, Italy",0372 198 2451,http://www.poliambulatoriodallarosaprati-cremona.it/,Poliambulatorio Dalla Rosa Prati Cremona,https://maps.google.com/?cid=12515587357415237403
italy,Castrovillari,C.B.R. Centro di Biologia della Riproduzione,39.8131052,16.2012187,"Corso Giuseppe Garibaldi, 64, 87012 Castrovillari CS, Italy",0981 26694,,C.B.R. Centro di Biologia della Riproduzione,https://maps.google.com/?cid=1520586718803809662
italy,Cosenza,GENESIS,39.2953309,16.2547168,"Via Piave, 36, 87100 Cosenza CS, Italy",392 990 0246,http://www.genesismobile.it/,Genesis Mobile Calabria,https://maps.google.com/?cid=3612824820958147526
italy,Rende,LIFE LAB - Studio Medico Polispecialistico di Riproduzione e Medicalmente Assistita e Andrologia,39.34185,16.245662,"Palazzo ""PANTACO, Via Giuseppe Verdi, 62, 87036 Rende CS, Italy",0984 180 0860,,Studio Medico Polispecialistico,https://maps.google.com/?cid=5517448526686020759
italy,Cosenza,U.O.S. di Andrologia e Fisiopatologia della Riproduzione - P.O. Ospedale Annunziata di Cosenza,,,,,,,
italy,Catania,"A.O. ""Cannizzaro"" - Centro di PMA",37.5419219,15.11928,"Via Messina, 829, 95126 Catania CT, Italy",095 726 1111,http://www.ospedale-cannizzaro.it/,A.O. Cannizzaro,https://maps.google.com/?cid=15981843118144763990
italy,Catania,Casa di Cura Falcidia srl,37.5284445,15.0869926,"Viale Odorico da Pordenone, 32/34, 95126 Catania CT, Italy",095 580448,https://www.falcidia.it/,Casa di Cura Prof. E. Falcidia,https://maps.google.com/?cid=14626440479090902699
italy,Catania,Centro di Ginecologia e Medicina della Riproduzione GmR srl,37.5288009,15.0950176,"Viale Marco Polo, 11, 95126 Catania CT, Italy",095 336649,http://www.centrogmr.it/,Ginecologia e Medicina della Riproduzione,https://maps.google.com/?cid=15124745742156886034
italy,Catania,Centro di Medicina della Riproduzione e Infertilità (C.M.R.I.) s.r.l.,37.5199644,15.0589773,"Via Fondo Cosentino, 6, 95123 Catania CT, Italy",095 714 2620,http://www.drcarlotorrisi.it/,Centro di Medicina della Riproduzione e Infertilità,https://maps.google.com/?cid=11694425078862866185
italy,Sant'Agata li Battiati,Centro di Procreazione Medicalmente Assistita U.M.R.,37.5464164,15.084129,"Via Leucatia Croce, 95030 Sant'Agata li Battiati CT, Italy",095 419 9997,http://www.umrcatania.it/,U.M.R.,https://maps.google.com/?cid=2568250894502927550
italy,Catania,CRA Centro Riproduzione Assistita s.r.l.,37.5270843,15.088849,"Viale Odorico da Pordenone, 5, 95128 Catania CT, Italy",095 436595,,Cra Center Assisted Reproduction,https://maps.google.com/?cid=1870043566732858361
italy,Lamezia Terme,C.I.S. Medicina della Riproduzione,38.9579432,16.3288602,"Via degli Oleandri, n° 1, 88046 Lamezia Terme CZ, Italy",0968 432530,,Cis Clinical Institute of Sterility,https://maps.google.com/?cid=5611630432897990068
italy,Montauro,"Centro di Medicina della Riproduzione ""Diagnostica Nausicaa s.r.l.""",38.745587,16.5457772,"Via Costa degli Aranci, snc, 88060 Montauro CZ, Italy",0967 577613,http://www.centrosterilitanausicaa.it/,Centro di Medicina della Riproduzione Nausicaa,https://maps.google.com/?cid=2819369661416376546
italy,Tiriolo,Centro di Procreazione Medicalmente Assistita di I livello del Dr. Roberto Noia,38.8850479,16.5977478,"Viale Lucrezia della Valle, 19, 88100 Catanzaro CZ, Italy",,https://www.miodottore.it/strutture/centro-di-pma-urogyn-biotech-centro-di-riproduzione-assistita-infertilita-e-nutrizione/?utm_source=google&utm_medium=gmb&utm_campaign=34156,"Centro di PMA UroGyn BioTech (Centro di Riproduzione assistita, infertilità e nutrizione)",https://maps.google.com/?cid=3438169123443970570
italy,Catanzaro,Servizio di Procreazione Medicalmente Assistita dell' A.O. Pugliese-Ciaccio,,,,,,,
italy,Forlì,Ospedale Morgagni - Pierantoni di Forlì - Servizio di Fisiopatologia della Riproduzione Umana,44.2065048,12.0197209,"Via Carlo Forlanini, 34, 47121 Forlì FC, Italy",0543 731111,https://www.auslromagna.it/luoghi/ospedali/ospedale-morgagni-pierantoni-forli,"Ospedale ""Morgagni - Pierantoni"" di Forlì",https://maps.google.com/?cid=1987731157954286094
italy,Lagosanto,Fisiopatologia della riproduzione umana - Ospedale del Delta,44.7756816,12.1219808,"Via Valle Oppio, 2, 44023 Lagosanto FE, Italy",0533 723111,https://www.ausl.fe.it/amministrazione/ospedali/ospedale-del-delta,Ospedale del Delta,https://maps.google.com/?cid=10920617318750995784
italy,Foggia,"Struttura Semplice Dipartimentale di Fisiopatologia della Riproduzione e Procreazione Medica Assistita c/o Azienda Ospedaliera Universitaria ""Ospedali Riuniti"" di Foggia",,,,,,,
italy,Firenze,Centro Italiano Fertilità e Sessualità s.r.l.,43.7796,11.2520885,"Via della Fortezza, 6, 50129 Firenze FI, Italy",055 470521,,Centro Italiano Fertilita' e Sessualita',https://maps.google.com/?cid=10846964693098391019
italy,Firenze,"Centro Procreazione Assistita ""Demetra""",43.8046484,11.2435766,"Via Giulio Caccini, 18, 50141 Firenze FI, Italy",055 488709,http://www.centrodemetra.com/,Centro Procreazione Assistita Demetra Srl,https://maps.google.com/?cid=18046240388102077127
italy,Firenze,Florence - Centro di Chirurgia Ambulatoriale ed Infertilità,43.7788702,11.2671487,"Viale Giacomo Matteotti, 4, 50132 Firenze FI, Italy",055 423 0620,https://centroflorence.it/,Centro Florence,https://maps.google.com/?cid=15898184283439118347
italy,Firenze,Futura Diagnostica Medica - Procreazione Medicalmente Assistita s.r.l.,43.7800491,11.2601045,"Via Camillo Cavour, 72/74, 50121 Firenze FI, Italy",055 239 8366,http://www.futuradiagnosticamedica.it/,Futura Diagnostica Medica,https://maps.google.com/?cid=17318524342698777390
italy,Empoli,Futura Diagnostica Medica PMA srl 3,43.7800491,11.2601045,"Via Camillo Cavour, 72/74, 50121 Firenze FI, Italy",055 239 8366,http://www.futuradiagnosticamedica.it/,Futura Diagnostica Medica,https://maps.google.com/?cid=17318524342698777390
italy,Firenze,SOD di Procreazione Medicalmente Assistita - Università degli Studi di Firenze - A.O. Careggi,,,,,,,
italy,Frosinone,Centro Medico Life Srl,41.6435412,13.3043624,"Via Armando Fabi, località Aeroporto, 238, 03100 Frosinone FR, Italy",0775 855062,http://www.centromedicolife.it/,Centro Medico Life Srl,https://maps.google.com/?cid=12684877736771570331
italy,Cassino,Centro PMA del Cassinate,41.4951774,13.8300078,"Piazza S. Scolastica, 1, 03043 Cassino FR, Italy",0776 24333,,Laboratorio Chimico Del Cassinate,https://maps.google.com/?cid=16360136089091288071
italy,Sora,Centro S.T.S. s.r.l. - Ambulatorio Fisiopatologia della Riproduzione - Ginecologia ed Endocrinologia,41.7144348,13.6110252,"Via Giuseppe Ferri, 14, 03039 Sora FR, Italy",0776 824368,http://www.centrosts.com/,Centro S.T.S.,https://maps.google.com/?cid=10163119768084955849
italy,Lavagna,"Centro Ambulatoriale di Procreazione Medicalmente Assistita - Divisione Ostetricia e Ginecologia - Ospedale ""Riboli"" di Lavagna - ASL 4 ""Chiavarese""",,,,,,,
italy,Genova,Medicina della Riproduzione - Ospedale Evangelico Internazionale,44.4135077,8.942985,"Corso Solferino, 1, 16122 Genova GE, Italy",010 55221,http://www.ospedale-evangelico.it/,Ospedale Evangelico Internazionale,https://maps.google.com/?cid=1459625254151044173
italy,Genova,Tecnobios Procreazione srl,44.3996659,8.9492902,"C.so Torino, 87/C/R, 16129 Genova GE, Italy",010 591184,,9.Baby Dr.ssa Luiza Abbamonte Ginecologa,https://maps.google.com/?cid=18164716833910633765
italy,Genova,UOS Fisiopatologia della Riproduzione Umana IRCCS Policlinico Ospedale San Martino Genova,,,,,,,
italy,Grosseto,Medicina della Riproduzione A.USL9 - Grosseto,,,,,,,
italy,Venafro,Centro PMA NASCERE,41.4795076,14.0482687,"Via Giotto di Bondone, 37, 86079 Venafro IS, Italy",0865 904737,http://www.centropmanascere.it/,NASCERE CENTRO PMA - Centro Fecondazione Assistita,https://maps.google.com/?cid=5050515016829755312
italy,Crotone,Laboratorio Volante srl,39.082238,17.121505,"Via Mario Nicoletta, 166/168, 88900 Crotone KR, Italy",0962 29975,http://www.laboratoriovolante.it/,Laboratory Analysis Volante S.r.l,https://maps.google.com/?cid=14292787552758867343
italy,Barzanò,CAB Polidiagnostico - Ambulatorio di Medicina della Riproduzione,45.7372969,9.3154965,"Via dei Mille, 14, 23891 Barzanò LC, Italy",039 921 0202,http://www.cabservizi.it/,Cab Servizi - Medicina del Lavoro,https://maps.google.com/?cid=14071751350029555087
italy,Lecce,"Casa di Cura ""Prof. Petrucciani"" - Centro di Procreazione Medicalmente Assistita",40.3556374,18.1968172,"Viale Aldo Moro, 28, 73100 Lecce LE, Italy",0832 448333,https://www.casadicurapetrucciani.com/?utm_source=googlemybusiness&utm_medium=organic,Casa di Cura Prof.Petrucciani,https://maps.google.com/?cid=1507131744796726718
italy,Muro Leccese,PRODIA,40.0964828,18.3380581,"Via degli Emigranti, 51, 73036 Muro Leccese LE, Italy",0836 192 5390,https://pro-dia.it/,Prodìa Procreazione e diagnostica,https://maps.google.com/?cid=3956667214828088699
italy,Nardò,TECNOMED - Centro Medico Biologico,40.180012,18.0340074,"Via XX Settembre, 14, 73048 Nardò LE, Italy",0833 567547,http://www.centrotecnomed.it/,TECNOMED Medical Center Organic,https://maps.google.com/?cid=16930653169360785916
italy,Lecce,"U.O.S.D. Fisiopatologia della Riproduzione e Centro PMA - P.O. ""V. Fazzi""",40.3521734,18.1732761,"Via Vito Fazzi, 73100 Lecce LE, Italy",,,Via Vito Fazzi,"https://maps.google.com/?q=Via+Vito+Fazzi,+73100+Lecce+LE,+Italy&ftid=0x13442ee3e9d4ac85:0x92be90036177b977"
italy,Livorno,CRPO - Medicina della Riproduzione,43.5638331,10.3452424,"Via Giovanni March, 20, 57121 Livorno LI, Italy",0586 444034,http://www.crpo.eu/,CRPO - Centro Ricerca e Prevenzione - Centro Medico polispecialistico,https://maps.google.com/?cid=10101860106917351624
italy,Terracina,Centro Diagnostico Medico Anxur s.r.l.,41.2881858,13.2508157,"Via Lungolinea Pio VI, 107, 04019 Terracina LT, Italy",0773 724025,http://www.cdmanxur.it/,Medical Diagnostic Center Anxur,https://maps.google.com/?cid=11969638690109986564
italy,Latina,Laboratorio Diagnostica Medica Srl,41.4460918,12.8788227,"Largo F. Cavalli, 4, 04100 Latina LT, Italy",0773 624958,,Laboratorio Diagnostica Medica S.R.L.,https://maps.google.com/?cid=16414810538721693337
italy,Latina,Ospedale Santa Maria Goretti - Dipartimento Materno lnfantile - UOC Ostetricla e Ginecologla DEA ll - UOS Fisiopatologia della Riproduzione (PMA),,,,,,,
italy,Viareggio,"Centro di Riproduzione Assistita ""Ettore Barale"" - U.O.S. Centro Procreazione Medicalmente Assistita - Ospedale Versilia - Azienda USL Toscana NordOvest",,,,,,,
italy,Barga,U.O. Ostetricia e Ginecologia - Ospedale S. Francesco di Barga - USL 2,44.0705038,10.4801477,"Via dei Frati, 32, 55051 Barga LU, Italy",0583 7290,https://www.uslnordovest.toscana.it/ospedali/barga-ospedale-san-francesco,Ospedale San Francesco,https://maps.google.com/?cid=16407046394456139834
italy,Monza,Centro di Medicina della Riproduzione BIOGENESI - Istituti Clinici Zucchi,45.585917,9.272353,"Via Bartolomeo Zucchi, 24, 20900 Monza MB, Italy",039 83831,https://www.grupposandonato.it/strutture/istituti-clinici-zucchi-monza,Zucchi Monza Clinical Institute,https://maps.google.com/?cid=17618908808302012632
italy,Monza,Centro Medico Dr.ssa Nadia Meroni,45.5863424,9.2852969,"Via Enrico da Monza, 28, 20900 Monza MB, Italy",039 232 8103,http://www.nadiameroni.it/contatti/,Meroni D.Ssa Nadia,https://maps.google.com/?cid=16917233196401062135
italy,Monza,Centro Sofia s.r.l. - Centro Medico Polispecialistico,45.5906151,9.2673971,"Via Alessandro Volta, 44, 20900 Monza MB, Italy",039 390 0664,http://www.centrosofia.it/,Centro Sofia,https://maps.google.com/?cid=10467966663530234972
italy,Carate Brianza,"Centro Sterilità - U.O. Ostetricia e Ginecologia - Ospedale Civile di Vimercate - P.O. ""Vittorio Emanuele III"" di Carate Brianza",,,,,,,
italy,Monza,Studio Medico Dott. Fadini Rubens,45.5864141,9.270979,"Via Bartolomeo Zucchi, 40, 20900 Monza MB, Italy",,,Dr. Rubens Fadini,https://maps.google.com/?cid=11462082380250712545
italy,Messina,Azienda Ospedaliera Papardo - Centro PMA,38.2638574,15.5965147,"Contrada Papardo, 98158 Messina ME, Italy",090 3991,https://www.aopapardo.it/,Azienda Ospedaliera Papardo,https://maps.google.com/?cid=1285082498046684040
italy,Torregrotta,Centro Polispecialistico Rizzo s.r.l.,38.2098278,15.3438712,"Via Dante Alighieri, 11, 98043 Torregrotta ME, Italy",090 991 2516,http://centropolispecialisticorizzo.com/,Center Polispecialistico Rizzo srl,https://maps.google.com/?cid=15851689602395582272
italy,Messina,Centro Riproduzione Umana C.R.U. srl,38.17957,15.55165,"Via Trento, 20, 98123 Messina ME, Italy",090 695570,https://www.centroriproduzioneumana.it/,Centro Riproduzione Umana Messina Reggio Calabria,https://maps.google.com/?cid=5480509066663299245
italy,Milano,Altamedica,45.4625453,9.1926817,"Largo Ildefonso Schuster, 1, 20122 Milano MI, Italy",02 8699 6054,https://www.altamedicamilano.it/,Altamedica Milano,https://maps.google.com/?cid=10153172635249828569
italy,Milano,Casa di Cura IGEA - Servizio Procreazione Medicalmente Assistita,45.4633431,9.2197045,"Via Giuseppe Piolti de' Bianchi, 3, 20129 Milano MI, Italy",02 701421,http://www.casadicuraigea.it/,Poliambulatorio Casa di Cura Igea,https://maps.google.com/?cid=8299112395906524570
italy,Milano,"Centro di Fecondazione Assistita - Casa di Cura ""La Madonnina S.P.A.""",45.4542407,9.1948124,"Via Quadronno, 29, 20122 Milano MI, Italy",800 688 599,https://www.eugin.it/,Centro di PMA Madonnina Milano - Eugin,https://maps.google.com/?cid=6824700833400191792
italy,Milano,Centro di Procreazione Medico Assistita - Istituto Clinico Città Studi SpA,45.4852128,9.2252411,"Via Niccolò Jommelli, 17, 20131 Milano MI, Italy",02 23931,http://www.ic-cittastudi.it/,Istituto Clinico Città Studi,https://maps.google.com/?cid=13939627871923971689
italy,Milano,Centro di Riproduzione Assitita - U.O. Ostetricia e Ginecologia - A.O. Luigi Sacco - P.O. Luigi Sacco,,,,,,,
italy,Milano,Centro ECOMED - Centro C.E.C.O.S,,,,,,,
italy,Milano,Centro Medico Sterilità Monterosa s.r.l.,45.470827,9.154501,"Via Monte Rosa, 3, 20149 Milano MI, Italy",02 4800 1155,http://www.centromedicomonterosa.it/,Centro Medico Monterosa,https://maps.google.com/?cid=7406260413376045749
italy,Milano,Centro Scienze della Natalità - I.R.C.C.S. Ospedale San Raffaele,45.5068815,9.264759,"Via Olgettina, 60, 20132 Milano MI, Italy",02 26431,https://www.hsr.it/,San Raffaele Hospital,https://maps.google.com/?cid=14776521095652369662
italy,Milano,Centro Studi e Trattamento per Disturbi della Fertilità - U.O. Ostetricia e Ginecologia - U.O. Ospedale Niguarda Ca Granda,,,,,,,
italy,Paderno Dugnano,Clinica San Carlo - Casa di Cura Privata Polispecialistica Spa U.O. Ostetricia e Ginecologia - Procreazione Medicalmente Assistita,45.5733067,9.1553557,"Via Ospedale, 21, 20037 Paderno Dugnano MI, Italy",02 990381,http://www.clinicasancarlo.it/,Clinica San Carlo - Casa di Cura Polispecialistica,https://maps.google.com/?cid=6125743021413318088
italy,Milano,ESMAN - Medical Consulting s.r.l.,45.4527397,9.1953415,"Via Carlo Crivelli, 20, 20122 Milano MI, Italy",02 5832 0182,http://www.studiosemprini.com/,Esman Medical Consulting Srl,https://maps.google.com/?cid=14321409449718204043
italy,Milano,"ESPA - Centro Endocrinologia, Sterilità e PMA - Ospedale M. Melloni - A.O. Fatebenefratelli e Oftalmico - U.O. Ostretricia e Ginecologia",,,,,,,
italy,Milano,Fondazione Ca' Granda Ospedale Maggiore Policlinico U.O. Semplice Dipartimentale (UOSD) - PMA,45.4588417,9.1949702,"Via Francesco Sforza, 35, 20122 Milano MI, Italy",02 55031,http://www.policlinico.mi.it/,Policlinico of Milan,https://maps.google.com/?cid=11720108595656436849
italy,Milano,GeneraLife Milano,45.4649409,9.1992264,"Via Cerva, 25, 20122 Milano MI, Italy",800 816 969,https://www.generapma.it/cliniche/genera-milano/,Genera Milano,https://maps.google.com/?cid=11776047276067892099
italy,Milano,GINECEA srl,45.4792095,9.1885263,"Via Solferino, 35, 20121 Milano MI, Italy",02 6269 4750,http://www.ginecea.it/,Ginecea Studio Medico,https://maps.google.com/?cid=11254033209686985996
italy,Rozzano,IRCCS Istituto Clinico Humanitas - Dipartimento di Ginecologia e Medicina della Riproduzione,45.3739094,9.1656634,"Via Alessandro Manzoni, 56, 20089 Rozzano MI, Italy",02 82241,https://www.humanitas.it/,Humanitas Research Hospital,https://maps.google.com/?cid=13873113975734074336
italy,Milano,IVI Milano,45.4683362,9.1630064,"Via Guido D'Arezzo, 4, 20145 Milano MI, Italy",02 8736 8344,https://ivitalia.it/centri/milano/?utm_source=google-mb&utm_medium=organic&utm_campaign=ivi_it_clinica-milano_conversion,Studio Medico Ginecologico IVI Milano s.r.l.,https://maps.google.com/?cid=8762966959083587457
italy,Milano,Milano Fertility Clinic S.r.l.,45.4560183,9.1835278,"Via Santa Croce, 8, 20122 Milano MI, Italy",,https://milanofertilityclinic.it/,Milano Fertility Clinic,https://maps.google.com/?cid=12550150893648469659
italy,Milano,"Procreazione Medicalmente Assistita - PMA - A. O. ""San Paolo"" di Milano",45.4542407,9.1948124,"Via Quadronno, 29, 20122 Milano MI, Italy",800 688 599,https://www.eugin.it/,Centro di PMA Madonnina Milano - Eugin,https://maps.google.com/?cid=6824700833400191792
italy,Milano,SOGEME s.r.l. - Istituto Medico Milanese,45.4610734,9.203079,"Via Podgora, 11, 20122 Milano MI, Italy",02 546 9570,http://istitutomedicomilanese.it/,ISTITUTO MEDICO MILANESE,https://maps.google.com/?cid=8706763778211335993
italy,Milano,Tree of Life,45.5206706,9.1071819,"Piazzale EXPO 2015, 20157, 20157 Milano MI, Italy",,,Tree Of Life,https://maps.google.com/?cid=15611781497865408143
italy,Mantova,Centro di Medicina della Riproduzione ed Endocrinologia - U.O. Ostetricia e Ginecologia - A.O. Carlo Poma,,,,,,,
italy,Modena,Centro di Medicina della Riproduzione - Struttura Semplice di Procreazione Medicalmente Assistita- PMA U.O.C. Ginecologia e Ostetricia Dipartimento Materno Infantile - Azienda Ospedaliero-Universitaria di Modena,,,,,,,
italy,Carpi,Centro di Sterilità di Coppia - Ospedale di Carpi,44.7862892,10.8775778,"Via Guido Molinari, 2, 41012 Carpi MO, Italy",059 659111,http://www.ausl.mo.it/flex/FixedPages/Common/luogo.php/L/IT/id/3627,Ospedale di Carpi,https://maps.google.com/?cid=5090923452555089279
italy,Modena,Clinica Eugin,44.6491626,10.8970503,"188F, Via L. Nobili, 41126 Modena MO, Italy",800 688 595,https://www.eugin.it/,Clinical Eugin Modena,https://maps.google.com/?cid=14171066654820702663
italy,Matera,Centro di Fisiopatologia della Riproduzione - Dipartimento Funzionale di Ostetricia e Ginecologia - Ospedale Madonna S.S. delle Grazie - ASL n.4 di Matera,,,,,,,
italy,San Gennaro Vesuviano,"Casa di Cura ""La Madonnina"" s.r.l.",40.8601104,14.5274853,"Via Roma, 29, 80040 San Gennaro Vesuviano NA, Italy",081 528 7611,http://www.casadicuralamadonnina.it/,Casa di Cura La Madonnina,https://maps.google.com/?cid=7093068710745897244
italy,Napoli,Centro Chemis Iaccarino,40.8273791,14.2201482,"V. Francesco Caracciolo, 2, 80122 Napoli NA, Italy",081 240 4308,,Centro Chemis Iaccarino,https://maps.google.com/?cid=5233331603729400410
italy,Napoli,Centro di PMA - Clinica Mediterranea,40.827013,14.2189592,"Via Orazio, 2, 80122 Napoli NA, Italy",081 725 9222,http://www.clinicamediterranea.it/,Clinica Mediterranea - Ospedale e Centro Diagnostico,https://maps.google.com/?cid=16161037933813396028
italy,Pozzuoli,Centro di PMA - P.O. Santa Maria delle Grazie di Pozzuoli - ASL NA2 nord,40.8489041,14.0733011,"Via Domiziana, 80078 Località La Schiana, Pozzuoli NA, Italy",081 855 2111,https://www.aslnapoli2nord.it/index.php/it/strutture/presidi-ospedalieri/santa-maria-delle-grazie,"Presidio Ospedaliero ""S. Maria Delle Grazie""",https://maps.google.com/?cid=165040833226803321
italy,Napoli,Centro di PMA Dott. Sannino Ferdinado,40.8556352,14.3256655,"Via Viscardi, 47, 80147 Napoli NA, Italy",081 561 1016,,Sannino Ferdinando,https://maps.google.com/?cid=5740196857928664151
italy,Castellammare di Stabia,Centro di PMA per la Diagnosi e Terapia dell'Infertilità di Coppia - Dott. Sosa Fernandez,40.6966931,14.4895852,"Viale Puglia, 33, 80053 Castellammare di Stabia NA, Italy",081 870 7081,,Centro Pma Dott. Sosa,https://maps.google.com/?cid=15052261815597781888
italy,Napoli,Centro di Sterilità - Az. Univ. Policlinico - Università degli Studi di Napoli Federico II,40.8682272,14.2189266,"Via Sergio Pansini, 5, 80131 Napoli NA, Italy",081 746 2941,,Sterilità e Infertilità di Coppia - AOU Federico II,https://maps.google.com/?cid=1154653356443118988
italy,San Giorgio a Cremano,"Centro Fecondazione Assistita ""Andrea Grimaldi""",40.8313551,14.3319729,"Via Guglielmo Marconi, 4, 80046 San Giorgio a Cremano NA, Italy",081 020 7111,http://www.andreagrimaldi.com/,Casa di Cura 'Andrea Grimaldi',https://maps.google.com/?cid=933107776543814575
italy,Napoli,"Centro Medico ""Canero""",40.8880399,14.2502112,"Via Miano, 131, 80145 Napoli NA, Italy",081 543 4438,https://www.riccardocanero.it/,Fisiatra Dr Riccardo Canero,https://maps.google.com/?cid=6568637785453162924
italy,Napoli,Centro per lo Studio della Coppia Infertile,40.8350745,14.2140058,"Via Torquato Tasso, 480, 80123 Napoli NA, Italy",081 641689,https://www.centrofecondazioneassistita.com/,CFA Napoli - Centro Fecondazione Assistita,https://maps.google.com/?cid=1464931232890648745
italy,Giugliano in Campania,Clinic Center HERA - Centro HERA srl,40.9394013,14.2037897,"Via Santa Caterina da Siena, 36, 80014 Giugliano in Campania NA, Italy",081 506 7919,http://www.clinicahera.it/,Clinica HERA,https://maps.google.com/?cid=5853804976045532920
italy,Napoli,Genera Napoli S.r.l.,40.8368549,14.2193478,"Viale Maria Cristina di Savoia, 41, 80122 Napoli NA, Italy",800 816 969,https://www.generapma.it/cliniche/genera-napoli/,Genera Napoli,https://maps.google.com/?cid=17717912151264813041
italy,Napoli,Global life srl - Centro Fecondazione Assistita,40.8350745,14.2140058,"Via Torquato Tasso, 480, 80123 Napoli NA, Italy",081 641689,https://www.centrofecondazioneassistita.com/,CFA Napoli - Centro Fecondazione Assistita,https://maps.google.com/?cid=1464931232890648745
italy,Gragnano,Gruppo Omnia Salute Stp Srl,40.6902768,14.5182309,"Via Roma, 141/139, 80054 Gragnano NA, Italy",,,OMNIA SALUTE GRAGNANO,https://maps.google.com/?cid=6057233374353201181
italy,Pompei,MEDICA FUTURA srl,40.739927,14.4829523,"S.da Statale 145, n° 24, 80045 Pompei NA, Italy",081 862 8137,http://www.centromedicafutura.it/,Centro Polispecialistico Medica Futura,https://maps.google.com/?cid=12772817460620339388
italy,Napoli,Medicina della Riproduzione P.O. San Paolo,40.8271013,14.182318,"Via Terracina, 219, 80125 Napoli NA, Italy",800 278 330,http://www.aslnapoli1centro.it/,Ospedale San Paolo Asl Napoli 1,https://maps.google.com/?cid=13576137988754121061
italy,Napoli,Megaride Fertility Network - Casa di cura Villa Angela,40.8206159,14.2082966,"Via Alessandro Manzoni, 141/C, 80123 Napoli NA, Italy",081 246 1911,,Casa di Cura Villa Angela - Convenzionato S.S.N.R.,https://maps.google.com/?cid=16805269990436237007
italy,Napoli,O.P.C. - Analisi Chimiche e Cliniche s.r.l.,40.836006,14.221208,"C.so Vittorio Emanuele, 656, 80121 Napoli NA, Italy",081 761 1070,,Opc Srl,https://maps.google.com/?cid=4014682507538449101
italy,Napoli,P.M.A s.r.l,40.9466891,14.2174764,"Via Plutone, 6, 80029 Sant'Antimo NA, Italy",081 395 2814,https://www.salute.gov.it/portale/fertility/dettaglioContenutiFertility.jsp?lingua=italiano&id=4570&area=fertilita&menu=medicina,PMA S.r.l.,https://maps.google.com/?cid=3295550858988649540
italy,Napoli,Prima Vita,40.8492586,14.2299222,"Via Tino di Camaino, 6, 80128 Napoli NA, Italy",081 556 9922,https://www.miodottore.it/maurizio-muzi/ginecologo/napoli?utm_source=google&utm_medium=gmb&utm_campaign=63270,Centro per l'infertilità e fecondazione assistita del Dr. Maurizio Muzi,https://maps.google.com/?cid=1934586538147520315
italy,Napoli,"Università degli studi Luigi Vanvitelli - UOC Ginecologia, Ostetricia e Fisiopatologia della Riproduzione",40.8682466,14.2191719,"Via Sergio Pansini, 5, 80131 Napoli NA, Italy",,,"Ginecologia, Ostetricia e Fisiopatologia della Riproduzione Umana - AOU Federico II",https://maps.google.com/?cid=5040097554079907194
italy,Acerra,Villa dei Fiori s.r.l.,40.935907,14.367556,"223 (ex 157, Corso Italia, 80011 Acerra NA, Italy",081 319 0111,,Casa di Cura Privata Villa dei Fiori,https://maps.google.com/?cid=17652321337100363607
italy,Napoli,Vis Procreandi Srl,40.8574535,14.2834184,"Via Giovanni Porzio, Centro Dirzionale di, VI piano, 4/Isolato C2 scala A, 80143 Napoli NA, Italy",081 633 1229,https://visprocreandi.it/,Vis Procreandi - Fertility Center,https://maps.google.com/?cid=3709601173667161847
italy,Castellammare di Stabia,VITA - U.O. Ostetricia e Ginecologia - P.O. Castellammare di Stabia,40.7020413,14.4894991,"Viale Europa, 283, 80053 Castellammare di Stabia NA, Italy",081 872 9231,http://www.aslna3sud.it/,UOC Ginecologia ed Ostetricia,https://maps.google.com/?cid=15107263834386183216
italy,Novara,Centro Medicina della Riproduzione - Dott.ssa Silvana Gippone,45.4404258,8.6236814,"Via Monte San Gabriele, 2, 28100 Novara NO, Italy",0321 397316,https://www.studiomedicogippone.com/,Centro di Medicina della Riproduzione Gippone Dott.ssa Silvana,https://maps.google.com/?cid=8396851122435787090
italy,Novara,Città di Novara,45.4467749,8.6168696,"28100 Novara, Province of Novara, Italy",,,Novara,"https://maps.google.com/?q=28100+Novara,+Province+of+Novara,+Italy&ftid=0x47865a204242336d:0x4d210e35fa2980f0"
italy,Novara,Provita,45.4347616,8.602989,"Via Fiume, 13, 28100 Novara NO, Italy",0321 182 0701,http://www.centroprovita.it/,Centro ProVita,https://maps.google.com/?cid=2411701759270844983
italy,Galliate,Struttura Semplice Procreazione Medicalmente Assistita c/o Sede di Galliate,,,,,,,
italy,Palermo,A.M.B.R.A. Associazione Medici e Biologi per la Riproduzione Assistita,38.1211966,13.3432591,"Viale Regina Margherita, 5, 90138 Palermo PA, Italy",091 682 6454,https://www.studioambra.org/,SEDE OPERATIVA Centro di PMA - A.M.B.R.A Associazione Medici e Biologi per la Riproduzione Assistita Palermo,https://maps.google.com/?cid=7514512535024666568
italy,Palermo,Ambulatorio di Ostetricia e Ginecologia del Dott. Giovanni Alaimo,38.1336784,13.3433882,"Via N. Morello, 38, 90144 Palermo PA, Italy",375 623 6494,https://medicisicilia.it/doctor/173-dott-luigi-alaimo/,Dott. Luigi Alaimo Specialista in Ostetricia e Ginecologia,https://maps.google.com/?cid=10992284848620391009
italy,Palermo,Ambulatorio di Ostetricia e Ginecologia Dott. Andrea Biondo,38.1293413,13.3511304,"Via XX Settembre, 69, 90141 Palermo PA, Italy",091 306762,http://www.andreabiondo.it/,Dottore Andrea Biondo - Ginecologo,https://maps.google.com/?cid=8857913391940583287
italy,Palermo,Centro Andros s.r.l.,38.148361,13.3361367,"Via Ausonia, 43/45, 90144 Palermo PA, Italy",091 678 5511,http://www.clinicaandros.it/,Andros Clinica Day Surgery | Medicina della riproduzione,https://maps.google.com/?cid=13527834608586767422
italy,Palermo,Centro di Biologia della Riproduzione s.r.l. (C.B.R. s.r.l.),38.122823,13.355129,"Via Valerio Villareale, 54, 90141 Palermo PA, Italy",091 323300,http://www.cbrpalermo.it/,CBR Centro Di Biologia Della Riproduzione,https://maps.google.com/?cid=12644063295844831231
italy,Palermo,Centro Genesy s.r.l.,38.1446863,13.34296,"Via della Libertà, 203/b, 90144 Palermo PA, Italy",091 309380,http://centrogenesi.com/,CENTRO GENESI,https://maps.google.com/?cid=7355186887639358837
italy,Palermo,Centro Interaziendale di PMA - P.O. Cervello c/o A.O. Villa Sofia Cervello,,,,,,,
italy,Palermo,Centro Medico San Michele s.r.l.,38.1336784,13.3433882,"Via N. Morello, 38, 90144 Palermo PA, Italy",091 345811,,Centro Medico San Michele Srl,https://maps.google.com/?cid=14677162391958834151
italy,Piacenza,Prometeo - Medical & Genetics,45.0433459,9.7048753,"Via Orazio Camia, 7, 29122 Piacenza PC, Italy",0523 353706,https://www.prometeopma.it/,Prometeo Medical & Genetics,https://maps.google.com/?cid=13608197286449913623
italy,Padova,Biotech PMA srl,45.4125359,11.8834624,"Galleria Trieste, 2, 35121 Padova PD, Italy",049 821 9588,http://www.biotechpma.it/,Biotech Pma Srl,https://maps.google.com/?cid=1174904947182118483
italy,Cittadella,Centro di Fecondazione Medicalmente Assistita di Cittadella - U.O.A. Ostetricia e Ginecologia - Dipartimento Materno Infantile - P.O. di Cittadella,45.6472643,11.7883354,"Via Pilastroni, 35013 Cittadella PD, Italy",049 942 4111,https://www.aulss6.veneto.it/index.cfm?action=ospedali.cittadella,Cittadella Hospital - ULSS 6 Euganea,https://maps.google.com/?cid=16303716410506106387
italy,Padova,Diagnostica Riviera srl,45.4262545,11.9453812,"Via Bravi, 49, 35129 Ponte di Brenta PD, Italy",049 622 5200,http://www.diagnosticariviera.it/,Diagnostica Riviera S.r.l. - Ponte di Brenta,https://maps.google.com/?cid=8605304705883612636
italy,Albignasego,Elysium MED srl,45.355896,11.8691978,"Via Roma, 60/A, 35020 Albignasego PD, Italy",349 782 8241,http://www.elysiummed.net/,Elysium Med Centro Medico Multispecialistico,https://maps.google.com/?cid=5431058231644151575
italy,Padova,Studio Gemma - Triveneta Iniziative S.r.l.,45.4035254,11.9121657,"Via Giovanni Boccaccio, 104/C, 35128 Padova PD, Italy",049 880 4140,http://www.studiogemma.org/,Studio Gemma Fecondazione Assistita,https://maps.google.com/?cid=9651027366492315614
italy,Padova,Studio Medico dott. Andrea Garolla,45.3993836,11.8916915,"Via Nazareth, 2, 35128 Padova PD, Italy",049 851888,http://www.studiogarolla.com/,Studio Prof. Garolla Andrea,https://maps.google.com/?cid=8908975660244609679
italy,Padova,Unità Operativa Semplice Procreazione Medicalmente Assistita - Università - Azienda di Padova,,,,,,,
italy,Città Sant'Angelo,Casa di Cura Villa Serena del Dott. L. Petruzzi s.r.l.,42.5193343,14.113169,"Via Leonardo Petruzzi, 42, 65013 Città Sant'Angelo PE, Italy",085 95901,http://www.villaserena.it/,Villa Serena del Dr. Leonardo Petruzzi,https://maps.google.com/?cid=3308348425769878509
italy,Umbertide,Ambulatorio Chirurgico di Ginecologia ed Ostetricia - Genera Umbria s.r.l.,43.3104897,12.3298371,"Via Papa Paolo VI, 2/A, 06019 Umbertide PG, Italy",800 816 969,https://www.generapma.it/cliniche/genera-umbria/,GENERA Umbria,https://maps.google.com/?cid=11839912558851269246
italy,Todi,Centro di Procreazione Medicalmente Assistita Clinica Ostetrica e Ginecologica Azienda Ospedaliera di Perugia Ospedale della Media Valle del Tevere - Pantalla,42.8778874,12.4035528,"Via del Buda, 06059 Pantalla, Todi PG, Italy",075 888 0611,,Hospital Media Valle Del Tevere,https://maps.google.com/?cid=15886875977099297647
italy,Pisa,Centro Medico Esculapio,43.7235839,10.3920428,"Via Giovanni Battista Niccolini, 12, 56122 Pisa PI, Italy",050 830527,https://www.esculapiopisa.com/,Centro Medico Chirurgico Esculapio,https://maps.google.com/?cid=3695474010508575432
italy,Ponsacco,Centro PMA Valdera,43.6262734,10.6172149,"Viale Italia, 3, 56038 Ponsacco PI, Italy",0587 733223,http://pmavaldera.it/,CENTRO PMA VALDERA SRL,https://maps.google.com/?cid=12751135249825080089
italy,Pisa,Centro Procreazione Assistita Ce.S.Co,43.718957,10.3929838,"Via Nicola Pisano, 56, 56126 Pisa PI, Italy",338 264 4488,https://www.procreazioneeprogresso.com/,Centro Procreazione Assistita Dott. De Ruggiero Alessandro,https://maps.google.com/?cid=8733705373975763945
italy,Pisa,"Fertility IVF Unità ""Pina de Luca"" c/o Casa di Cura San Rossore",43.7244944,10.3755819,"Viale delle Cascine, 152 F, 56122 Pisa PI, Italy",050 586429,https://www.casadicurasanrossore.it/diagnosi-e-cura/specialita/procreazione-medicalmente-assistita/,Casa di Cura Privata San Rossore Fertility&IVF Unit “Pina De Luca”,https://maps.google.com/?cid=5801680143277740183
italy,Pisa,Percorso Infertilità e Procreazione medicalmente assistita. Azienda Ospedaliero Universitaria Pisana,43.704163,10.441387,"Edificio 31, 56124 Pisa PI, Italy",050 996065,http://www.ao-pisa.toscana.it/index.php?option=com_content&view=article&id=3548%3Auo-anestesia-e-rianimazione-6&catid=409&Itemid=54&showall=1,UO Anestesia e Rianimazione Azienda Ospedaliero Universitaria Pisana,https://maps.google.com/?cid=13918750393915121474
italy,Pordenone,Casa di Cura Policlinico San Giorgio,45.946769,12.6602358,"Via Agostino Gemelli, 10, 33170 Pordenone PN, Italy",0434 519111,http://www.clinicasangiorgio.it/,"Nursing Home ""SAN GIORGIO""",https://maps.google.com/?cid=14653907782396289228
italy,Sacile,SSD Procreazione Medicalmente Assistita - Presidio Ospedaliero per la Salute - Sacile PN- ASFO - Friuli Occidentale,45.9559105,12.5001924,"Via Ettoreo, 4, 33077 Sacile PN, Italy",0434 736111,,Presidio Ospedaliero per la Salute di Sacile (AS FO),https://maps.google.com/?cid=6018473505081208338
italy,Parma,Centro Medico Spallanzani - Express Diagnostic Parma s.r.l.,44.802714,10.339374,"Viale Tanara Faustino, 20/b, 43121 Parma PR, Italy",0521 287178,https://www.expressdiagnostic.it/parma/,Spallanzani Medical Center,https://maps.google.com/?cid=17134654091776471630
italy,Fidenza,Centro Procreazione Medicalmente Assistita (CPMA) - P.O. di Fidenza - S. Secondo -AUSL di Parma,,,,,,,
italy,Pesaro,Centro di Medicina della Riproduzione e Tecniche di Fecondazione Assistita - UOC Ostetricia e Ginecologia - Az. Osp. Ospedali Riuniti Marche NORD,,,,,,,
italy,Pesaro,"Studio Medico ""Santa Caterina""",43.9087662,12.9161927,"Piazzale Giacomo Matteotti, 22, 61121 Pesaro PU, Italy",0721 370625,http://www.studiomedico-santacaterina.it/,Studio Medico Santa Caterina,https://maps.google.com/?cid=16903064061072498039
italy,Pavia,IRCCS Policlinico San Matteo di Pavia - 1 - Clinica Ostetricia e Ginecologia - Centro Procreazione Medicalmente Assistita,,,,,,,
italy,Pavia,ProVita Medical Center di AFMM Srl,45.1946735,9.1540617,"Via Indipendenza, 11, 27100 Pavia PV, Italy",0382 185 0367,https://www.paviamedicalcenter.it/,Pavia Medical Center,https://maps.google.com/?cid=1848609248187411571
italy,Potenza,"Azienda Ospedaliera Regionale ""San Carlo"" - Dipartimento della donna e del bambino - U.O.C. Ostetricia e Ginecologia - Procreazione Medicalmente Assistita",,,,,,,
italy,Lugo,ARTeBIOS,44.4250375,11.9051645,"Via Vincenzo Giardini, 11, 48022 Lugo RA, Italy",0545 20113,https://ambulatoridemetra.it/,Demetra ARTeBIOS - Poliambulatorio Medico Chirurgico e Centro di Procreazione Medicalmente Assistita,https://maps.google.com/?cid=14431696914056484371
italy,Lugo,Servizio di Fisiopatologia della Riproduzione Umana - AUSL della Romagna P.O. di Lugo,44.4174068,11.9183793,"Viale Masi, 8, 48022 Lugo RA, Italy",0545 214111,https://www.auslromagna.it/,AUSL Ravenna,https://maps.google.com/?cid=4002387007289021441
italy,Gioia Tauro,Gatjc - Gioia Tauro,38.4274602,15.9049108,"Via Ugo Foscolo, 53, 89013 Gioia Tauro RC, Italy",0966 56123,https://www.gatjc.com/,GATJC - Medically Assisted Procreation,https://maps.google.com/?cid=7703817867749592913
italy,Reggio nell'Emilia,Centro Palmer S.r.l.,44.7069237,10.6161404,"Via Gian Battista Isacchi, 8, 42124 Reggio Emilia RE, Italy",0522 792400,http://www.centropalmer.it/,Palmer Center Srl,https://maps.google.com/?cid=16145746694545882259
italy,Reggio nell'Emilia,"Centro per la Diagnosi e la Terapia della Sterilità Involontaria di Coppia ""P-Bertocchi"" - Arcispedale S. Maria Nuova - AUSL di Reggio Emilia",44.7129724,10.6513183,"Via Errico Petrella, 1/a, 42122 Reggio nell'Emilia RE, Italy",0522 339501,,Mental Health Center,https://maps.google.com/?cid=17844731984373395581
italy,Ragusa,"""Medi.San S.r.l."" c/o Casa di Cura del Mediterraneo",36.9193416,14.7045514,"Via Ettore Fieramosca, 100, 97100 Ragusa RG, Italy",0932 641001,http://www.clinicadelmediterraneo.com/,Clinica del Mediterraneo,https://maps.google.com/?cid=14598621665246342170
italy,Roma,"""Centro PMA Villa Pia""",41.8681469,12.450827,"Via Bernardino Ramazzini, 93, Via Folco Portinari, 5, 00151 Roma RM, Italy",06 53902,http://www.clinicavillapia.it/,Nursing Home Clinic Villa Pia,https://maps.google.com/?cid=14602874599250654129
italy,Roma,Alma Res,41.9216683,12.5138114,"Via Parenzo, 12, 00198 Roma RM, Italy",06 855 0385,http://www.almares.it/,Alma Res - Centro Fecondazione Assistita,https://maps.google.com/?cid=12910013489372653087
italy,Roma,ARTEMISIA SpA,41.9219224,12.493138,"Viale Liegi, 45, 00198 Roma RM, Italy",06 8505,https://www.altamedica.it/,Altamedica Artemisia,https://maps.google.com/?cid=10432414410507712841
italy,Roma,C.I.P.A. Centro Italiano Procreazione Assistita - Studio di Diagnosi Medica S.r.l.,41.9116108,12.5080633,"V.le Regina Margherita, 270, 00198 Roma RM, Italy",06 4423 1221,http://www.ciparoma.it/,C.I.P.A. - Centro Italiano Procreazione Assistita,https://maps.google.com/?cid=473034392424703830
italy,Roma,"Casa di cura ""Villa Margherita""",41.9153343,12.5172839,"Viale di Villa Massimo, 48, 00161 Roma RM, Italy",06 862751,https://clinicavillamargherita.it/it/?utm_source=gmb,Clinica Villa Margherita,https://maps.google.com/?cid=8008919656270298835
italy,Roma,Casa di Cura Nuova Villa Claudia,41.9524267,12.4741845,"Via Flaminia Nuova, 280, 00191 Roma RM, Italy",06 367971,https://nuovavillaclaudia.it/,New Villa Claudia,https://maps.google.com/?cid=9604039721205729061
italy,Roma,Casa di Cura Privata European Hospital,41.8540705,12.4366325,"Via Portuense, 700, 00149 Roma RM, Italy",06 659751,http://www.europeanhospital.it/,European Hospital,https://maps.google.com/?cid=2578259435292468148
italy,Roma,Casa di cura privata Villa Mafalda,41.9326756,12.5102472,"Via Monte delle Gioie, 5, 00199 Roma RM, Italy",06 860941,http://www.villamafalda.com/,Villa Mafalda,https://maps.google.com/?cid=8698948640142429400
italy,Roma,Casa di Cura privata Villa Salaria,41.9516071,12.5163174,"via Filippo Antonio Gualterio, 127, 00139 Roma RM, Italy",06 887 0041,https://villasalaria.com/,Casa di Cura Villa Salaria,https://maps.google.com/?cid=10083760218928883356
italy,Roma,Centro Biofertility,41.7831188,12.4359192,"Viale degli Eroi di Rodi, 214, 00128 Roma RM, Italy",06 841 5269,https://www.centroinfertilita.it/,Biofertility Centro Infertilita,https://maps.google.com/?cid=14606826415297911706
italy,Roma,Centro della Salute e Tutela della Donna e del Bambino Sant'Anna,41.9194935,12.5003099,"Via Garigliano, 55, 00198 Roma RM, Italy",06 6010 2614,https://www.aslroma1.it/presidi-ospedalieri/centro-tutela-salute-della-donna-e-del-bambino-santanna,ASL Roma A,https://maps.google.com/?cid=8483120512656846139
italy,Roma,Centro di Riproduzione Artificiale Umana s.r.l.,41.9166722,12.4983055,"Via Po, 102, 00198 Roma RM, Italy",06 841 7396,https://www.studiomedicocrau.it/chi-siamo-centro-crau/,Centro Di Riproduzione Artificiale Umana S.R.L.,https://maps.google.com/?cid=9726728245709990876
italy,Roma,Centro di Sterilità - Istituto di Ginecologia - Policlinico A. Gemelli - Università Cattolica del Sacro Cuore,,,,,,,
italy,Roma,Centro LEDA di Najjar Robert,41.8324654,12.4604572,"Via del Giordano, 34, 00144 Roma RM, Italy",06 593 5188,,Najjar Robert Albert,https://maps.google.com/?cid=8880260093235051338
italy,Roma,"Centro Procreazione Medicalmente Assistita - A.O. ""San Filippo Neri""",41.9116108,12.5080633,"V.le Regina Margherita, 270, 00198 Roma RM, Italy",06 4423 1221,http://www.ciparoma.it/,C.I.P.A. - Centro Italiano Procreazione Assistita,https://maps.google.com/?cid=473034392424703830
italy,Roma,"Centro Riproduzione Assistita ""Hungaria""",41.9208012,12.4971574,"Viale Liegi, 28, 00198 Roma RM, Italy",366 317 1639,,CERM Hungaria,https://maps.google.com/?cid=13111576382959046911
italy,Roma,"Centro Sterilità ""Vita""",41.9664541,12.4422254,"Via Santi Cosma e Damiano, 4, 00189 Roma RM, Italy",338 899 7473,http://www.donnamed.it/,Gruppo Donnamed Infertilità di Coppia e Procreazione Assistita,https://maps.google.com/?cid=14075430405380033403
italy,Roma,Clinica Valle Giulia Casa di Cura Spa,41.9200376,12.4804691,"Via Giuseppe de Notaris, 2, 00197 Roma RM, Italy",06 324791,http://www.clinicavallegiulia.it/,Clinica Valle Giulia Spa,https://maps.google.com/?cid=12421342403590607885
italy,Roma,Diagnostica Fabia Mater,41.8926147,12.5567341,"Piazza Sabaudia, 25, 00171 Roma RM, Italy",06 215921,https://www.fabiamater.it/osteopatia/,Diagnostica Fabia Mater - Claudia Anzovini Osteopata D.O.,https://maps.google.com/?cid=6588388043938860691
italy,Roma,ECO B.I. Srl,41.9434668,12.5264794,"Via Valle Scrivia, 21/23/25, 00141 Roma RM, Italy",06 810 3843,http://www.ecobi.it/,Eco B.I.,https://maps.google.com/?cid=12103219986990040791
italy,Roma,Grimaldi Medical S.r.l.,41.9140165,12.5023012,"Via Savoia, 84, 00198 Roma RM, Italy",06 8530 4563,https://www.grimaldimedical.it/site/home/,Grimaldi Medical Srl,https://maps.google.com/?cid=5855116846384109866
italy,Roma,IVI Roma Casilino,41.8672715,12.5986468,"Via Federico Calabresi, 11, 00169 Roma RM, Italy",800 088 247,https://ivitalia.it/centri/roma/?utm_source=google-mb&utm_medium=organic&utm_campaign=ivi_it_clinica-roma_conversion,IVI Roma Casilino,https://maps.google.com/?cid=14706651945446235127
italy,Roma,IVI Roma Srl,41.9218792,12.4863294,"Largo Ildebrando Pizzetti, 1, 00197 Roma RM, Italy",800 088 247,https://ivitalia.it/centri/roma-parioli/?utm_source=google-mb&utm_medium=organic&utm_campaign=ivi_it_clinica-roma-parioli_conversion,IVI Roma Parioli,https://maps.google.com/?cid=2602718410966844147
italy,Roma,Marilab Srl,41.8666878,12.48578,"Via Caffaro, 137, 00154 Roma RM, Italy",06 513 4191,https://marilab.it/,Marilab Garbatella,https://maps.google.com/?cid=7121303316834213403
italy,Roma,Nike Medical Center,41.9115258,12.5039145,"Via Reggio Emilia, 6, 00198 Roma RM, Italy",06 5272 9824,http://www.nikemedicalcenter.it/,Nike Medical Center,https://maps.google.com/?cid=7183321604138785664
italy,Roma,OMNIA SALUTE PMA,41.9125518,12.5153173,"Viale di Villa Massimo, 8, 00161 Roma RM, Italy",06 6930 5982,http://www.omniasaluteroma.com/,Omnia Fertilitatis,https://maps.google.com/?cid=16037428026971500354
italy,Roma,One Day Medical Center,41.8492183,12.4905375,"Via Attilio Ambrosini, 114, 00147 Roma RM, Italy",06 4521 2038,https://onedaymedicalcenter.it/,One-Day Medical Center S.R.L.,https://maps.google.com/?cid=4923584783295812647
italy,Roma,Praxis DS srl Centro ProVita,41.8809028,12.5084437,"Via Magnagrecia, 117, 00183 Roma RM, Italy",06 700 8388,http://www.praxigroup.it/,Praxi Healthcare Group,https://maps.google.com/?cid=15291082646687001610
italy,Roma,RAPRUI s.r.l.,41.9199382,12.4618567,"Via Timavo, 2, 00195 Roma RM, Italy",06 3750 1045,http://www.raprui.com/,Raprui,https://maps.google.com/?cid=5403749262381710629
italy,Civitavecchia,Salus Srl,42.0962042,11.7892207,"Via Cadorna, 12, 00053 Civitavecchia RM, Italy",0766 25800,http://www.saluscentromedico.com/,Salus (S.R.L.),https://maps.google.com/?cid=9186374469326175062
italy,Roma,UOC Fisiologia della Riproduzione - Presidio Ospedaliero Sandro Pertini,41.9214625,12.5411245,"Via dei Monti Tiburtini, 385, 00157 Roma RM, Italy",06 41431,https://www.aslroma2.it/index.php/organizzazione/ospedali/ospedale-sandro-pertini,Hospital Sandro Pertini,https://maps.google.com/?cid=16097476358217463299
italy,Roma,UOC SMU CO3 Fisiopatologia della Riproduzione - DAI Materno Infantile e Scienze UroGinecologiche - AOU Policlinico Umberto I,,,,,,,
italy,Cattolica,Extra Omnes - Medicina e Salute Riproduttiva,43.9509084,12.7239936,"Via Gallinelli, 8, 47841 Cattolica RN, Italy",0541 827138,http://www.extra-omnes.it/,Extra Omnes Medicina e Salute Riproduttiva,https://maps.google.com/?cid=2003139642756993356
italy,Rimini,Nuova Ricerca s.r.l.,44.0456184,12.5914653,"Viale Luigi Settembrini, 17/H, 47923 Rimini RN, Italy",0541 319411,http://www.nuovaricerca.com/?utm_source=google&utm_medium=organic&utm_campaign=mybusiness,Clinica Nuova Ricerca - Punto prelievi - Laboratorio analisi cliniche e poliambulatorio,https://maps.google.com/?cid=10324845102177185129
italy,Cattolica,"U.O. Fisiopatologia della riproduzione umana"" - Ospedale Cervesi di Cattolica - Azienda USL della Romagna",43.9524679,12.7360008,"Via Ludwig Van Beethoven, 1, 47841 Cattolica RN, Italy",0541 966111,https://www.auslromagna.it/luoghi/ospedali/ospedale-cervesi-cattolica,Ospedale “Cervesi” di Cattolica,https://maps.google.com/?cid=962732967249186281
italy,Trecenta,Centro PMA - Presidio Ospedaliero S. Luca - Trecenta - ULSS 5 Polesana,45.0303031,11.4660169,"Viale Ugo Grisetti, 265, 45027 Trecenta RO, Italy",0425 3931,http://www.aulss5.veneto.it/,San Luca Hospital,https://maps.google.com/?cid=1389403027232315034
italy,Cava de' Tirreni,Artemisia H. S.r.l. - Casa di Cura R. Ruggiero,40.7010864,14.7098595,"Via Corradino Biagi, 18, 84013 Cava de' Tirreni SA, Italy",089 468611,http://www.clinicaruggiero.com/,Clinical Ruggiero Artemisia H S.r.l,https://maps.google.com/?cid=10616553097320100724
italy,Salerno,C.M.R. s.r.l - Centro di Medicina della Riproduzione,40.6898,14.7748784,"Via Domenico Coda, 14, 84126 Salerno SA, Italy",089 253146,,Centro Medicina Riproduzione Srl,https://maps.google.com/?cid=18040134890724091361
italy,Salerno,Casa di Cura Tortorella S.p.a.,40.6813335,14.7685865,"Via Nicola Aversano, 1, 84124 Salerno SA, Italy",089 257 8666,https://www.tortorellaspa.com/,Tortorella Clinic,https://maps.google.com/?cid=11976799471623592970
italy,Vallo della Lucania,Centro di PMA - U.O. Ostetricia e Ginecologia - P.O. San Luca di Vallo della Lucania,40.2259133,15.2620342,"Via Francesco Cammarota, 1, 84078 Vallo della Lucania SA, Italy",0974 711111,,Presidio Ospedaliero San Luca,https://maps.google.com/?cid=14810491775491682921
italy,Salerno,Centro di Procreazione Medicalmente Assistita AOU San Giovanni di Dio e Ruggi d'Aragona,40.6489338,14.8290545,"Via San Leonardo, 84131 Salerno SA, Italy",089 671111,https://www.sangiovannieruggi.it/web/ruggi-salerno,Ospedali riuniti San Giovanni di Dio e Ruggi d'Aragona,https://maps.google.com/?cid=5957773062027288350
italy,Salerno,Centro Diagnostico Ostetrico Ginecologico,40.6898,14.7748784,"Via Domenico Coda, 14, 84126 Salerno SA, Italy",089 253146,,Centro Medicina Riproduzione Srl,https://maps.google.com/?cid=18040134890724091361
italy,Salerno,Centro Donna,,,,,,,
italy,Salerno,CONCEPTUS,40.6574552,14.8046955,"Via Picenza, 84131 Salerno SA, Italy",089 336641,,Conceptus (S.A.S.),https://maps.google.com/?cid=7853822375734157949
italy,Vallo della Lucania,D'Arena s.r.l.,40.2326332,15.269489,"Via Giuseppe Garibaldi, 25/C-F, 84078 Vallo della Lucania SA, Italy",0974 2208,http://www.laboratoriodarena.it/,D'Arena S.r.l.,https://maps.google.com/?cid=16236294547951160470
italy,Campagna,Diagnostic'80 SPA,,,,,,,
italy,Battipaglia,Embryos S.r.l.,40.6170952,14.9728188,"Plazzo Colosseum, Via Fiorignano, 84091 Battipaglia SA, Italy",0828 371516,,"Centro Embryos , Centro di Fecondazione Assistita- Day Surgery - Ambulatorio Polispecialistico",https://maps.google.com/?cid=15707233525459134732
italy,Salerno,Fertilitas M.R.D.S. (Medicina della Riproduzione Day Surgery) s.r.l.,40.6727339,14.7766886,"Via Torrione, 54, 84127 Salerno SA, Italy",089 798025,http://www.fertilitas.it/,Fertilitas Medicina Della Riproduzione Day Surgery Srl,https://maps.google.com/?cid=2401787408625828420
italy,Salerno,G.E.A. Medicina della Riproduzione srl,40.6546676,14.8187573,"Via Sabato Visco, 24a, 84131 Salerno SA, Italy",089 925 2921,http://www.geamed.it/,G.E.A Medicina della Riproduzione - Dott. Mario Cirmeni,https://maps.google.com/?cid=623215415265943722
italy,Agropoli,Istituto Polidiagnostico Santa Chiara Srl,40.3388396,14.9895974,"Via Estate, 31 - 33, 84043 Agropoli SA, Italy",0974 822282,http://www.analisisantachiara.com/,Istituto Polidiagnostico S.Chiara Della D.R.Ssa Rosetta Di Buono & C.,https://maps.google.com/?cid=16054561615921986901
italy,Eboli,Medi Service Srl,40.6136393,15.0546933,"Via Nazionale, 62, 84025 Eboli SA, Italy",,http://www.medi-service.it/,Medi Service - Dott. C. Carrafiello,https://maps.google.com/?cid=958825146512616702
italy,Salerno,Mediterraneo Medicina della Riproduzione,40.6781474,14.7642025,"Via Giovanni Cuomo, 29, 84122 Salerno SA, Italy",089 252295,,Mediterraneo Medicina Della Riproduzione,https://maps.google.com/?cid=15497422217539253463
italy,Siena,A.G.I. Medica PMA,43.3220834,11.3479275,"Viale Pietro Toselli, 94/F, 53100 Siena SI, Italy",0577 222224,https://www.agimedica.it/,A.G.I. Medica,https://maps.google.com/?cid=4627234462288580134
italy,Siena,Centro Diagnosi e Cura Sterilità - Università degli Studi di Siena - U.O. Ostetricia e Ginecologia - Policlinico Le Scotte - P.O. Senese,,,,,,,
italy,Chianciano Terme,Chianciano Salute - Centro di Chirurgia Ambulatoriale,43.036724,11.819241,"Via Concetto Marchesi, 73, 53042 Chianciano Terme SI, Italy",0578 62713,http://www.chiancianosalute.com/,Chianciano Salute SPA,https://maps.google.com/?cid=8742788584720336055
italy,Monteriggioni,Siena Surgery s.r.l.,43.3490502,11.3081704,"Via Sandro Pertini, 7, 53035 Monteriggioni SI, Italy",0577 594658,https://www.doctolib.it/centro-medico/monteriggioni/siena-surgery,SIENA SURGERY,https://maps.google.com/?cid=10099432337502952551
italy,Cosio Valtellino,Poliambulatorio Multiclinica S.M.A. s.r.l.,46.1366421,9.5715642,"Via Martinelli, 11, 23017 Morbegno SO, Italy",0342 194 9401,https://www.multiclinica.it/,Centro Clinico Valtellinese,https://maps.google.com/?cid=846785140176894998
italy,Sarzana,Centro di Procreazione Assistita - Presidio Ospedaliero San Bartolomeo di Sarzana,44.1209243,9.9489432,"Via Cisa, Santa Caterina, 19038 Sarzana SP, Italy",0187 5331,http://www.asl5.liguria.it/PerilCittadino/Ospedale.aspx,Hospital San Bartolomeo,https://maps.google.com/?cid=17271321636926387299
italy,Siracusa,Centro HERA Siracusa srl,37.0807637,15.273204,"Via Carlo Forlanini, 7, 96100 Siracusa SR, Italy",0931 193 4830,https://www.hera.it/centro-hera-siracusa.php,Centro HERA Siracusa,https://maps.google.com/?cid=2062463995389649487
italy,Sassari,Centro per PMA - Clinica Ostetrica e Ginecologica dell'Università di Sassari - A.O.U. di Sassari,40.7200669,8.5535833,"Viale S. Pietro, 07100 Sassari SS, Italy",079 228263,https://www.aousassari.it/index.php?xsl=7&s=8004&v=2&c=2896,Clinica Ostetrica e Ginecologica,https://maps.google.com/?cid=1781059771310603480
italy,Taranto,CREA s.r.l.,40.434886,17.2683357,"Via Scoglio del Tonno, 79, 74121 Taranto TA, Italy",099 772 3999,http://eugin.it/,Crea Srl Di Chiappetta Prof. Luigi - Andrologo - Ginecologo - Sessuologo,https://maps.google.com/?cid=18381367671352474274
italy,Arco,Centro Provinciale per la Procreazione Medicalmente Assistita - Ospedale Alto Garda e Ledro,,,,,,,
italy,Torino,C. M. R. Centro di Medicina Riproduttiva e Procreazione Assistita,45.0553823,7.666852,"Via Cristoforo Colombo, 1, 10128 Torino TO, Italy",011 568 3865,https://www.infertilitadicoppia.com/,CMR. Centro Medicina Riproduttiva e Procreazione Assistita,https://maps.google.com/?cid=3281293597741891817
italy,Torino,CDC S.p.a.,45.0642754,7.6481554,"Via Pollenzo, 5/b, 10141 Torino TO, Italy",011 385 3893,http://www.gruppocdc.it/,Affidea|CDC - Via Pollenzo,https://maps.google.com/?cid=3858088907423559496
italy,Torino,Centro Clinico San Carlo di Fecondazione Assistita e Ginecologia,45.0516459,7.6760673,"Via Michelangelo Buonarroti, 3, 10126 Torino TO, Italy",011 658683,https://www.fecondazione.org/,Centro Clinico Di Ginecologia e Fecondazione Assistita San Carlo,https://maps.google.com/?cid=13975927839101042017
italy,Torino,Centro Fivet Città di Torino - c/o Casa della Salute ex Ospedale di Valdese,45.0574129,7.6840185,"Via Silvio Pellico, 19, 10125 Torino TO, Italy",011 654 0213,http://www.aslcittaditorino.it/sedi/ambulatorio-via-silvio-pellico/,House Of Health Valdese,https://maps.google.com/?cid=15554895978087547924
italy,Torino,Centro Medicina della Riproduzione - AOU città della Salute e della Scienza di Torino - Ospedale Sant'Anna,45.0413771,7.6742554,"Corso Bramante, 88, 10126 Torino TO, Italy",011 633 1633,https://www.cittadellasalute.to.it/,Azienda Ospedaliero-Universitaria Città della Salute e della Scienza di Torino,https://maps.google.com/?cid=16937294993525080998
italy,Torino,Livet s.r.l.,45.0464132,7.6705998,"Via Tiziano Vecellio, 3, 10126 Torino TO, Italy",800 816 969,https://www.generapma.it/cliniche/genera-livet-torino/,Genera Livet Torino,https://maps.google.com/?cid=5060932723646348716
italy,Torino,Sedes Sapientae,45.0523868,7.6803936,"Via Giorgio Bidone, 31, 10125 Torino TO, Italy",011 557 4574,http://www.clinicasedes.it/,Clinica Sedes Sapientiae,https://maps.google.com/?cid=12593177190845336837
italy,Pinerolo,Studio Medico San Francesco s.r.l.,44.8889803,7.3555158,"Via Bogliette, 3/c, 10064 Pinerolo TO, Italy",0121 396464,https://www.pmosanfrancesco.it/,Studio Medico San Francesco,https://maps.google.com/?cid=11328989327683422024
italy,Pinerolo,Studio Medico Vardè,44.8835597,7.3347654,"Via Virginio, 49, 10064 Pinerolo TO, Italy",,,Studio Medico Varde,https://maps.google.com/?cid=712189808663643185
italy,Trieste,SCR Fisiopatologia della Riproduzione e Procreazione Medicalmente Assistita - IRCCS Burlo Garofolo,,,,,,,
italy,Villorba,Centro di Medicina Spa,45.6984851,12.2560835,"Viale della Repubblica, 10/B, 31050 Villorba TV, Italy",0422 698111,https://treviso-villorba.centrodimedicina.com/,Medical Center in Treviso / Villorba,https://maps.google.com/?cid=16292659572496407784
italy,Oderzo,"Centro per la Procreazione Medicalmente Assistita ""Gianluigi Beltrame"" - Ospedale di Oderzo - ULSS9 Treviso",,,,,,,
italy,Conegliano,Centro Regionale Specializzato di Fisiopatologia della Riproduzione - Ospedale Civile di Conegliano,45.8816625,12.290304,"Via Brigata Bisagno, 5, 31015 Conegliano TV, Italy",0438 663111,,Hospital Conegliano - Treviso ULSS 2,https://maps.google.com/?cid=17981038900866793516
italy,Oderzo,Opitergium Medica srl,45.7838824,12.4905102,"Via Giuseppe Mazzini, 10, 31046 Oderzo TV, Italy",0422 713049,http://www.opitergiummedica.it/,Opitergium Medica,https://maps.google.com/?cid=953564146432018550
italy,San Daniele del Friuli,Centro di PMA San Daniele,45.6386044,12.5952075,"Via Trasimeno, 2, 30027 San Donà di Piave VE, Italy",,https://centrodimedicina.com/centro-di-eccellenza/centro-procreazione-assistita/,Centro di Eccellenza di Procreazione Medicalmente Assistita - PMA - Centro di medicina,https://maps.google.com/?cid=7857509361398999014
italy,Udine,Policlinico Città di Udine SpA - Casa di Cura Privata,46.0521374,13.2103956,"Viale Venezia, 410, 33100 Udine UD, Italy",0432 239215,http://www.policlinicoudine.it/,Policlinico Città di Udine,https://maps.google.com/?cid=3806364661557234130
italy,Varese,ASST Settelaghi - c/o UO di Ostetricia e Ginecologia del Presidio Ospedaliero Filippo del Ponte,45.8155206,8.8345756,"Via Filippo del Ponte, 19, 21100 Varese VA, Italy",0332 299111,https://www.asst-settelaghi.it/ospedale-del-ponte,Filippo Del Ponte Hospital,https://maps.google.com/?cid=5115169945028213689
italy,Varese,Campus Medico Srl Socio Unico,45.8155653,8.8308638,"Via Giuseppe Mazzini, 10, 21100 Varese VA, Italy",0332 154 4411,http://www.campusmedico.it/,Campus medical Varese,https://maps.google.com/?cid=13091663213441006416
italy,Castellanza,Centro Diagnostico S. Nicola Poliambulatorio - Castellanza,45.6102015,8.8979528,"Via Giuseppe Garibaldi, 29, 21053 Castellanza VA, Italy",0331 182781,https://www.cerbahealthcare.it/sedi/castellanza-via-giuseppe-garibaldi-29/,Centro Diagnostico San Nicola Poliambulatorio Srl,https://maps.google.com/?cid=7051630974183722453
italy,Varese,Centro Diagnostico Varesino CDV S.r.l.,45.8138761,8.8293654,"Via San Michele Arcangelo, 2, Via S. Michele Arcangelo, 6, 21100 Varese VA, Italy",0332 182 9829,https://www.humanitas-care.it/?utm_source=google&utm_medium=organic&utm_campaign=gmb-listing&utm_content=hmc-var,Cdv Dia Srl,https://maps.google.com/?cid=7098942165729314234
italy,Gallarate,Diagnosi e cura dell'infertilità di coppia - Studio Medico Specialistico Dr.ssa Elena Castoldi,45.66021,8.785692,"Via Antonio Rosmini, 2, 21013 Gallarate VA, Italy",0331 248866,http://www.elenacastoldi.it/,Studio Dott.ssa Elena Castoldi,https://maps.google.com/?cid=11654215872663216103
italy,Varese,Elianto srl,45.8062227,8.8390349,"Viale Luigi Borri, 75, 21100 Varese VA, Italy",0332 813456,http://www.poliambulatorioelianto.it/,Specialist Outpatient Clinic Elianto,https://maps.google.com/?cid=13765653423371767662
italy,Saronno,Meditel Clinica Polispecialistica,45.6307703,9.030352,"Via V. Alliata, 1, 21047 Saronno VA, Italy",02 962821,http://www.meditel-group.it/,Meditel Medical Center Polispecialistico Srl,https://maps.google.com/?cid=7871007925764472889
italy,Varese,PCC - Pelvic Care Center - Centro Cure Pelviche s.r.l.,45.8160441,8.8273321,"Via Dazio Vecchio, 6, 21100 Varese VA, Italy",,http://www.pccvarese.it/,CCP - Pelvic Care Center - Pelvic Care Center srl,https://maps.google.com/?cid=15475970519391899702
italy,Venezia,ARC STER - Centro Studi per la Terapia della Sterilità della Coppia s.r.l.,45.4946891,12.2388199,"Via Antonio da Mestre, 19, 30174 Venezia VE, Italy",041 959611,http://www.arcster.it/,ARC-Ster - Centro di Fecondazione Assistita (PMA),https://maps.google.com/?cid=4889282691341974229
italy,Venezia,Centro di Medicina S.p.A. - Filiale di Mestre,45.4828498,12.2480761,"Vle Ancona, 5, 30172 Venezia VE, Italy",041 532 2500,http://mestre.centrodimedicina.com/,Centro di Medicina,https://maps.google.com/?cid=7268042296962071326
italy,San Donà di Piave,Centro di Medicina Spa - F.le di San Donà di Piave,45.6386044,12.5952075,"Via Trasimeno, 2, 30027 San Donà di Piave VE, Italy",0421 222221,https://san-dona-di-piave.centrodimedicina.com/,Centro di Medicina,https://maps.google.com/?cid=2609907137465097291
italy,Martellago,GENESI S.r.l. (Instituto Bernabeu),45.5407595,12.171099,"Via Castellana, 88/D/int.5, 30030 Martellago VE, Italy",041 540 0989,https://www.institutobernabeu.com/it/centri/venezia/?utm_source=google&utm_medium=maps&utm_campaign=GoogleMyBusiness&utm_term=venezia,GENESI srl,https://maps.google.com/?cid=4289585712834027817
italy,Santorso,Centro di Procreazione Medico - Assistita Ospedale di Santorso,45.7265918,11.4145317,"SP66, 42, 36014 Santorso VI, Italy",0445 571111,https://www.aulss7.veneto.it/,Ospedale Santorso,https://maps.google.com/?cid=4230881310768685073
italy,Vicenza,Clinica Eugin,45.551262,11.5326154,"Via Lussemburgo, 57, 36100 Vicenza VI, Italy",800 688 680,http://eugin.it/,Eugin Vicenza,https://maps.google.com/?cid=1563675466392146868
italy,Marostica,Generalife Veneto Srl,45.7370833,11.654211,"Via Fermi, 1, 36063 Marostica VI, Italy",800 816 969,https://www.generapma.it/cliniche/genera-veneto/,Genera Veneto,https://maps.google.com/?cid=10009762626020092172
spain,A Coruña,Equipo Ron – Hospital Quirón A Coruña,43.328501,-8.40002,"Hospital Quirón, Rúa Londres, 2, 15009 A Coruña, Spain",981 21 98 30,https://equiporon.com/,Ron y Asociados,https://maps.google.com/?cid=18439032663947948643
spain,A Coruña,HM Belén,43.3657226,-8.4147919,"R. Filantropía, 3, 15011 A Coruña, Spain",981 57 77 17,https://www.hmbelen.com/,Maternidad HM Belén,https://maps.google.com/?cid=4182530942541466524
spain,A Coruña,Clínica Segrelles,43.3582533,-8.4209727,"Rúa Isaac Peral, 1, 15008 A Coruña, Spain",981 14 42 85,https://clinicasegrelles.es/,Clínica Segrelles / Ginecología y Obstetricia,https://maps.google.com/?cid=9107630054426774517
spain,Albacete,Consultorio de Ginecología y Obstetricia,38.9928868,-1.8555094,"C. Tesifonte Gallego, 6, 02002 Albacete, Spain",967 21 22 24,http://www.clinicaginecologicamoratalla.com/,Clínica Ginecologica Moratalla,https://maps.google.com/?cid=4033783048316532713
spain,Albacete,H. General De Albacete,38.9854014,-1.8463039,"C. Hermanos Falco, 37, 02006 Albacete, Spain",967 59 71 00,http://www.chospab.es/,Hospital General Universitario de Albacete,https://maps.google.com/?cid=524946149417800343
spain,Albacete,Instituto Bernabéu ALBACETE,38.9968863,-1.8609816,"C. Ibáñez Ibero, 3, 02005 Albacete, Spain",967 10 00 55,https://www.institutobernabeu.com/es/centro/albacete/?utm_source=google&utm_medium=maps&utm_campaign=GoogleMyBusiness&utm_term=Albacete,Instituto Bernabeu Albacete,https://maps.google.com/?cid=14213091526266181035
spain,Alcalá De Henares,H. Principe De Asturias,40.5099843,-3.3484023,"Av. Principal de la Universidad, s/n, 28805 Alcalá de Henares, Madrid, Spain",918 87 81 00,https://www.comunidad.madrid/hospital/principeasturias/,Hospital Universitario Príncipe de Asturias,https://maps.google.com/?cid=9670072476801196610
spain,Alcázar de San Juan,Ginequalitas SLP,39.3958171,-3.2091551,"C. Rondilla Cruz Verde, 141, 13600 Alcázar de San Juan, Ciudad Real, Spain",926 54 29 52,http://www.ginequalitas.com/,Ginequalitas Reproducción,https://maps.google.com/?cid=13551229203667300525
spain,Algeciras,Clínica Medrano,36.1433862,-5.4519932,"Avenida de España, Edificio Jardines del, Pl. del Rosario, Bloque 6, 11205 Algeciras, Cádiz, Spain",956 09 00 02,http://www.clinicamedrano.com/,"Clínica de fertilidad, ginecología y obstetricia Medrano",https://maps.google.com/?cid=9178405713043481201
spain,Alicante,"Ferrobelab, S.L.",38.3403096,-0.4941486,"Av. Oscar Espla, 15 BIS, 03007 Alacant, Alicante, Spain",965 12 26 54,https://ferrobelab.com/,FERROBELAB Centro de Reproducción Asistida,https://maps.google.com/?cid=10518585978383697212
spain,Alicante,H. General De Alicante,38.3635047,-0.4855279,"Av. Pintor Baeza, 12, 03010 03010s3, Alicante, Spain",965 93 30 00,,University General Hospital Dr. Balmis,https://maps.google.com/?cid=18392249735630764387
spain,Alicante,Instituto Bernabéu,38.3653625,-0.4578604,"Av. Albufereta, 31, 03016 Alacant, Alicante, Spain",965 15 40 00,https://www.institutobernabeu.com/es/centro/alicante/?utm_source=google&utm_medium=maps&utm_campaign=GoogleMyBusiness&utm_term=Alicante,Instituto Bernabeu,https://maps.google.com/?cid=7830996181850238610
spain,Alicante,IVF-SPAIN (Alicante),38.3670338,-0.4323238,"Av. de Ansaldo, 13, 03540 Alicante (Alacant), Alicante, Spain",965 26 78 90,https://www.ivf-spain.com/?utm_source=googlemybusinessALC&utm_medium=botonweb&utm_campaign=cmanager,IVF-Spain,https://maps.google.com/?cid=2408346417612122226
spain,Alicante,IVI Alicante,38.3640568,-0.461771,"Avenida de Denia, 111, Parking gratuito entrada por, C. Escultor Adrián Carrillo, 1, 03015 Alicante (Alacant), Alicante, Spain",651 79 10 00,https://ivi.es/clinicas/alicante/?utm_source=google-mb&utm_medium=organic&utm_campaign=ivi_es_clinica-alicante_conversion,IVI Alicante - Clínica de Reproducción Asistida y Fertilidad,https://maps.google.com/?cid=4157895886301101226
spain,Alicante,Unidad de Reproducción Clínica Vistahermosa,38.3629226,-0.4635489,"Avinguda de Dénia, 103, 03015 Alacant, Alicante, Spain",965 26 91 46,https://urvistahermosa.com/,Unidad de Reproducción Asistida Clínica Vistahermosa,https://maps.google.com/?cid=8585639080144423557
spain,Alicante,Accuna.,38.3619317,-0.4660205,"Avenida Pintor Xavier Soler, 18, 03015 Alacant, Alicante, Spain",965 12 66 90,https://www.accuna.es/,Clínica Accuna,https://maps.google.com/?cid=3359612532501713750
spain,Almería,C.H. Torrecárdenas,36.8626932,-2.4411846,"C. Hermandad de Donantes de Sangre, s/n, 04009 Almería, Spain",950 01 60 00,https://www.hospitaltorrecardenas.es/,Torrecárdenas University Hospital,https://maps.google.com/?cid=14821612572483223772
spain,Almería,IVI Almeria,36.8467275,-2.4475378,"C. Antonio Cano, 30, 04009 Almería, Spain",651 79 10 00,https://ivi.es/clinicas/almeria/?utm_source=google-mb&utm_medium=organic&utm_campaign=ivi_es_clinica-almeria_conversion,IVI Almería - Clínica de Reproducción Asistida y Fertilidad,https://maps.google.com/?cid=15000462751686438098
spain,Almería,Unidad de Reproducción - Hospital Mediterráneo,36.8205658,-2.4342044,"C. Nueva Musa, 04007 Almería, Spain",950 62 16 32,https://grupointernacionalur.com/clinicas/ur-almeria/,Unidad de Reproducción (UR) Hospital Mediterráneo,https://maps.google.com/?cid=8149313541742444518
spain,Almoradí,Clínica Ufeal,38.1126987,-0.7885567,"C. Luis Buñuel, 48, Bajo, 03160 Almoradí, Alicante, Spain",966 78 07 76,https://www.novafertility.eu/,"Novafertility . Clínica de Ginecología, Fertilidad y Reproducción Asistida.",https://maps.google.com/?cid=11853289773391700442
spain,Aravaca,URH Garcia Del Real,40.4645153,-3.7863832,"Cam. de la Zarzuela, 19, Moncloa - Aravaca, 28023 Madrid, Spain",917 40 16 90,http://urh.es/,Fertility Clinic URH,https://maps.google.com/?cid=13656894777484679462
spain,Badajoz,CERHA,38.8658646,-6.9710793,"C. la Violeta, 4, 06010 Badajoz, Spain",924 21 51 86,,Extremadura Center for Assisted Human Reproduction,https://maps.google.com/?cid=1233429335433023797
spain,Badajoz,Instituto Extremeño de Reproducción Asistida,38.88217,-6.99527,"C. Julio Cienfuegos Linares, 21, 06006 Badajoz, Spain",924 28 69 62,https://www.iera.es/,Extremadura Institute of Health Assisted Reproduction Quirón,https://maps.google.com/?cid=7121118737599312696
spain,Baracaldo,Hospital Universitario Cruces,43.2825571,-2.9843738,"Cruces Plaza, 12, 48903 Barakaldo, Bizkaia, Spain",946 00 60 00,https://www.osakidetza.euskadi.eus/entidad/hospital-universitario-cruces/ab84-cerbus/es/,Cruces University Hospital,https://maps.google.com/?cid=3573317202874686448
spain,Barcelona,C.I.R.H,41.3993404,2.1506839,"Carrer de Balmes, 236, Sarrià-Sant Gervasi, 08006 Barcelona, Spain",932 80 65 35,https://www.cirh.es/,CIRH,https://maps.google.com/?cid=11409172943090478391
spain,Barcelona,Centro de reproducción asistida clínica Sagrada Familia,41.4047366,2.1307163,"Pg. de la Bonanova, 39, Sarrià-Sant Gervasi, 08022 Barcelona, Spain",936 55 55 44,https://centrofertilidad.com/centro-en-barcelona/?utm_source=GMB&utm_medium=click_web&utm_campaign=barcelona,Centro de Fertilidad Barcelona,https://maps.google.com/?cid=13204426152754721230
spain,Barcelona,Centro Medico Teknon,41.4065664,2.1272565,"Carrer de Vilana, 12, Sarrià-Sant Gervasi, 08022 Barcelona, Spain",932 90 62 00,https://www.teknon.es/,Teknon Medical Center,https://maps.google.com/?cid=829021218588090378
spain,Barcelona,Clínica EUGIN,41.3992211,2.1506504,"Carrer de Balmes, 236, Sarrià-Sant Gervasi, 08006 Barcelona, Spain",933 22 11 22,https://www.eugin.es/barcelona/?utm_medium=google&utm_source=mybusiness&utm_campaign=552,Clínica EUGIN Barcelona,https://maps.google.com/?cid=13720927652147991629
spain,Barcelona,Fertilab.Institut Catalá de Fertilitat,41.3927949,2.1320612,"Ronda del General Mitre, 14, Sarrià-Sant Gervasi, 08017 Barcelona, Spain",932 41 14 14,http://www.fertilab.com/,Fertilab Barcelona,https://maps.google.com/?cid=10681556960136844193
spain,Barcelona,Fundació Puigvert - Hospital de la Santa Creu i Sant Pau,41.4124576,2.1728312,"Carrer de Cartagena, 340-350, Horta-Guinardó, 08025 Barcelona, Spain",934 16 97 00,http://www.fundacio-puigvert.es/,Fundació Puigvert,https://maps.google.com/?cid=4572311280545613800
spain,Barcelona,General Lab,41.3912105,2.1467982,"Carrer del Comte d'Urgell, 270, L'Eixample, 08036 Barcelona, Spain",933 63 60 00,,General Lab,https://maps.google.com/?cid=11988956409494987172
spain,Barcelona,Gine-3,41.4004664,2.1454276,"Via Augusta, 134, Sarrià-Sant Gervasi, 08006 Barcelona, Spain",933 23 63 06,http://www.gine3.com/,Centre Ginecològic Gine3,https://maps.google.com/?cid=17115397366231715877
spain,Barcelona,Gravida,41.3895377,2.130136,"Hospital de Barcelona, Av. Diagonal, 660, planta 16, Les Corts, 08034 Barcelona, Spain",932 06 64 89,https://gravida.com/,Gravida - Clínica de Reproducción asistida en Barcelona,https://maps.google.com/?cid=11689951333335312933
spain,Barcelona,H. Del Mar,41.3845118,2.1939045,"Pg. Marítim de la Barceloneta, 25, 29, Ciutat Vella, 08003 Barcelona, Spain",932 48 30 00,https://www.parcdesalutmar.cat/,Hospital del Mar,https://maps.google.com/?cid=11057428783107934821
spain,Barcelona,Hospital Clínic de Barcelona,41.3894185,2.1522074,"Carrer de Villarroel, 170, L'Eixample, 08036 Barcelona, Spain",932 27 54 00,http://www.clinicbarcelona.org/,Hospital Clínic de Barcelona,https://maps.google.com/?cid=8911687898509454375
spain,Barcelona,Hospital Quiron Barcelona,41.4156852,2.1385657,"Plaça d'Alfonso Comín, 7, Gràcia, 08023 Barcelona, Spain",932 55 40 00,https://www.quironsalud.es/hospital-barcelona,Hospital Quirónsalud Barcelona,https://maps.google.com/?cid=5782493213277759372
spain,Barcelona,Hospital Valle Hebrón,41.4282188,2.1409231,"Pg. de la Vall d'Hebron, 119, Horta-Guinardó, 08035 Barcelona, Spain",934 89 30 00,https://hospital.vallhebron.com/,Vall d'Hebron University Hospital,https://maps.google.com/?cid=433842662973216885
spain,Barcelona,Institut Dexeus,41.3850131,2.1256223,"Carrer de Sabino Arana, 19 Ed, Distrito de Les Corts, 08028 Barcelona, Spain",932 27 47 47,https://www.quironsalud.es/dexeus-barcelona,Hospital Universitari Dexeus - Grup Quirónsalud,https://maps.google.com/?cid=17590495073194769041
spain,Barcelona,Institut Marques,41.3893491,2.1285548,"Av. Diagonal, 662, 664, Les Corts, 08034 Barcelona, Spain",932 85 82 16,https://www.institutomarques.com/utm_source=google&utm_medium=organic&utm_campaign=gmb,Institut Marquès Barcelona - Clínica de Reproducció Assistida,https://maps.google.com/?cid=6794188154517293758
spain,Barcelona,IVI Barcelona,41.3834788,2.1486151,"Carrer de Mallorca, 45, L'Eixample, 08029 Barcelona, Spain",651 79 10 00,https://ivi.es/clinicas/barcelona/?utm_source=google-mb&utm_medium=organic&utm_campaign=ivi_es_clinica-barcelona_conversion,IVI Barcelona - Clínica de Reproducción Asistida y Fertilidad,https://maps.google.com/?cid=16089378190761013154
spain,Barcelona,Girexx Barcelona - Fertility Clínics SL.,41.408337,2.178243,"260, Carrer de Cartagena, 258, L'Eixample, 08025 Barcelona, Spain",935 95 20 10,http://girexx.com/,Girexx,https://maps.google.com/?cid=2507961246412493652
spain,Barcelona,Fertty,41.3911783,2.174949,"Carrer d'Ausiàs Marc, 25, L'Eixample, 08010 Barcelona, Spain",937 37 81 90,https://fertty.com/,Fertty,https://maps.google.com/?cid=62084056342579094
spain,Barcelona,FECUNMED-Hospital Universitari Sagrat Cor,41.388845,2.145732,"Carrer de Viladomat, 288, L'Eixample, 08029 Barcelona, Spain",933 22 11 11,https://www.hscor.com/idcsalud-client/cm/sagrat-cor/tkMain?locale=es_ES,Hospital Universitari Sagrat Cor,https://maps.google.com/?cid=11255164662613228102
spain,Benalmádena,IVI Malaga,36.5981796,-4.5584769,"Av de los Argonautas, s/n, Planta 1 (Hospital Xanit), 29630 Benalmádena, Málaga, Spain",900 847 300,https://ivi.es/clinicas/benalmadena/?utm_source=google-mb&utm_medium=organic&utm_campaign=ivi_es_clinica-vigo_conversion,Clínica de Reproducción Asistida y Fertilidad,https://maps.google.com/?cid=10021043200055825680
spain,Beniarbeig,IREMA,38.8230011,-0.0012496,"Av. del Verger, 10, 03778 Beniarbeig, Alicante, Spain",966 47 72 65,https://www.irema.org/,Clínica Irema Beniarbeig Fertilidad y Reproducción Asistida,https://maps.google.com/?cid=16508899354638112935
spain,Benidorm,IMED Hospitales,38.5412884,-0.1063413,"Calle Dr. Santiago Ramón y Cajal, 7, 03503 Benidorm, Alicante, Spain",966 87 87 87,http://www.imedlevante.com/,Hospital IMED Levante,https://maps.google.com/?cid=2064042991042235613
spain,Bilbao,Clínica Ginecológica Bilbao,43.258595,-2.915215,"Mendiri Maisuaren Kalea, s/n, 48006 Bilbo, Bizkaia, Spain",944 73 00 18,http://www.cgb-bilbao.com/,Clínica Ginecológica Bilbao,https://maps.google.com/?cid=13708892733626302718
spain,Bilbao,Consultorio Ginecologico Elcano,43.264362,-2.9366862,"Colón de Larreátegui K., 47, Abando, 48011 Bilbo, Bizkaia, Spain",944 23 50 16,http://www.elcano7.com/,Clinica Ginecológica Elcano,https://maps.google.com/?cid=3045453827100783711
spain,Bilbao,Instituto IGIN,43.2671124,-2.9409662,"C. del Lehendakari Leizaola, 27, Planta Baja, Abando, 48011 Bilbao, Vizcaya, Spain",946 51 07 00,http://www.institutoigin.com/,IGIN - Especialistas Reproducción Asistida,https://maps.google.com/?cid=5658389338392654237
spain,Bilbao,Quiron Bilbao,43.2674431,-2.9374459,"Euskadi Pl., 7, Abando, 48009 Bilbao, Vizcaya, Spain",944 89 80 30,https://www.quironsalud.es/plaza-euskadi,Centro Médico Quirónsalud Plaza Euskadi,https://maps.google.com/?cid=12629829430647151886
spain,Bilbao,Reproducción Bilbao,43.2685291,-2.953303,"C. Morgan Kalea, 2B, Deusto, 48014 Bilbao, Vizcaya, Spain",946 11 12 13,https://reproduccionbilbao.es/,Reproducción Bilbao,https://maps.google.com/?cid=14707203074722085607
spain,Bilbao,Clínica Euskalduna,43.2595719,-2.9320233,"Euskalduna Kalea, 10, Abando, 48008 Bilbo, Bizkaia, Spain",944 10 37 52,http://www.euskaldunaconsultasmedicas.com/,Clínica Euskalduna,https://maps.google.com/?cid=12813358271219084232
spain,Boadilla del Monte,HM Fertility Center Montepríncipe,40.414287,-3.844959,"Av. de Montepríncipe, 25, 28660 Boadilla del Monte, Madrid, Spain",900 111 010,https://www.hmfertilitycenter.com/,HM Fertility Center,https://maps.google.com/?cid=589087007898897578
spain,Burjassot,UR IMED Valencia.,39.5022704,-0.4086407,"Av. de la Ilustración, 1, 46100 Burjasot, Valencia, Spain",963 00 30 17,http://www.urimedvalencia.com/,Unidad de Reproducción Asistida IMED Valencia,https://maps.google.com/?cid=7672171807416289082
spain,Cáceres,Clínica Norba,39.4698425,-6.3889631,"C. Amberes, 27, 29, Oeste, 10005 Cáceres, Spain",927 62 96 19,http://www.clinicanorba.com/,Clinica Norba,https://maps.google.com/?cid=8984762619000986085
spain,Cádiz,Clínica La Salud,36.5321093,-6.2958207,"C. Feduchy, 8, 11001 Cádiz, Spain",956 22 53 01,https://www.grupohla.com/hlahospitallasalud,HLA Hospital La Salud,https://maps.google.com/?cid=16318318796340249395
spain,Cádiz,H. U. Puerta del Mar,36.5090347,-6.2779292,"Av. Ana de Viya, 21, 11009 Cádiz, Spain",956 00 21 00,http://www.hupm.com/,Hospital Universitario Puerta del Mar,https://maps.google.com/?cid=13196520708280320098
spain,Carcaixent,FIVIR,39.4497576,-0.3607439,"Carrer Blas Gámez Ortiz, Quatre Carreres, 46013 València, Valencia, Spain",961 10 54 54,http://www.fivir.es/,Instituto FIVIR | Clínica de fertilidad y reproducción asistida en Valencia,https://maps.google.com/?cid=16176872337066073280
spain,Cartagena,"Instituto Bernabéu Cartagena, SL.",37.6099968,-0.9943324,"C. Duque Severiano, 5, 30205 Cartagena, Murcia, Spain",968 32 15 20,https://www.institutobernabeu.com/es/centro/cartagena/?utm_source=google&utm_medium=maps&utm_campaign=GoogleMyBusiness&utm_term=Cartagena,Instituto Bernabeu Cartagena,https://maps.google.com/?cid=13046920483122199809
spain,Cartagena,IVI Cartagena,37.61582,-0.993408,"C Santiago Ramón Y Cajal, 106, 30205 Cartagena, Murcia, Spain",651 79 10 00,https://ivi.es/clinicas/cartagena/?utm_source=google-mb&utm_medium=organic&utm_campaign=ivi_es_clinica-cartagena_conversion,IVI Cartagena - Clínica de Reproducción Asistida y Fertilidad,https://maps.google.com/?cid=10161241655026163061
spain,Castellón,H. General De Castelllon,40.0023167,-0.0416058,"Avinguda de Benicàssim, 128, 12004 Castelló de la Plana, Castelló, Spain",964 72 50 00,https://castellon.san.gva.es/ca/hospital-general,Hospital General Universitari a Castelló,https://maps.google.com/?cid=4650100537477727584
spain,Castellón,Hospital Rey Don Jaime,39.9972056,-0.0365239,"Carrer Santa Maria Rosa Molas, 25, 12004 Castelló de la Plana, Castelló, Spain",964 72 60 00,https://vithas.es/centro/vithas-hospital-castellon/,Hospital Vithas Castellón,https://maps.google.com/?cid=338610629219917180
spain,Castellón,IVI Castellón,39.9935485,-0.033307,"Av. dels Caputxins, 63, 12004 Castelló de la Plana, Castelló, Spain",651 79 10 00,https://ivi.es/clinicas/castellon/?utm_source=google-mb&utm_medium=organic&utm_campaign=ivi_es_clinica-castellon_conversion,IVI Castellón - Clínica de Reproducción Asistida y Fertilidad,https://maps.google.com/?cid=3032549956197051882
spain,Ciudad Real,Clínica Rubal,38.9757957,-3.9137379,"Av. Parque de Cabañeros, 6, 13005 Ciudad Real, Spain",926 27 00 22,https://rubal.es/,Clínica Rubal,https://maps.google.com/?cid=1985178317359974168
spain,Ciudad Real,QuirónSalud Ciudad Real,38.9797782,-3.9388343,"C. Alisos, 19, 13002 Ciudad Real, Spain",926 25 50 08,https://www.quironsalud.es/ciudad-real,Hospital Quirónsalud Ciudad Real,https://maps.google.com/?cid=8590174752633499870
spain,Ciutadella de Menorca,IBILAB Menorca,39.9969163,3.8323944,"Carrer de Madrid, 12, 07760 Ciutadella de Menorca, Illes Balears, Spain",,,Ibilab Menorca,https://maps.google.com/?cid=18049345380482007251
spain,Córdoba,Clínica Bau - Cordoba,37.9033723,-4.7902672,"Av. del Brillante, 91, Nte. Sierra, 14012 Córdoba, Spain",957 49 20 49,https://www.clinicabau.com/,Hospital Clinica Bau,https://maps.google.com/?cid=16417295599854675365
spain,Córdoba,Clínica IFEM,37.8746252,-4.8004126,"C. Escritora Ángeles López de Ayala, 7, 14005 Córdoba, Spain",957 34 57 92,http://www.clinicaifem.com/,CLINICA IFEM,https://maps.google.com/?cid=8327663546050147073
spain,Córdoba,Clínica Povedano,37.9036791,-4.7947432,"C. Poeta Valdelomar Pineda, 15, Nte. Sierra, 14012 Córdoba, Spain",957 28 23 29,https://doctorespovedano.com/,Gynecological Clinic Doctors Povedano,https://maps.google.com/?cid=6236690482953798030
spain,Córdoba,H. U. Reina Sofia,37.8677597,-4.7977996,"Av. Menéndez Pidal, s/n, Poniente Sur, 14004 Córdoba, Spain",,http://www.juntadeandalucia.es/servicioandaluzdesalud/hrs3,Hospital Universitario Reina Sofia,https://maps.google.com/?cid=6834295919267081244
spain,El Ejido,Clínica JOFRE-FIV,36.7745491,-2.8055374,"Blvr. de el Ejido, 430, 04700 El Ejido, Almería, Spain",950 48 09 80,https://www.clinicajofrefiv.es/,Clínica Jofrefiv,https://maps.google.com/?cid=18340285120136728437
spain,El Palmar,Hospital Clínico Universitario Virgen de la Arrixaca,37.9326574,-1.162527,"Ctra. Madrid-Cartagena, s/n, 30120 El Palmar, Murcia, Spain",968 36 95 00,http://www.murciasalud.es/seccion.php?idsec=347,Virgen of Arrixaca University Clinical Hospital,https://maps.google.com/?cid=2123067544921391013
spain,Elche,H. General De Elche,38.2600447,-0.6849144,"Carrer Almazara, 11, 03203 Elche, Alicante, Spain",966 61 69 00,http://www.elche.san.gva.es/portada,Hospital General Universitario de Elche,https://maps.google.com/?cid=17304815164687683742
spain,Elche,In Vitam Centro de Medicina Reproductiva,38.2733318,-0.6864399,"Avinguda de la Universitat d'Elx, 24, 03202 Elche, Alicante, Spain",,http://www.invitam.es/,In Vitam,https://maps.google.com/?cid=13806898717809622406
spain,Figueres,FIV Obradors,42.2626134,2.9583641,"Avinguda de Salvador Dalí i Domènech, 85, 17600 Figueres, Girona, Spain",972 50 05 00,http://www.fivobradors.com/,FIV Obradors,https://maps.google.com/?cid=9625120966442943713
spain,Fuengirola,Clínica Fertia,36.5433714,-4.6241315,"N° 4, Av. Alcalde Clemente Díaz Ruiz, 29640 Fuengirola, Málaga, Spain",952 59 23 23,http://www.clinicafertia.com/,Clínica Fertia,https://maps.google.com/?cid=5092926242210383639
spain,Getafe,H. De Getafe,40.3125445,-3.7423229,"Carr. Madrid - Toledo, Km 12,500, 28905 Getafe, Madrid, Spain",916 83 93 60,https://www.comunidad.madrid/hospital/getafe/,Getafe University Hospital,https://maps.google.com/?cid=8023950804670257929
spain,Getafe,Instituto Para El Estudio De La Esterilidad,40.3046051,-3.7254008,"C. Arboleda, 34, 28901 Getafe, Madrid, Spain",916 01 92 35,https://estudioesterilidad.com/,Instituto para el Estudio de la Esterilidad - IEE,https://maps.google.com/?cid=6342234251596942186
spain,Gijón,FIV4-Instituto de Reproducción Humana Gijón,,,,,,,
spain,Gijón,Clínica Ergo Biotech SL,43.53501,-5.67832,"Av. de Portugal, 96-98, 100 bajo, Gijon-Sur, 33207 Gijón, Asturias, Spain",984 83 30 03,https://clinicaergo.com/,Clínica ERGO,https://maps.google.com/?cid=13269251886625100703
spain,Girona,Centro De Genética Girona,41.9816167,2.8189397,"Carrer Barcelona, 2, 17002 Girona, Spain",972 21 74 07,https://www.ueg-reproduccion.com/,Centre de Genètica Girona,https://maps.google.com/?cid=9901378369833279919
spain,Girona,Girexx (FIV Girona SLP),41.9761934,2.8251163,"Carrer Heroïnes de Santa Bàrbara, 6, 17004 Girona, Spain",972 22 60 04,http://www.girexx.cat/,Girexx,https://maps.google.com/?cid=12388023034945323489
spain,Girona,Hospital Universitari De Girona Doctor Josep Trueta,41.9975709,2.8199659,"Avinguda de França, S/N, 17007 Girona, Spain",972 94 02 00,,Hospital Universitari de Girona Doctor Josep Trueta,https://maps.google.com/?cid=1949199503781137906
spain,Girona,Unitat de Reproduccio Humana i Diagnostìc Genètic. Clínica Girona,41.9632949,2.8113794,"Carrer Barcelona, 204-206, 2a planta, 17005 Girona, Spain",972 20 52 62,http://www.girofiv.com/,GIROFIV - Clínica Girona - Unitat de Reproducció Assistida,https://maps.google.com/?cid=10148476971766228224
spain,Guadalajara,FIV Laber,40.6296609,-3.1758087,"C/ Constitución, 18, 19003 Guadalajara, Spain",949 20 79 96,http://www.fivlaber.es/,Fivlaber,https://maps.google.com/?cid=1802942020261696547
spain,Granada,Clínica Sanabria,37.1839997,-3.6035582,"Av. de la Constitución, 4, Albaicín, 18012 Granada, Spain",958 20 42 52,https://clinicasanabria.com/?utm_source=google&utm_medium=Maps&utm_campaign=Google%20Maps&utm_content=web,Sanabria clinic Granada,https://maps.google.com/?cid=16975261577553329593
spain,Granada,H.U. Virgen de las Nieves,37.1886365,-3.609843,"Av. de las Fuerzas Armadas, 2, Beiro, 18014 Granada, Spain",958 02 00 00,http://www.huvn.es/,Virgen de las Nieves University Hospital,https://maps.google.com/?cid=15211791854395474726
spain,Granada,Instituto Avantia de Fertilidad,37.1586661,-3.6077285,"C. Emir, 1, Ronda, 18006 Granada, Spain",958 08 10 49,https://www.avantiafertilidad.com/,Fertility Institute Avantia,https://maps.google.com/?cid=16141344362306383665
spain,Granada,MAR&Gen,37.1639348,-3.6017589,"C. Rey Abu Said, 6T, Ronda, 18006 Granada, Spain",958 12 02 06,https://www.clinicamargen.com/en/,MAR&Gen,https://maps.google.com/?cid=499762329821817591
spain,Granada,UR HOSPITAL INMACULADA,37.1639774,-3.6081701,"Calle Dr. Alejandro Otero, 8, Ronda, 18004 Granada, Spain",958 25 38 00,https://www.grupohla.com/hlahospitalinmaculada,HLA Hospital Universitario Inmaculada,https://maps.google.com/?cid=15932436673838939009
spain,Granada,VITHAS Hospital la Salud,37.1646815,-3.572598,"Av. Santa María de la Alhambra, 6, Genil, 18008 Granada, Spain",958 80 88 80,https://vithas.es/centro/vithas-hospital-granada/,Hospital Vithas Granada,https://maps.google.com/?cid=18237236312150370453
spain,Granada,"Aluz, Clínica de Fertilidad Avanzada",37.1598403,-3.608306,"C. José Luis Pérez Pujadas, s/n, Ronda, 18006 Granada, Spain",958 04 58 79,https://aluz.es/,Aluz Clínica de Fertilidad Avanzada Granada,https://maps.google.com/?cid=16323181625003510758
spain,Granada,Clínica Pedrosa,37.1715834,-3.6070615,"Cam. de Rda., 79, Ronda, 18004 Granada, Spain",958 26 74 94,https://cpedrosa.com/?utm_source=business&utm_medium=organic&utm_campaign=my_business,Ginecólogas Granada - Clínica Pedrosa - Ginecóloga,https://maps.google.com/?cid=11024391509838859010
spain,Granada,Clínica INAGOR,37.1755291,-3.6017554,"C. Alhóndiga, 37, Centro, 18001 Granada, Spain",958 52 05 99,http://www.clinicadoctormenjon.com/,"Dr. Menjon Beltrán, Salomón Clínica Inagor - Clínica Ginecológica - Ginecólogos",https://maps.google.com/?cid=3013835154813698575
spain,Granollers,FECUNMED,41.6069107,2.289931,"Plaça de Pau Casals, s/n Edifici Mútua del Carme, 3a planta, 08402 Granollers, Barcelona, Spain",938 61 18 28,https://fecunmed.com/,FecunMed - Fertilidad y reproducción asistida en Granollers,https://maps.google.com/?cid=17610567129143346282
spain,Huelva,Hospital Costa de la Luz,37.2668184,-6.9537073,"C. Punta Umbría, 8, 21002 Huelva, Spain",959 24 21 00,https://www.quironsalud.es/huelva/,Hospital Quirónsalud Huelva,https://maps.google.com/?cid=11388830534466699863
spain,Huelva,Hospital Vázquez Díaz,37.279777,-6.9210937,"Avenida Nte, s/n, 21080 Huelva, Spain",959 01 46 20,http://ahjuanramonjimenez.es/,Hospital Vázquez Díaz,https://maps.google.com/?cid=16081343187388977335
spain,Ibiza,Hospital Can Misses,38.9159687,1.4188528,"Carrer de Corona, s/n, 07800 Eivissa, Illes Balears, Spain",971 39 70 00,https://m.facebook.com/pages/Hospital-Can-Misses/141796475875007,Hospital Can Misses,https://maps.google.com/?cid=5460484825165009406
spain,Ibiza,IBILAB Pititusses,38.912357,1.4303906,"C, Avinguda d'Ignasi Wallis, nº 32, 07800 Ibiza, Illes Balears, Spain",651 79 10 00,https://ivi.es/clinicas/ibiza/?utm_source=google-mb&utm_medium=organic&utm_campaign=ivi_es_clinica-ibiza_conversion,IVI Ibiza - Clínica de Reproducción Asistida y Fertilidad,https://maps.google.com/?cid=7459600308965408215
spain,Jaén,CARHA,37.7749669,-3.7940377,"Av. del Ejército Español, 16, 1º, 23005 Jaén, Spain",607 22 68 52,https://www.carha.es/,CARHA,https://maps.google.com/?cid=14851926519461061934
spain,Jaén,Ciudad de Jaén,37.779552,-3.7849699,"Jaén, Spain",,,Jaén,"https://maps.google.com/?q=Ja%C3%A9n,+Spain&ftid=0xd6dd713cb5302c7:0x9cfb2c858b405702"
spain,Jerez De La Frontera,ULTRAFIV-BAHIA S.L.,36.668905,-6.13974,"Avda. de la Puerta del Sur S/N, 11408 Jerez de la Frontera, Cádiz, Spain",956 35 71 54,http://urpuertadelsur.com/la-clinica-ultra-fiv-bahia-se-integra-en-el-grupo-ur-con-el-nombre-de-unidad-de-reproduccion-hla-puerta-del-sur/,Clinica de Reproducción Asistida Ultra Fiv Bahía,https://maps.google.com/?cid=13634845638743945906
spain,Jerez De La Frontera,Clínica Serman,36.6925653,-6.1242732,"P.º la Rosaleda, 40, 11405 Jerez de la Frontera, Cádiz, Spain",956 30 12 11,https://www.grupohla.com/hlaclinicaserman,HLA Clínica Serman,https://maps.google.com/?cid=8990017939575936060
spain,Jerez De La Frontera,Clínica Beiman,36.7021563,-6.1365036,"Av. los Álamos, 2, 11407 Jerez de la Frontera, Cádiz, Spain",856 14 25 62,https://www.clinicabeiman.es/,Clínica Beiman Jerez - Montealto,https://maps.google.com/?cid=13747577534143147913
spain,La Cañada,Unidad de Reproducción Hospital Virgen del Mar,36.8205658,-2.4342044,"C. Nueva Musa, 04007 Almería, Spain",950 62 16 32,https://grupointernacionalur.com/clinicas/ur-almeria/,Unidad de Reproducción (UR) Hospital Mediterráneo,https://maps.google.com/?cid=8149313541742444518
spain,La Laguna,Centro de Asistencia a la Reproducción Humana de Canarias,28.4889297,-16.3193028,"C. Manuel de Ossuna, 43, 45 Bajo, 38202 La Laguna, Santa Cruz de Tenerife, Spain",922 26 64 81,http://www.fivap.com/,FIVAP,https://maps.google.com/?cid=15616070099403238973
spain,La Laguna,H. Universitario De Canarias,28.4565493,-16.2919278,"Carretera Ofra S/N, 38320 La Laguna, Santa Cruz de Tenerife, Spain",922 67 80 00,http://www.gobiernodecanarias.org/sanidad/scs/huc,Hospital Universitario de Canarias,https://maps.google.com/?cid=3055465991289626456
spain,Las Palmas de Gran Canaria,CIRA Las Palmas,28.1262436,-15.4293999,"Calle Dr. José Juan Megías, 13, 35005 Las Palmas de Gran Canaria, Las Palmas, Spain",928 23 24 00,,C.I.R.A Centro Integral de Reproducción Asistida,https://maps.google.com/?cid=11487125584734397074
spain,Las Palmas de Gran Canaria,H.U.Materno Infantil de Las Palmas de Gran Canaria,28.0811487,-15.4176147,"Avenida Marítima del Sur, s/n, 35016 Las Palmas de Gran Canaria, Las Palmas, Spain",928 44 45 00,https://www3.gobiernodecanarias.org/sanidad/scs/organica.jsp?idCarpeta=04d48f0a-541c-11de-9665-998e1388f7ed,Hospital Materno Infantil de Gran Canaria,https://maps.google.com/?cid=2864698486325173386
spain,Las Palmas de Gran Canaria,"Instituto Canario De Infertilidad, S.L.",28.1162636,-15.4464847,"Edificio Corona, Av. Juan Carlos I, 17, 35010 Las Palmas de Gran Canaria, Las Palmas, Spain",651 79 10 00,https://ivi.es/clinicas/las-palmas/?utm_source=google-mb&utm_medium=organic&utm_campaign=ivi_es_clinica-las-palmas_conversion,IVI Las Palmas - Clínica de Reproducción Asistida y Fertilidad,https://maps.google.com/?cid=1209485470824736165
spain,Las Palmas de Gran Canaria,IVI Las Palmas,28.1162636,-15.4464847,"Edificio Corona, Av. Juan Carlos I, 17, 35010 Las Palmas de Gran Canaria, Las Palmas, Spain",651 79 10 00,https://ivi.es/clinicas/las-palmas/?utm_source=google-mb&utm_medium=organic&utm_campaign=ivi_es_clinica-las-palmas_conversion,IVI Las Palmas - Clínica de Reproducción Asistida y Fertilidad,https://maps.google.com/?cid=1209485470824736165
spain,Las Palmas de Gran Canaria,CIRA Las Palmas,28.1262436,-15.4293999,"Calle Dr. José Juan Megías, 13, 35005 Las Palmas de Gran Canaria, Las Palmas, Spain",928 23 24 00,,C.I.R.A Centro Integral de Reproducción Asistida,https://maps.google.com/?cid=11487125584734397074
spain,Leioa,IVI Bilbao,43.3306545,-2.9961002,"Landabarri Bidea, 3, 2ª planta, 48940 Leioa, Bizkaia, Spain",651 79 10 00,https://ivi.es/clinicas/bilbao/?utm_source=google-mb&utm_medium=organic&utm_campaign=ivi_es_clinica-bilbao_conversion,IVI Bilbao - Clínica de Reproducción Asistida y Fertilidad,https://maps.google.com/?cid=17580468284023492287
spain,León,Centro Asistencial Universitario de León( CAULE ),42.618841,-5.5724197,"Calle Altos de Nava, s/n, 24008 León, Spain",987 23 74 00,https://www.saludcastillayleon.es/ciudadanos/es/mapa-centros-salud-castilla-leon/141807,University Hospital of León,https://maps.google.com/?cid=11880371083093710538
spain,León,Centro Ginecológico de León,42.5899038,-5.5722614,"C. Marqueses de San Isidro, 11, 24004 León, Spain",987 21 54 71,http://www.centrogine.es/,Centro Ginecológico de León,https://maps.google.com/?cid=9339435762661744112
spain,Lleida,Avantmedic Unitat de la Dona,41.6207898,0.6186405,"Av. Alcalde Rovira Roure, 20, 25006 Lleida, Spain",973 72 80 90,http://www.avantmedic.com/ca/arees/el-raco-de-la-mare/,Racó de La Mare by Avantmèdic,https://maps.google.com/?cid=2833574122874034571
spain,Lleida,FIV Lleida,41.6140848,0.6189224,"Carrer Alcalde Sol, 4, 25003 Lleida, Spain",973 28 81 27,http://www.urfivlleida.com/,UR FIVLLEIDA,https://maps.google.com/?cid=3042191903412007228
spain,Lleida,CEFER Lleida,41.612754,0.6211407,"Carrer Governador Montcada, 13, Bajos, 25002 Lleida, Spain",973 27 30 69,http://www.institutocefer.com/,Institut de Reproducció CEFER Lleida,https://maps.google.com/?cid=2357339350260923822
spain,Logroño,Centro Ginecologico Manzanera,42.4592128,-2.4448848,"C. Ing. la Cierva, 10, 26003 Logroño, La Rioja, Spain",941 24 18 96,https://www.centromedicomanzanera.com/,Centro Ginecológico Manzanera,https://maps.google.com/?cid=351688072654252838
spain,Logroño,Clínica Alxen . Centro Ginecológico Riojano,42.4500915,-2.4566579,"C. Sequoias, 12, 26008 Logroño, La Rioja, Spain",941 27 50 62,https://www.viamedsalud.com/clinica-alxen/,Clínica Viamed Alxen,https://maps.google.com/?cid=17314468091774694002
spain,Logroño,Clínica Ginecológica Juana Hernández,42.4654786,-2.4446356,"C. Muro de Francisco de la Mata, 12, 1° Derecha, 26001 Logroño, La Rioja, Spain",941 27 30 77,https://clinicaginecologicajuanahernandez.es/,Clínica Ginecológica Juana Hernández (centro acreditado para técnicas de reproducción asistida),https://maps.google.com/?cid=12059900255238681712
spain,Logroño,Ginesalud,42.46382,-2.44453,"C. Gral. Vara de Rey, 9, 4-D, 26002 Logroño, La Rioja, Spain",941 24 38 68,http://www.clinicaginesalud.net/,Clinica Ginesalud,https://maps.google.com/?cid=7396646482050351524
spain,Logroño,H. San Pedro,42.4512232,-2.4257369,"C. Piqueras, 98, 26006 Logroño, La Rioja, Spain",941 29 80 00,https://www.riojasalud.es/hospitales/hospital-san-pedro,San Pedro Hospital,https://maps.google.com/?cid=15488020632236391467
spain,Lugo,EVALO Centro Ginecológico,42.9964909,-7.5485188,"R. Cantigas e Frores, 6, bajo, 27002 Lugo, Spain",982 80 16 32,http://www.evalo.es/,Evalo Centro Ginecológico,https://maps.google.com/?cid=7432544446115912015
spain,Madrid,Centro Médico Milenium Alcobendas Sanitas,40.5368198,-3.6360096,"Blvr. de Salvador Allende, 2, 28108 Alcobendas, Madrid, Spain",917 16 58 20,https://centromedicomilenium-alcobendas.sanitas.es/?gmb=gmb%3Af-google%3Am-link%3Anc-cmalcobendas%3Ap-hospitales,Medical Center Milenium Alcobendas,https://maps.google.com/?cid=13888393920061400956
spain,Madrid,Clínica Dr. Eduardo Cubillo,40.41078,-3.6701219,"C. del Dr. Esquerdo, 98, Retiro, 28007 Madrid, Spain",622 95 71 89,https://www.ginecologo-madrid.com/,Eduardo Cubillo Rodriguez,https://maps.google.com/?cid=6624705659509364186
spain,Madrid,Clínica Ruber Internacional,40.4894832,-3.7156662,"C. de La Masó, 38, Fuencarral-El Pardo, 28034 Madrid, Spain",913 87 50 00,https://www.ruberinternacional.es/,Hospital Ruber Internacional,https://maps.google.com/?cid=12075735188554941600
spain,Madrid,"Clínica Ruber-Centro de Reproducción Madrid, S.L.",40.4326653,-3.6763759,"Calle de Juan Bravo, 49, 7ª Planta, Salamanca, 28006 Madrid, Spain",911 03 68 62,http://www.ruberfiv.es/,Invitro Fertilization ruber,https://maps.google.com/?cid=2508880967447174831
spain,Madrid,Clínica Tambre,40.4472267,-3.6849261,"C. del Tambre, 8, Chamartín, 28002 Madrid, Spain",914 11 61 11,https://bit.ly/DescubreTambreMedicinaReproductivaAvanzada,Clínica Tambre Madrid - Clínica de Fertilidad y Reproducción Asistida en Madrid,https://maps.google.com/?cid=14210746773680314230
spain,Madrid,"EVA QX Lab, S.L",39.4770387,-0.4028224,"Carrer de Vicente Ríos Enrique, 7, Campanar, 46015 València, Valencia, Spain",963 47 35 43,http://www.evafertilityclinics.es/,EVA Labs,https://maps.google.com/?cid=4485562054581810957
spain,Madrid,FivMadrid,40.4299146,-3.7194393,"C. de Juan Álvarez Mendizábal, 74, Moncloa - Aravaca, 28008 Madrid, Spain",915 61 66 16,https://fivmadrid.es/?utm_source=Google&utm_medium=SEO&utm_campaign=Bussines_profile&utm_term=,fivmadrid,https://maps.google.com/?cid=11438883006461807477
spain,Madrid,Fundacion Jimenez Diaz UTE,40.4389213,-3.7190791,"Av. de los Reyes Católicos, 2, Moncloa - Aravaca, 28040 Madrid, Spain",915 50 48 00,https://www.fjd.es/,Hospital Universitario Fundación Jiménez Díaz,https://maps.google.com/?cid=14946776416058589137
spain,Madrid,GINEFIV,40.454864,-3.6589572,"C. de José Silva, 18, Cdad. Lineal, 28043 Madrid, Spain",915 19 75 41,https://www.ginefiv.com/,Clínica Ginefiv,https://maps.google.com/?cid=13697282495757963088
spain,Madrid,H. 12 De Octubre,40.3771523,-3.6981923,"Av. de Córdoba, s/n, Usera, 28041 Madrid, Spain",913 90 80 00,https://www.comunidad.madrid/hospital/12octubre/,12 de Octubre University Hospital,https://maps.google.com/?cid=287109726156304425
spain,Madrid,H. Ramon y Cajal,40.4874172,-3.6945485,"M-607, Km. 9, 100, Fuencarral-El Pardo, 28034 Madrid, Spain",913 36 80 00,https://www.comunidad.madrid/hospital/ramonycajal/,Ramón y Cajal Hospital,https://maps.google.com/?cid=18200812852457260180
spain,Madrid,Hospital Clínico San Carlos,40.4407796,-3.720065,"Calle del Prof Martín Lagos, S/N, Moncloa - Aravaca, 28040 Madrid, Spain",913 30 30 00,https://www.comunidad.madrid/hospital/clinicosancarlos/,Hospital Clinico Universitario San Carlos,https://maps.google.com/?cid=18032222090685242864
spain,Madrid,Hospital General Universitario Gregorio Marañón,40.4195343,-3.671352,"C. del Dr. Esquerdo, 46, Retiro, 28007 Madrid, Spain",915 86 80 00,http://www.madrid.org/cs/Satellite?pagename=HospitalGregorioMaranon/Page/HGMA_home,Gregorio Marañón General University Hospital,https://maps.google.com/?cid=17569665921398727165
spain,Madrid,Hospital La Paz,40.4811625,-3.6873969,"P.º de la Castellana, 261, Fuencarral-El Pardo, 28046 Madrid, Spain",917 27 70 00,http://www.madrid.org/cs/Satellite?language=es&pagename=HospitalLaPaz/Page/HPAZ_home,La Paz University Hospital,https://maps.google.com/?cid=661582224824750237
spain,Madrid,Hospital Nuestra Señora de América,40.449696,-3.652004,"C. de Arturo Soria, 103, 105, Cdad. Lineal, 28043 Madrid, Spain",914 13 00 61,http://www.vithas.es/Madrid,Hospital Vithas Nuestra Señora de América - Urgencias,https://maps.google.com/?cid=13303024248641332189
spain,Madrid,Hospital Universitario Moncloa S.A.U,40.4331186,-3.7344613,"Av. de Valladolid, 83, Moncloa - Aravaca, 28008 Madrid, Spain",917 58 11 96,https://www.grupohla.com/hlahospitalmoncloa,HLA Moncloa University Hospital,https://maps.google.com/?cid=4047533608621446516
spain,Madrid,Instituto Europeo de Fertilidad,40.4402005,-3.715711,"Paseo de S. Fco. de Sales, 12, Chamberí, 28003 Madrid, Spain",915 43 99 40,https://www.iefertilidad.com/,European Institute of Fertility,https://maps.google.com/?cid=4842085464172100096
spain,Madrid,Instituto Ginecologico 'La Cigüeña',40.4146675,-3.6902905,"C. de Moreto, 5, Retiro, 28014 Madrid, Spain",914 29 52 78,,Instituto Ginecológico La Cigüeña,https://maps.google.com/?cid=13137370261995149541
spain,Madrid,Instituto Madrileño de Fertilidad,40.4378652,-3.7136441,"C. de Joaquín María López, 44, Chamberí, 28015 Madrid, Spain",914 13 54 67,https://m.easyfiv.es/?utm_source=google-mybusiness&utm_medium=madrid&utm_campaign=home,IMF-EASYFIV - Madrid,https://maps.google.com/?cid=13903065776051685463
spain,Madrid,IVI Madrid,40.4474511,-3.7798333,"Av. del Talgo, 68, Moncloa - Aravaca, 28023 Madrid, Spain",651 79 10 00,https://ivi.es/clinicas/madrid/?utm_source=google-mb&utm_medium=organic&utm_campaign=ivi_es_clinica-madrid_conversion,IVI Madrid - Clínica de Reproducción Asistida y Fertilidad,https://maps.google.com/?cid=2164733455645331177
spain,Madrid,MINIFIV,40.4590416,-3.6607784,"C. de Vicente Muzas, 13, 15, 17, Cdad. Lineal, 28043 Madrid, Spain",900 053 653,https://www.minifiv.es/?utm_source=google-mb&utm_medium=organic&utm_campaign=minifiv_es_web-clinica_conversion,MiniFIV Madrid - Clínica de Reproducción Asistida y Fertilidad,https://maps.google.com/?cid=8275637370037275895
spain,Madrid,Procreatec,40.4550828,-3.6876808,"C. de Manuel de Falla, 6, 8, Chamartín, 28036 Madrid, Spain",914 58 58 04,https://www.ivf-spain.com/?utm_source=googlemybusinessMAD&utm_medium=botonweb&utm_campaign=cmanager,IVF-Spain Madrid,https://maps.google.com/?cid=13373143060027905225
spain,Madrid,Clínica EasyFIV,40.4378652,-3.7136441,"C. de Joaquín María López, 44, Chamberí, 28015 Madrid, Spain",914 13 54 67,https://m.easyfiv.es/?utm_source=google-mybusiness&utm_medium=madrid&utm_campaign=home,IMF-EASYFIV - Madrid,https://maps.google.com/?cid=13903065776051685463
spain,Madrid,Eugin,40.4085121,-3.6889074,"C/ Alfonso XII 62, Pl, Baja A, Retiro, 28014 Madrid, Spain",913 36 04 00,https://www.eugin.es/madrid/?utm_medium=google&utm_source=mybusiness&utm_campaign=552,Eugin Madrid - Clínica de reproducción asistida,https://maps.google.com/?cid=3349113978869690506
spain,Madrid,Amnios In Vitro Projec,40.4395811,-3.7065562,"C. de Boix y Morer, 5, Chamberí, 28003 Madrid, Spain",912 79 68 50,https://www.amnios.es/,Amnios In Vitro Project | Clínica Fertilidad y Fecundación In Vitro en Madrid | FIV | Donación de Óvulos,https://maps.google.com/?cid=6195454602631945190
spain,Málaga,Centro Gutenberg,36.720797,-4.405205,"C/ Gutenberg, 5, Local 16, Málaga-Este, 29016 Málaga, Spain",952 21 03 17,http://www.centrogutenberg.com/,Centro Gutenberg,https://maps.google.com/?cid=8327912947373010100
spain,Málaga,H. Materno Infantil De Malaga - Carlos Haya,36.7231736,-4.4498416,"Av. de Carlos Haya, 84, Bailén-Miraflores, 29010 Málaga, Spain",951 29 00 00,http://www.hospitalregionaldemalaga.es/,Hospital Regional Universitario de Málaga,https://maps.google.com/?cid=1374693492132453604
spain,Málaga,Hospital Quiron Málaga,36.68434,-4.45761,"Av. Imperio Argentina, 1, Carretera de Cádiz, 29004 Málaga, Spain",951 94 00 00,https://www.quironsalud.es/malaga,Hospital Quirónsalud Málaga,https://maps.google.com/?cid=7901301460119711314
spain,Málaga,IMAFER – Clínica Victoria,36.7240547,-4.415677,"C. Victoria, 34, Distrito Centro, 29012 Málaga, Spain",952 06 08 67,http://clinicavictoria.es/,CLÍNICA VICTORIA,https://maps.google.com/?cid=12525650219061640111
spain,Málaga,Instituto Malavé de Reproducción,36.7159388,-4.422539,"C. Barroso, 4, Distrito Centro, 29001 Málaga, Spain",952 22 56 91,http://institutomalave.com/,Instituto Malavé de Ginecología,https://maps.google.com/?cid=4816124837501536702
spain,Málaga,Malaga F.I.V.,36.7229312,-4.4204486,"Calle Casapalma, 1, Distrito Centro, 29008 Málaga, Spain",952 21 11 21,http://www.malagafiv.com/,Malaga FIV S.l.,https://maps.google.com/?cid=4744055283317975651
spain,Málaga,UR El Ángel,36.7151605,-4.4530907,"C. Corregidor Nicolás Isidro, 16, Cruz de Humilladero, 29007 Málaga, Spain",952 04 50 00,https://www.grupohla.com/hlahospitalelangel,UR Hospital Angel,https://maps.google.com/?cid=175340655206295601
spain,Marbella,CERAM (Centro De Reproducción Asistida De Marbella),36.5168191,-4.8967432,"C. Maestra Doña Carola, 8, 29602 Marbella, Málaga, Spain",639 15 77 49,http://www.ceram.es/,Centro de Reproducción Asistida de Marbella - FIV en Marbella,https://maps.google.com/?cid=11878528344215984680
spain,Marbella,FIV Marbella,36.507353,-4.8816847,"s/n (Hospital Ochoa, P.º Alfonso Cañas Nogueras, 1, 29603 Marbella, Málaga, Spain",952 82 92 70,https://fivochoa.com/,FIV Ochoa Reproducción Asistida Marbella,https://maps.google.com/?cid=9851136181992948071
spain,Marbella,HC-Fertility,36.4845956,-4.9703765,"Ventura del Mar, 11, 29660 Marbella, Málaga, Spain",952 90 88 97,http://www.elcentrodelafertilidad.com/,HC Fertility - El centro de la fertilidad en Marbella,https://maps.google.com/?cid=10820245508498521057
spain,Marbella,Hospital Costa de Sol,36.5080939,-4.8263689,"A-7, Km 187, 29603 Marbella, Málaga, Spain",951 97 66 69,https://www.hcs.es/,Hospital Costa del Sol,https://maps.google.com/?cid=8244419514961687327
spain,Marbella,Hospital Ochoa,36.5072965,-4.8818018,"P.º Alfonso Cañas Nogueras, 29603 Marbella, Málaga, Spain",952 86 14 00,https://hospitalochoa.com/es/,Hospital Ochoa,https://maps.google.com/?cid=11834228490557184431
spain,Mataro,IMARA,41.5385465,2.4408902,"Carrer de Sant Benet, 8, 1º, 08302 Mataró, Barcelona, Spain",,,Imara,https://maps.google.com/?cid=8224137658095136329
spain,Melilla,Clínica Ginecológica Dr. Marín,35.2909271,-2.9426833,"Av. Duquesa de la Victoria, 2, 52004 Melilla, Spain",952 68 36 81,,Antonio Marín Fernández,https://maps.google.com/?cid=11871636796516995676
spain,Melilla,Clínica Imera,35.291431,-2.9427326,"C. Luis de Sotomayor, 4, 52004 Melilla, Spain",952 68 53 75,http://www.clinicaimera.com/,Clínica Imera | Depilación láser y medicina estética en Melilla,https://maps.google.com/?cid=2935534776109441864
spain,Móstoles,HM Fertility Center Puerta del Sur,40.3145527,-3.8602553,"Av. Carlos V, 70, 28938 Móstoles, Madrid, Spain",900 111 010,https://www.hmfertilitycenter.com/,HM Fertility Center,https://maps.google.com/?cid=8000885475481090286
spain,Murcia,Centro Ginecológico de Fertilidad y Genética,38.0008402,-1.1281432,"Calle Periodista Encarna Sánchez, esquina con, Av. Don Juan de Borbón, 26, 30007 Murcia, Spain",968 67 92 09,https://vidarecoletas.com/vida-murcia-medicina-reproductiva/,Vida Medicina Reproductiva Murcia,https://maps.google.com/?cid=563920463496871041
spain,Murcia,Fertilidad Roca,37.9693471,-1.1275055,"Rda. Sur, 20, 30010 Murcia, Spain",649 46 43 08,http://fertilidadroca.com/,FertilidadRoca,https://maps.google.com/?cid=6082264819603993965
spain,Murcia,Imar Fertilidad,37.9859837,-1.1337937,"C. Vinader, 10, 30004 Murcia, Spain",968 21 23 70,https://clinicaimar.com/,"CLÍNICA IMAR | Clínica de Reproducción asistida, fertilidad e Inseminación artificial en Murcia",https://maps.google.com/?cid=13892541498394009471
spain,Murcia,Instituto de Reproducción Asistida QuironSalud Dexeus Murcia,37.9980955,-1.1268908,"Avenida Juan De Borbón, C. Abenarabi, Esquina, 30008 Murcia, Spain",968 27 10 30,https://www.quironsalud.com/hospital-murcia/es/centro-medico-quironsalud-murcia,Assisted Reproduction Institute Dexeus Murcia Quirónsalud,https://maps.google.com/?cid=1534765294246521987
spain,Murcia,IVI Murcia,37.9936508,-1.1210041,"C. Navegante Macías del Poyo, 5, Edificio Delfín, 30007 Murcia, Spain",651 79 10 00,https://ivi.es/clinicas/murcia/?utm_source=google-mb&utm_medium=organic&utm_campaign=ivi_es_clinica-murcia_conversion,IVI Murcia - Clínica de Reproducción Asistida y Fertilidad,https://maps.google.com/?cid=11709078437178938282
spain,Murcia,Tahe Fertilidad,37.9983971,-1.1333232,"Av. Europa, 11, 30007 Murcia, Spain",968 90 19 03,,TMC - Tahe Medical Center,https://maps.google.com/?cid=6154433584974745157
spain,Murcia,Unidad de Reproducción La Vega,37.9922908,-1.1341251,"Calle Dr. Román Alberca, s/n, 30008 Murcia, Spain",968 27 21 60,https://grupointernacionalur.com/clinicas/ur-murcia/,Unidad de Reproducción Hospital HLA La Vega,https://maps.google.com/?cid=13094506948991486305
spain,Oviedo,CEFIVA - Oviedo,43.3703671,-5.8487918,"Pl. Ferrocarriles Económicos, 6-7, 33011 Oviedo, Asturias, Spain",985 25 93 93,http://www.cefiva.com/,UR CEFIVA - Grupo Internacional de Reproducción,https://maps.google.com/?cid=13427986927428398366
spain,Oviedo,FIV4-Instituto de Reproducción Humana,,,,,,,
spain,Oviedo,"H. UCA, Unidad reproducción, Hospital materno-infantil",43.3703671,-5.8487918,"Pl. Ferrocarriles Económicos, 6-7, 33011 Oviedo, Asturias, Spain",985 25 93 93,http://www.cefiva.com/,UR CEFIVA - Grupo Internacional de Reproducción,https://maps.google.com/?cid=13427986927428398366
spain,Palamós,Serveis de Salut Integrats Baix Empordà,41.8529099,3.1317395,"Carrer Hospital, 17-19, 17230 Palamós, Girona, Spain",972 60 01 60,http://www.ssibe.cat/,Hospital de Palamós,https://maps.google.com/?cid=13326125146488340044
spain,Palma De Mallorca,CEFIVBA: Centro Fecundacion In Vitro Balear,39.5985733,2.6437585,"Camí dels Reis, 308 Hospital Quirónsalud Palmaplanas, Norte, 07010 Palma, Illes Balears, Spain",971 46 26 85,https://www.cefivba.com/?utm_source=GMB&utm_medium=LinkPrincipalFicha,CeFivBa - Wilson Fertility - Centro de Fecundación in vitro Balear,https://maps.google.com/?cid=7220190392428667783
spain,Palma De Mallorca,FIV de Mallorca,39.5985733,2.6437585,"Camí dels Reis, 308 Hospital Quirónsalud Palmaplanas, Norte, 07010 Palma, Illes Balears, Spain",971 46 26 85,https://www.cefivba.com/?utm_source=GMB&utm_medium=LinkPrincipalFicha,CeFivBa - Wilson Fertility - Centro de Fecundación in vitro Balear,https://maps.google.com/?cid=7220190392428667783
spain,Palma De Mallorca,Hospital Universitario Son Espases,39.6070781,2.6446551,"Carretera de Valldemossa, 79, Nord, 07120 Palma, Illes Balears, Spain",871 20 50 00,https://www.hospitalsonespases.es/,Hospital Universitari Son Espases,https://maps.google.com/?cid=1297364938094877298
spain,Palma De Mallorca,H. Fundación Son Llatzer,39.5737669,2.7033338,"Hospital Son Llàtzer, C. de Manacor, km 4, km 4, Llevant, 07198 Palma, Illes Balears, Spain",871 20 20 00,http://www.hsll.es/,Son Llàtzer Hospital,https://maps.google.com/?cid=7548266051001358755
spain,Palma De Mallorca,Instituto de Fertilidad,39.5938604,2.6365302,"Carrer de Calçat, 6, Ponent, 07011 Palma, Illes Balears, Spain",971 78 07 20,https://institutodefertilidad.es/,Instituto de Fertilidad Mallorca,https://maps.google.com/?cid=8975220385936972976
spain,Palma De Mallorca,IVI Illes Balears,39.5898219,2.6253039,"Carrer d'Antoni Villalonga, 6, Poniente, 07011 Palma, Illes Balears, Spain",651 79 10 00,https://ivi.es/clinicas/mallorca/?utm_source=google-mb&utm_medium=organic&utm_campaign=ivi_es_clinica-mallorca_conversion,IVI Mallorca - Clínica de Reproducción Asistida y Fertilidad,https://maps.google.com/?cid=4510265425407884540
spain,Palma De Mallorca,Instituto Bernabeu,39.5735059,2.657826,"C/ d'Aragó, 8, Llevant, 07006 Palma, Illes Balears, Spain",971 10 57 27,https://www.institutobernabeu.com/es/centro/mallorca/?utm_source=google&utm_medium=maps&utm_campaign=GoogleMyBusiness&utm_term=PalmaDeMallorca,Instituto Bernabeu Palma de Mallorca,https://maps.google.com/?cid=3490629015581758024
spain,Pamplona,Complejo Hospitalario de Navarra,42.8052635,-1.6682809,"C. de Irunlarrea, 3, 31008 Pamplona, Navarra, Spain",848 42 22 22,https://hun.navarra.es/es/home,Navarra Hospital Complex - Navarra Hospital,https://maps.google.com/?cid=6395397606527286741
spain,Pamplona,Estudio Médico Navarro,42.8053209,-1.642032,"C. Isaac Albéniz, 7, BAJO, 31005 Pamplona, Navarra, Spain",948 24 12 36,http://www.estudiomediconavarro.es/,Medical study Navarro,https://maps.google.com/?cid=11871902629742821744
spain,Pamplona,Quirón Pamplona,42.8092409,-1.6549392,"Av. de Sancho el Fuerte, 63, 31007 Pamplona, Navarra, Spain",948 27 62 11,https://www.quironprevencion.com/es,Quirónprevención,https://maps.google.com/?cid=2356406978199518138
spain,Pozuelo de Alarcón,Hospital Universitario Quirónsalud Madrid,40.4027317,-3.7834356,"C. Diego de Velázquez, 1, 28223 Pozuelo de Alarcón, Madrid, Spain",914 52 19 00,https://www.quironsalud.es/hospital-madrid,University Hospital Quironsalud Madrid,https://maps.google.com/?cid=8692980803772386976
spain,Reus,Biogest,41.1629735,1.0773904,"Carrer de Vicent Andrés Estellés, 1, 43206 Reus, Tarragona, Spain",977 33 80 36,http://www.biotech-bios.com/,Biotech Biosecurity S L,https://maps.google.com/?cid=16413996707691728779
spain,Reus,Conceptum,41.1588265,1.1010709,"Passeig de Sunyer, 49, 43202 Reus, Tarragona, Spain",977 32 15 11,http://www.conceptum.es/,CONCEPTUM FERTILITAT,https://maps.google.com/?cid=9181419602293822721
spain,Reus,Procrear,41.160523,1.1057501,"Carrer del General Moragues, 89, 43203 Reus, Tarragona, Spain",977 32 60 46,https://procrear.es/,Procrear,https://maps.google.com/?cid=2088646646825126721
spain,Rincón De La Victoria,Instituto de Fertilidad Clínica Rincón,36.7126005,-4.2666825,"Av. de la Torre, 24, 29730 Torre de Benagalbón, Málaga, Spain",900 525 248,http://www.rinconfertilidad.com/,Instituto de Fertilidad Clínica Rincón S.L.,https://maps.google.com/?cid=4185228058030338616
spain,Roquetas De Mar,Roquetas FIV,36.7716288,-2.60892,"Av. Reino de España, 38, 04740 Roquetas de Mar, Almería, Spain",950 32 18 67,http://roquetasfiv.com/,RoquetasFIV,https://maps.google.com/?cid=9006587827019222038
spain,Salamanca,Clínica Mencía,40.9690384,-5.665262,"Rda. del Corpus, 41, bajo, 37002 Salamanca, Spain",923 27 11 78,http://www.clinicamencia.com/,Clínica Mencía,https://maps.google.com/?cid=4426485617032664598
spain,Salt,Hospital de Santa Caterina. Salt,41.9700478,2.7979282,"Carrer del Dr. Castany, s/n, 17190 Salt, Girona, Spain",972 18 26 00,http://www.ias.cat/,Hospital de Santa Caterina,https://maps.google.com/?cid=17487030567429200158
spain,San Sebastián,Clínica Zuatzu,43.2955052,-2.0111096,"Zuatzu Kalea, 9, 20018 Donostia, Gipuzkoa, Spain",943 24 95 49,http://www.clinicazuatzu.com/,Clinica Zuatzu,https://maps.google.com/?cid=5862523484228957807
spain,San Sebastián,Hospital Quirón Donostia,43.315378,-1.9736129,"Calle De Alkolea, 7, 20012 Donostia, Gipuzkoa, Spain",943 43 71 00,https://www.quironsalud.es/donostia,Quironsalud Donostia Eguneko Ospitalea,https://maps.google.com/?cid=17482190785600773456
spain,San Sebastián,Hospital Universitario de Donostia,43.2923382,-1.9687827,"Begiristain Doktorea Pasealekua, s/n, 20014 Donostia, Gipuzkoa, Spain",943 00 70 00,http://www.osakidetza.euskadi.eus/r85-ghodon00/es,Donostia University Hospital,https://maps.google.com/?cid=9691015028716882520
spain,San Sebastián,Instituto Vasco de Fertilidad Donostia,43.3080377,-2.0088326,"Tolosa Hiribidea, 71, 20018 Donostia, Gipuzkoa, Spain",943 32 81 60,https://www.ivf-spain.com/clinica-de-reproduccion-asistida-donostia/?utm_source=googlemybusinessDON&utm_medium=botonweb&utm_campaign=cmanager,IVF-Life Donostia (Instituto Vasco de Fertilidad),https://maps.google.com/?cid=5946080349857847776
spain,San Sebastián,IVI San Sebastian / Donostia,43.3127354,-1.9807872,"Easo Kalea, 83, 20006 Donostia, Gipuzkoa, Spain",651 79 10 00,https://ivi.es/clinicas/san-sebastian/?utm_source=google-mb&utm_medium=organic&utm_campaign=ivi_es_clinica-san-sebastian_conversion,IVI Donostia - Clínica de Reproducción Asistida y Fertilidad,https://maps.google.com/?cid=3964284008239188333
spain,Sant cugat del Valles,Áptima Centre Clinic Mutua de Terrasa,41.4811031,2.0608098,"Carrer Amposta, 22, 08174 Sant Cugat del Vallès, Barcelona, Spain",937 36 70 20,http://www.aptimacentreclinic.com/,Áptima Centre Clínic,https://maps.google.com/?cid=211660636553973086
spain,Santa Cruz de Bezana,FIVSantander,43.4346912,-3.9166878,"Av. de los Condes, s/n, 39108 Mompía, Cantabria, Spain",942 58 20 23,https://www.fivsantander.com/,Fiv Santander,https://maps.google.com/?cid=16824584135591687022
spain,Santa Cruz De Tenerife,Centro De Endocrinologia De La Reproducción de Tenerife,28.4634332,-16.2627274,"Av. Reyes Católicos, 13, 38005 Santa Cruz de Tenerife, Spain",651 79 10 00,https://ivi.es/clinicas/tenerife/?utm_source=google-mb&utm_medium=organic&utm_campaign=ivi_es_clinica-tenerife_conversion,IVI Tenerife - Clínica de Reproducción Asistida y Fertilidad,https://maps.google.com/?cid=14827964031651129603
spain,Santa Cruz De Tenerife,Centro Madre (Centro Mahatni de Reproducción),28.4677136,-16.2480952,"Villalba Hervás, 1, 38002 Santa Cruz de Tenerife, Spain",922 15 15 39,http://dermatenerife.com/,C. Madre Tenerife S.L.P.,https://maps.google.com/?cid=1140271028316825327
spain,Santa Cruz De Tenerife,H. Nuestra Sra. De La Candelaria,28.4484193,-16.2850297,"Ctra. Gral. del Rosario, 145, 38010 Santa Cruz de Tenerife, Spain",922 60 20 00,http://www3.gobiernodecanarias.org/sanidad/scs/organica.jsp?idCarpeta=10b3ea46-541b-11de-9665-998e1388f7ed,Our Lady of Candelaria University Hospital,https://maps.google.com/?cid=5950184173278385268
spain,Santa Cruz De Tenerife,"Irmo, S.L.",28.4584067,-16.2621236,"C. Tome Cano, 10, Local 5, 38005 Santa Cruz de Tenerife, Spain",922 24 52 45,,Clínica IRMO - Reproducción asistida,https://maps.google.com/?cid=14683441060796029768
spain,Santander,CER Santander,43.4350806,-3.9153287,"EDIFICIO CCM, Av. la Sta. Cruz, 56, 39100 Santander, Cantabria, Spain",942 27 00 00,http://www.cersantander.com/,CER Santander,https://maps.google.com/?cid=3706443254213898948
spain,Santander,IVI Santander,43.463824,-3.788133,"Av de la Reina Victoria, 39, 39004 Santander, Cantabria, Spain",651 79 10 00,https://ivi.es/clinicas/santander/?utm_source=google-mb&utm_medium=organic&utm_campaign=ivi_es_clinica-santander_conversion,IVI Santander - Clínica de Reproducción Asistida y Fertilidad,https://maps.google.com/?cid=13278658511286738284
spain,Santander,URA Valdecilla. Hospital U .Marques de Valdecilla,43.4560769,-3.8292103,"Av. de Valdecilla, s/n, 39008 Santander, Cantabria, Spain",942 20 25 20,,Marqués de Valdecilla University Hospital,https://maps.google.com/?cid=579269878698853207
spain,Santiago de Compostela,Complexo Hospitalario Universitario de Santiago,42.8693812,-8.5657444,"Rúa da Choupana, s/n, 15706 Santiago de Compostela, A Coruña, Spain",981 95 00 00,http://xxisantiago.sergas.es/,Santiago Clinic Hospital CHUS,https://maps.google.com/?cid=12189097719836092557
spain,Santiago de Compostela,Unidad de Reproducción Asistida La Rosaleda,42.8717295,-8.546127,"Rúa de Antonio Casares, 2, 15701 Santiago de Compostela, A Coruña, Spain",981 55 29 47,http://www.iraga.net/es/,IRAGA - Unidad de Reproducción Asistida La Rosaleda (Santiago de Compostela),https://maps.google.com/?cid=3118704220244276670
spain,Santiago de Compostela,"Zygos, Centro Gallego de Reproducción",42.8710273,-8.5604869,"Av. Barcelona, 23, 15706 Santiago de Compostela, La Coruña, Spain",981 93 41 12,http://www.zygos.es/,"Zygos Centro Gallego de Reproduccion Asistida, SL",https://maps.google.com/?cid=2045657689826428658
spain,Sevilla,Caremujer- Quiron Sagrado Corazón,37.359637,-5.980041,"C. Rafael Salgado, 3, 41013 Sevilla, Spain",954 93 76 76,https://www.quironsalud.es/sagrado-corazon,Hospital Quironsalud Sagrado Corazón,https://maps.google.com/?cid=15536753685304168528
spain,Sevilla,Embryocenter,37.3833693,-5.9849224,"Av. de Cádiz, 27 - 29, 41004 Sevilla, Spain",954 22 55 84,https://embryocenter.es/,Embryocenter,https://maps.google.com/?cid=344193173953132658
spain,Sevilla,Ginemed,37.380844,-6.001232,"C. Farmaceutico Murillo Herrera, 3, 41010 Sevilla, Spain",954 99 10 51,https://www.ginemed.es/,Ginemed Sevilla - Clínica de Reproducción Asistida y Fertilidad,https://maps.google.com/?cid=5275559681531747358
spain,Sevilla,H. Universitario Virgen De Valme,37.3188416,-5.9712578,"Ctra. de Cádiz Km. 548,9, 41014, 41014, 41014 Sevilla, Spain",955 01 50 00,http://www.agssursevilla.org/agsss/,Hospital Universitario Nuestra Señora de Valme,https://maps.google.com/?cid=4442082876738432393
spain,Sevilla,Hospital Victoria Eugenia (INEBIR),37.4003585,-5.9828495,"Av. de la Cruz Roja, 1, 41009 Sevilla, Spain",955 03 86 00,https://hospitalveugenia.com/,Hospital Victoria Eugenia,https://maps.google.com/?cid=8153079560519105477
spain,Sevilla,Hospital Virgen del Rocío,37.3619068,-5.9804162,"Av. Manuel Siurot, S/n, 41013 Sevilla, Spain",955 01 20 00,http://hospitaluvrocio.es/,Virgen del Rocío University Hospital,https://maps.google.com/?cid=5197161858769717780
spain,Sevilla,IVI Sevilla,37.4051367,-6.0083482,"C. Américo Vespucio, 5, 4 Planta 1, pasillo E, local 5, 41092 Sevilla, Spain",854 62 23 12,https://ivi.es/unidades/gestion-congelados/?utm_source=google-mb&utm_medium=organic&utm_campaign=ivi_es_unidad-criogestion_conversion,Clínicas IVI - Unidad de Criogestión,https://maps.google.com/?cid=9638565104888488719
spain,Sevilla,MasVida Reproducción,37.4072888,-6.0078262,"C. Américo Vespucio, 19, 41092 Sevilla, Spain",954 28 62 74,https://vidarecoletas.com/vida-sevilla-medicina-reproductiva/,Vida Recoletas Sevilla - Medicina Reproductiva,https://maps.google.com/?cid=2224392113020449298
spain,Sevilla,Hospital Quirón Infanta Luisa,37.3812322,-6.0079551,"C. San Jacinto, 87, 41010 Sevilla, Spain",954 33 01 00,https://www.quironsalud.es/infanta-luisa,Quirónsalud Infanta Luisa Hospital,https://maps.google.com/?cid=15471948995133078574
spain,Tarragona,Embriogyn,41.1175524,1.2520729,"Av. d'Estanislau Figueres, 8, 43003 Tarragona, Spain",977 24 24 51,http://www.embriogyn.com/,EMBRIOGYN,https://maps.google.com/?cid=13055532358983541286
spain,Toledo,H. Virgen De La Salud,39.8702445,-4.0339804,"45005 Toledo, Spain",,,Hospital Virgen De La Salud,https://maps.google.com/?cid=14607745199135042943
spain,Toledo,HM IMI Toledo,39.8826714,-4.028752,"Av. de Irlanda, 21, 45005 Toledo, Spain",925 25 45 15,https://www.hmhospitales.com/sobre-hm/policlinicos/hm-imi-toledo,HM IMI Toledo,https://maps.google.com/?cid=4325731217260581630
spain,Torremolinos,URA Clínica Santa Elena,36.6453443,-4.487777,"Urbanización Los Alamos, 29620 Torremolinos, Málaga, Spain",952 14 11 33,https://hmsantaelena.com/,Hospital Internacional HM Santa Elena,https://maps.google.com/?cid=12001175962913500647
spain,Valencia,Clínica Quiron Valencia,39.478001,-0.364367,"Av. de Blasco Ibáñez, 14, El Pla del Real, 46010 València, Valencia, Spain",963 69 06 00,https://www.quironsalud.es/valencia,Hospital Quirónsalud València,https://maps.google.com/?cid=12201070878691349656
spain,Valencia,CREA Valencia,39.473251,-0.374924,"C/ de Sant Martí, 4, Ciutat Vella, 46003 València, Valencia, Spain",963 51 75 51,https://creavalencia.com/,Crea Centro Médico de Fertilidad y Reproducción Asistida,https://maps.google.com/?cid=13092665348052578834
spain,Valencia,Equipo Juana Crespo,39.4823753,-0.4046976,"Av. del General Avilés, 90, Campanar, 46015 València, Valencia, Spain",961 04 25 57,https://www.juanacrespo.es/,Equipo Juana Crespo - Clínica de reproducción asistida en valencia,https://maps.google.com/?cid=7641630502865655290
spain,Valencia,FIV Valencia,39.4681884,-0.3579101,"Carrer de Santa Rosa, 12, El Pla del Real, 46021 València, Valencia, Spain",963 37 88 29,https://www.fivvalencia.com/,FIV Valencia,https://maps.google.com/?cid=6905242657858886761
spain,Valencia,H. Arnau De Vilanova,39.4905515,-0.4036487,"Carrer de Sant Clement, 12, Campanar, 46015 València, Valencia, Spain",961 97 60 00,https://arnau.san.gva.es/es/hospital-arnau-de-vilanova,Hospital Arnau de Vilanova,https://maps.google.com/?cid=9351932537448457305
spain,Valencia,H. Dr. Peset Aleixandre,39.4531309,-0.3943652,"Av. de Gaspar Aguilar, 90, Patraix, 46017 València, Valencia, Spain",963 18 87 00,,Doctor Peset University Hospital,https://maps.google.com/?cid=12667751921463620428
spain,Valencia,H.U. La Fe,39.4434752,-0.3760153,"Avinguda de Fernando Abril Martorell, 106, Quatre Carreres, 46026 València, Valencia, Spain",961 24 40 00,http://www.hospital-lafe.com/,La Fe University and Polytechnic Hospital,https://maps.google.com/?cid=8566269524710916674
spain,Valencia,Hospital Clínico Universitario de Valencia,39.4786783,-0.3612904,"Av. de Blasco Ibáñez, 17, El Pla del Real, 46010 València, Valencia, Spain",961 97 35 00,,Hospital Clínic Universitari,https://maps.google.com/?cid=2503738554544643706
spain,Valencia,Hospital General Universitario de Valencia,39.4684889,-0.4082961,"Av. de les Tres Creus, 2, L'Olivereta, 46014 València, Valencia, Spain",963 13 18 00,http://chguv.san.gva.es/inicio,Consortium General University Hospital of Valencia,https://maps.google.com/?cid=12942657755776518133
spain,Valencia,IMER,39.5022331,-0.4083266,"Av. de la Ilustración, 1, 46100 Burjasot, Valencia, Spain",963 00 30 00,http://www.imedvalencia.com/,IMED Valencia,https://maps.google.com/?cid=3840181425178100362
spain,Valencia,IVI Valencia S.L,39.4792294,-0.4005376,"Pl. de la Policia Local, 3, Campanar, 46015 València, Valencia, Spain",651 79 10 00,https://ivi.es/clinicas/valencia/?utm_source=google-mb&utm_medium=organic&utm_campaign=ivi_es_clinica-valencia_conversion,IVI Valencia - Clínica de Reproducción Asistida y Fertilidad,https://maps.google.com/?cid=13543130880625027593
spain,Valencia,Policlínico Valencia,39.4745912,-0.3645746,"12 bis, Pg. de l'Albereda, El Pla del Real, 46010 València, Valencia, Spain",963 39 40 10,https://www.policlinicovalencia.es/,Policlínico Valencia,https://maps.google.com/?cid=4650345171728117127
spain,Valencia,UHRA Nisa-Ginemed,39.4605951,-0.3871513,"C. Callosa de Ensarriá, 12, 6ª planta, Jesús, 46007 Valencia, Spain",963 41 20 59,https://www.ginemed.es/,Clínica de reproducció assistida i fertilitatj,https://maps.google.com/?cid=18428803404134655442
spain,Valladolid,Fiv Madrid Valladolid,41.6481315,-4.7249788,"C. Divina Pastora, 1, 47004 Valladolid, Spain",983 07 09 20,https://fivmadrid.es/,Reproducción asistida Valladolid - FIV Madrid,https://maps.google.com/?cid=4830145962166407690
spain,Valladolid,FIV Recoletos Valladolid,41.6461341,-4.7274698,"C. Acera de Recoletos, 12, 47004 Valladolid, Spain",983 21 99 20,https://www.vidarecoletas.com/,Vida Medicina Reproductiva Valladolid,https://maps.google.com/?cid=12804768662361176634
spain,Valladolid,Hospital Universitario Rio Ortega,41.6294871,-4.7134255,"C. Dulzaina, 2, 47012 Valladolid, Spain",983 42 04 00,http://www.saludcastillayleon.es/HRHortega/es,Rio Hortega University Hospital,https://maps.google.com/?cid=8797643105017317466
spain,Valladolid,"Unidad Reproducción, Servicio Ginecología y Obstetricia del H.C.U. De Valladolid",41.6441717,-4.7271146,"Pl. de Colón, 47004 Valladolid, Spain",983 30 94 72,https://www.gruporecoletas.com/centros-medicos/unidad-mujer-recoletas/,FIV Recoletos Valladolid. Assisted Reproduction Clinic,https://maps.google.com/?cid=13616023669041847745
spain,Vic,Unitat Endocrinologia Ginecològica,41.9342759,2.2569595,"Ronda de Francesc Camprodon, 1, 08500 Vic, Barcelona, Spain",938 86 46 01,http://www.cemgine.cat/,"CEMGINE, Centre d’Especialitats Mèdiques en Ginecologia i Obstetrícia",https://maps.google.com/?cid=17645426522557479575
spain,Vigo,Centro Hospitalario Universitario de Vigo,42.189596,-8.7145843,"Estrada de Clara Campoamor, 341, 36312 Vigo, Pontevedra, Spain",986 81 11 11,http://xxivigo.sergas.gal/,Álvaro Cunqueiro Hospital,https://maps.google.com/?cid=8530861181485612283
spain,Vigo,Centro Medico Pintado,42.2301246,-8.729033,"Avenida da Hispanidade, 40, Freixeiro, 36203 Vigo, Pontevedra, Spain",986 41 35 00,https://clinicapintado.com/,Centro Médico Pintado,https://maps.google.com/?cid=5637268819625055612
spain,Vigo,Hospital Nuestra Señora de Fátima,42.2343627,-8.7089268,"Rúa Vía Nte., 48, Santiago de Vigo, 36206 Vigo, Pontevedra, Spain",986 82 11 00,https://vithas.es/centro/vithas-hospital-vigo/,Hospital Vithas Nuestra Señora de Fátima,https://maps.google.com/?cid=17828371052204140088
spain,Vigo,IVI Vigo,42.231131,-8.721453,"Praza Francisco Fernández del Riego, 7, Freijeiro, 36203 Vigo, Pontevedra, Spain",651 79 10 00,https://ivi.es/clinicas/vigo/?utm_source=google-mb&utm_medium=organic&utm_campaign=ivi_es_clinica-vigo_conversion,IVI Vigo - Clínica de Reproducción Asistida y Fertilidad,https://maps.google.com/?cid=17444419178669404286
spain,Vigo,Clínica Nida,42.2252842,-8.7270463,"Rúa do Pintor Colmeiro, 15, BAJO, Freixeiro, 36203 Vigo, Pontevedra, Spain",986 90 06 29,http://www.nidaclinica.es/,NIDA - Clínica de Fertilidad y Reproducción Asistida,https://maps.google.com/?cid=12725248180553182378
spain,Vitoria,ART Vitoria,42.8345062,-2.7092293,"C. Laserna, KALEA, 1, 01015 Vitoria-Gasteiz, Álava, Spain",945 00 44 99,http://reproduccionart.com/,ART VITORIA CENTRO GINECOLOGICO DE REPRODUCCION SL,https://maps.google.com/?cid=10834191818678346623
spain,Vitoria,Hospital Universitario Araba sede Txagorritxu,42.8553138,-2.6895398,"Jose Atxotegi Kalea, s/n, Txagorritxu, 01009 Gasteiz, Araba, Spain",945 00 70 00,https://www.osakidetza.euskadi.eus/osi-araba-hospital-universitario-presentacion/ab84-arabacon/es/,Araba University Hospital,https://maps.google.com/?cid=16535593757873635044
spain,Zaragoza,Centro Médico Ginfer SLP,41.6482729,-0.8880954,"C/ de Almagro, 9, 50004 Zaragoza, Spain",876 66 65 55,http://www.clinicaginecologicaginfer.com/,Grupo Ginecológico Ginfer S L,https://maps.google.com/?cid=17685345510771233631
spain,Zaragoza,Clínica Ginecológica de Zaragoza S.L.,41.6434178,-0.8846364,"C. de Bolonia, 11, local, 50008 Zaragoza, Spain",976 38 60 34,http://www.ginecologiabolonia.es/,Centro Ginecológico Bolonia,https://maps.google.com/?cid=8182671741902106780
spain,Zaragoza,Clínica Gobest,41.6381543,-0.8805037,"San José, 50007 Zaragoza, Spain",,,Clínica Gobest,https://maps.google.com/?cid=18400965625421185976
spain,Zaragoza,Clínica Montpellier (UR Montpellier),41.6359074,-0.9137555,"Vía Hispanidad, 37, Casablanca, 50012 Zaragoza, Spain",976 35 13 86,https://www.grupohla.com/hlaclinicamontpellier,HLA Clínica Montpellier,https://maps.google.com/?cid=2941729389322046852
spain,Zaragoza,H. Clínico Zaragoza,41.6434171,-0.9033679,"C. de San Juan Bosco, 15, 50009 Zaragoza, Spain",976 76 57 00,http://www.hcuz.es/,Hospital Clinico Universitario Lozano Blesa,https://maps.google.com/?cid=5349427639212494497
spain,Zaragoza,H. Miguel Servet,41.6348027,-0.8999977,"P.º de Isabel la Católica, 1-3, 50009 Zaragoza, Spain",976 76 55 00,https://sectorzaragozados.salud.aragon.es/conocenos/asistencia/mi-hospital/,Miguel Servet University Hospital,https://maps.google.com/?cid=10122940898095955944
spain,Zaragoza,IVI Zaragoza,41.667869,-0.888514,"Poetisa María Zambrano, 31 Torre Sur del Edificio WTC, 50018 Zaragoza, Spain",651 79 10 00,https://ivi.es/clinicas/zaragoza/?utm_source=google-mb&utm_medium=organic&utm_campaign=ivi_es_clinica-zaragoza_conversion,IVI Zaragoza - Clínica de Reproducción Asistida y Fertilidad,https://maps.google.com/?cid=5062516916076777774
spain,Zaragoza,Quirónsalud Zaragoza,41.6398796,-0.9184053,"Av. de Gómez Laguna, 82, 50012 Zaragoza, Spain",976 57 90 00,https://www.quironsalud.es/dia-zaragoza,Hospital De Día Quirónsalud Zaragoza,https://maps.google.com/?cid=6725675636094235529
portugal,Guimarães,Hospital da Senhora da Oliveira – Guimarães,41.4419461,-8.3052436,"R. dos Cutileiros 114, 4805 Creixomil, Portugal",253 540 330,http://www.hospitaldeguimaraes.min-saude.pt/,Hospital da Senhora da Oliveira (Guimarães),https://maps.google.com/?cid=14524756900484280634
portugal,Guimarães,,41.4424357,-8.2935118,"4800-431, R. Rainha Dona Maria II 120, 4810-431 Guimarães, Portugal",253 534 087,http://www.nutportugal.pt/,NUT Guimaraes,https://maps.google.com/?cid=17094516745679306510
portugal,Vila Nova de Gaia,"Centro Hospitalar de Vila Nova de Gaia / Espinho, EPE - Unidade de Medicina da Reprodução Dra. Ingeborg Chaves",41.1287029,-8.6100985,"R. Dr. Francisco Sá Carneiro 4400-129, 4430-999 Vila Nova de Gaia, Portugal",808 203 570,,Centro Hospitalar de Vila Nova de Gaia/Espinho - Unidade 2,https://maps.google.com/?cid=8404538909452629672
portugal,Vila Nova de Gaia,,41.1213782,-8.6153371,"Av. Infante Dom Henrique 178, 4400-115 Vila Nova de Gaia, Portugal",22 379 2953,https://m.facebook.com/pages/category/Restaurant/Meia-Banana-182169398507650/?locale2=pt_PT,"Meia Banana - Snack-Bar, Lda.",https://maps.google.com/?cid=13470736755998194063
portugal,Vila Real,"Centro Hospitalar de Trás-os-Montes e Alto Douro, EPE",41.3101615,-7.7600926,"R. dos Lagoeiros 43, 5000 Vila Real, Portugal",259 300 500,http://chtmad.com/,"Centro Hospitalar De Trás-Os-Montes E Alto Douro, E.P.E.",https://maps.google.com/?cid=5864218643110994184
portugal,Vila Real,,41.2705339,-7.6942088,"R. do Cruzeiro 31, 5000-033 Vila Real, Portugal",259 043 013,https://www.facebook.com/profile.php?id=100063562360694,Cantinho da Céu,https://maps.google.com/?cid=7598647048610521646
portugal,Porto,"Centro Hospitalar do Porto, EPE",41.1464218,-8.6195932,"R. Dr. Tiago de Almeida, 4050-342 Porto, Portugal",22 207 7500,https://www.chporto.pt/,Hospital Geral de Santo António,https://maps.google.com/?cid=11075950675400194616
portugal,Porto,"Centro Hospitalar de São João, EPE",41.1827919,-8.6002563,"Alameda Prof. Hernâni Monteiro, 4200-319 Porto, Portugal",22 551 2100,http://www.chusj.pt/,São João University Hospital,https://maps.google.com/?cid=10563902090601627581
portugal,Porto,Centro de Genética da Reprodução Prof. Alberto Barros,41.1653058,-8.6426248,"Av. do Bessa 240, 4100-012 Porto, Portugal",22 600 7517,http://www.cgrabarros.pt/,Genetics of Reproduction Center,https://maps.google.com/?cid=16350285808769422428
portugal,Porto,CETI (Centro de Estudos e Tratamento da Infertilidade),41.1616972,-8.6503296,"Av. da Boavista 2300, 4100-118 Porto, Portugal",22 607 6530,https://www.ceti.pt/,CETI - Clínica de Fertilidade,https://maps.google.com/?cid=12999719000308919755
portugal,Porto,CEIE (Centro de Estudos de Infertilidade e Esterilidade),41.1471963,-8.621361,"R. de Dom Manuel II 51B, 4050-345 Porto, Portugal",22 606 2160,http://www.ceie.pt/,Centro de Estudos de Infertilidade e Esterilidade,https://maps.google.com/?cid=15812785044604390439
portugal,Porto,Procriar (Centro de Obstetrícia e de Medicina da Reprodução),41.1593085,-8.6381821,"Av. da Boavista 1243 5º piso, 4100-130 Porto, Portugal",,https://procriar.pt/,Procriar - Centro de Procriação Medicamente Assistida,https://maps.google.com/?cid=3234647301428683167
portugal,Porto,,41.1451638,-8.6114675,"R. das Flores 291, 4050-267 Porto, Portugal",22 208 4366,https://www.natalisboa.com/,Nata Lisboa,https://maps.google.com/?cid=1273779741195657427
portugal,Espinho,COGE (Clínica Obstétricia e Ginecológica de Espinho),41.0152232,-8.6294574,"R. da Idanha 320, 4500-046 Espinho, Portugal",22 733 0960,http://coge.pt/,Trofa Saúde COGE (Espinho),https://maps.google.com/?cid=5368404223451477608
portugal,Espinho,,,,,,,,
portugal,Braga,Ferticare (Centro de Medicina da Reprodução),41.5418445,-8.405001,"Rua José António Cruz, nº235 2º andar Fração B, R. José António Cruz 235 2º C, 4715-343 Braga, Portugal",253 004 474,https://ferticare.pt/,"Ferticare, Centro de Medicina de Reprodução de Braga",https://maps.google.com/?cid=9196573175435995131
portugal,Braga,,41.5379635,-8.4341941,"R. Tanque Veiga 81, 4705-279 Braga, Portugal",253 116 087,,Restaurante Asiático - BRAGA 999,https://maps.google.com/?cid=15657984125422641915
portugal,Coimbra,"Centro Hospitalar Universitário de Coimbra, EPE",40.2208499,-8.4128753,"Praceta Professor Mota Pinto, 3004-561 Coimbra, Portugal",239 400 400,,Centro Hospitalar e Universitário de Coimbra,https://maps.google.com/?cid=7180941306802012759
portugal,Coimbra,CLINIMER (Clínica de Medicina da Reprodução),40.2090192,-8.4688727,"R. Dr. Manuel Campos Pinheiro, 3040-089 Coimbra, Portugal",239 802 700,http://www.clinimer.com/,"Coimbra Fertility Center (Clinimer - Clínica De Medicina Da Reprodução, Lda.)",https://maps.google.com/?cid=2860119653329640440
portugal,Coimbra,FERTICENTRO (Centro de Estudos de Fertilidade),40.2155055,-8.4361699,"R. Padre Estevão Cabral 72, 3000-316 Coimbra, Portugal",239 497 280,https://www.ferticentro.pt/,Ferticentro - Clínica de Fertilidade,https://maps.google.com/?cid=12053686492150118982
portugal,Coimbra,,40.2180987,-8.4159235,"Universidade de Coimbra, Pólo das Ciências da Saúde, Azinhaga de Santa Comba, 3000-548 Coimbra, Portugal",239 488 510,http://www.uc.pt/icnas,Instituto de Ciências Nucleares Aplicadas à Saúde,https://maps.google.com/?cid=5528697494934322538
portugal,Covilhã,"Centro Hospitalar Cova da Beira, EPE",40.2661336,-7.4922895,"Centro Hospitalar Universitário Cova da Beira, EPE, Alameda Pêro da Covilhã, 6200-251 Covilhã, Portugal",275 330 000,https://www.chcbeira.min-saude.pt/,Centro Hospitalar Universitário Cova da Beira (CHUCB),https://maps.google.com/?cid=15765915111372215360
portugal,Covilhã,,40.2806928,-7.5046807,"Praça do Município 31, 6200-151 Covilhã, Portugal",275 324 309,https://www.natalisboa.com/,NATA Lisboa - Covilhã - Pastel de Nata,https://maps.google.com/?cid=16511581665861774651
portugal,Lisbon,"Centro Hospitalar Lisboa Norte, EPE - Hospital de Santa Maria",38.7484399,-9.1606246,"Av. Prof. Egas Moniz MB, 1649-028 Lisboa, Portugal",21 780 5000,http://www.chln.pt/,Hospital de Santa Maria,https://maps.google.com/?cid=16755602660785134405
portugal,Lisbon,"Centro Hospitalar Lisboa Central, EPE - Maternidade Dr. Alfredo da Costa",38.7326308,-9.1475126,"R. Viriato 1, 2890-495 Lisboa, Portugal",21 318 4000,,Alfredo da Costa Maternity Hospital,https://maps.google.com/?cid=6772033808150033493
portugal,Lisbon,AVA CLINIC,38.7284202,-9.1491196,"Av. António Augusto de Aguiar 5A, 1050-010 Lisboa, Portugal",21 324 5000,http://www.avaclinic.pt/,Ava Clinic Lisbon,https://maps.google.com/?cid=7689079628996250554
portugal,Lisbon,British Hospital XXI,38.7567634,-9.174879,"Rua Tomás da Fonseca Edifícios B, D, E e F, 1600-209 Lisboa, Portugal",21 710 4400,https://www.hospitaldaluz.pt/torres-de-lisboa/pt,Hospital da Luz Torres de Lisboa,https://maps.google.com/?cid=6733622311720064633
portugal,Lisbon,CEMEARE (Centro Médico de Assistência à Reprodução),38.7493546,-9.1509301,"R. Alfredo Mesquita 2E, 1600-922 Lisboa, Portugal",21 780 1072,http://www.cemeare.pt/,Cemeare - Centro Médico de Assistência à Reprodução,https://maps.google.com/?cid=937437221162240577
portugal,Lisbon,Hospital dos Lusíadas,38.749379,-9.179496,"R. Abílio Mendes 12, 1500-458 Lisboa, Portugal",21 770 4040,https://www.lusiadas.pt/hospitais-clinicas/hospital-lusiadas-lisboa,Hospital Lusíadas Lisboa,https://maps.google.com/?cid=13010673595244295662
portugal,Lisbon,"Instituto Extremeño de Reproducción Asistida, Sucursal em Portugal (IERA)",38.7488394,-9.1725416,"Edf. Laranjeiras. Plaza, R. Xavier de Araújo A/B, 1600-226 Lisboa, Portugal",21 269 6338,https://www.ieralisboa.pt/,IERA - Lisboa,https://maps.google.com/?cid=9645793177300273881
portugal,Lisbon,IVI Lisboa,38.7632488,-9.1050016,"1- 9ª, Av. Infante Dom Henrique 333 H, 1800-282 Lisboa, Portugal",800 780 340,https://ivi.pt/clinicas/lisboa/?utm_source=google-mb&utm_medium=organic&utm_campaign=ivi_pt_clinica-lisboa_conversion,IVI Lisboa Clinic,https://maps.google.com/?cid=10200320834948050532
portugal,Lisbon,GINEMED Lisboa,38.7465707,-9.1632563,"Av. dos Combatentes 43, 1600-042 Lisboa, Portugal",21 010 9000,https://www.ginemed.pt/,Ginemed Lisboa - Clínica de Reprodução Medicamente Assistida,https://maps.google.com/?cid=15222375444204828975
portugal,Lisbon,,38.7121334,-9.1364142,"R. dos Fanqueiros 232, 1100-232 Lisboa, Portugal",21 827 3826,http://www.ovenlisboa.com/,The Oven,https://maps.google.com/?cid=3417964338899699068
portugal,Almada,"Hospital Garcia de Orta, EPE",38.6738694,-9.1768601,"Av. Torrado da Silva, 2805-267 Almada, Portugal",21 294 0294,https://www.hgo.min-saude.pt/,Hospital Garcia de Orta,https://maps.google.com/?cid=11135747627815760742
portugal,Almada,,38.6701762,-9.1522852,"R. Manuel José Gomes 101 Loja 7, 2805-193 Almada, Portugal",21 276 2170,https://ninjabuns.pt/,Ninja Buns - Almada,https://maps.google.com/?cid=11096264360305499427
portugal,Faro,FERTIMED (Centro Médico de Reprodução Humana),37.0272735,-7.9468175,"N125 158, 8005-145 Faro, Portugal",289 805 170,http://fertimed.pt/,Fertimed - Medicina da Reprodução,https://maps.google.com/?cid=9782626978052854283
portugal,Faro,,37.0315164,-7.9603772,"R. Poe. Antonio Aleixo, 8005-174 Faro, Portugal",967 090 744,https://restaurantemn.eatbu.com/,Restaurante MN,https://maps.google.com/?cid=11627248808722515424
portugal,Portimão,Mediart,37.1361788,-8.5355624,"8500-537 Portimão, Portugal",282 457 754,,Mediart,https://maps.google.com/?cid=17106626896240419943
portugal,Portimão,,37.1397641,-8.5380838,"R. Diogo Goncalves nº 8, 8500-622 Portimão, Portugal",925 016 728,https://www.facebook.com/NanayaPTM/,Nanaya - Loja de Roupa para Criança,https://maps.google.com/?cid=8455888545208917076
portugal,Ponta Delgada,MEKA CENTER (CLÍNICA DA MULHER),37.7470726,-25.6847796,"R. Eng. Deodato Magalhães 14-18, 9500-786 Ponta Delgada, Portugal",296 308 888,https://meka.pt/,Meka Center,https://maps.google.com/?cid=12563971160896403864
portugal,Ponta Delgada,,37.7404508,-25.6701658,"R. Machado dos Santos, 9500-083 Ponta Delgada, Portugal",920 343 768,https://www.facebook.com/NamasteIndiazores,Namaste Índia,https://maps.google.com/?cid=18018378255115681928
portugal,Funchal,"Hospital DR. Nélio Mendonça, Sesaram, EPE",32.6484064,-16.924295,"Av. Luís de Camões 6180, 9000-177 Funchal, Portugal",291 705 600,https://www.sesaram.pt/portal/o-sesaram/o-sesaram/as-nossas-unidades/hospitais/hospital-dr-nelio-mendonca,Hospital Dr. Nélio Mendonça,https://maps.google.com/?cid=10591197877127538781
portugal,Funchal,FERTIMADEIRA (Centro de Estudos de Fertilidade e de Criopreservação da Madeira).,,,,,,,
france,Aix en Provence,CH du pays d’Aix,43.5353526,5.4426963,"Av. des Tamaris, 13100 Aix-en-Provence, France",04 42 33 50 00,http://www.ch-aix.fr/,Centre Hospitalier du Pays d'Aix,https://maps.google.com/?cid=294534059901450158
france,Amiens,Groupe Santé Victor Pauchet,49.8716223,2.2945556,"2 Av. d'Irlande, 80090 Amiens, France",03 22 33 70 00,https://www.cliniquevictorpauchet.fr/,Victor Pauchet Amiens Clinic,https://maps.google.com/?cid=8154058703370742175
france,Angers,C.H.U. D’ Angers,47.4829509,-0.5565851,"4 Rue Larrey, 49100 Angers, France",02 41 35 36 37,https://www.chu-angers.fr/,Angers University Hospital Center,https://maps.google.com/?cid=4865574597586245756
france,Ars Laquenexy,CHR de Mercy,49.083684,6.2427272,"1 All. du Château, 57530 Ars-Laquenexy, France",03 87 55 31 31,https://www.chr-metz-thionville.fr/,Metz-Thionville Hospital Mercy,https://maps.google.com/?cid=15818051913432566879
france,Avignon,Polyclinique Urbain V,43.9456235,4.8418335,"Chem. du Pont des 2 Eaux, 84000 Avignon, France",04 90 81 31 33,https://www.elsan.care/fr/polyclinique-urbainv,Polyclinic Elsan,https://maps.google.com/?cid=140648233208112775
france,Bagnolet,Centre médicochirurgical Floréal,48.8781607,2.4304641,"30 Rue Floréal, 93170 Bagnolet, France",01 48 97 72 24,http://cliniquefloreal.com/,Surgical Medical Center Floréal,https://maps.google.com/?cid=10520918287152925654
france,Bayonne,Capio Clinique Belharra,43.4789832,-1.4533603,"2 All. Dr Robert Lafon, 64100 Bayonne, France",05 36 28 64 64,https://clinique-belharra-bayonne.ramsaysante.fr/,Clinical Belharra - Ramsay Santé,https://maps.google.com/?cid=4546617672128879271
france,Beaumont,Clinique La Chataigneraie,45.7525772,3.0734801,"59 Rue de la Châtaigneraie, 63110 Beaumont, France",04 73 40 80 40,https://www.elsan.care/fr/hopital-prive-chataigneraie,Private Hospital La Châtaigneraie - Elsan,https://maps.google.com/?cid=2628331093939511683
france,Besancon,CHU Jean Minjoz,47.2250487,5.9627359,"3 Bd Alexandre Fleming, 25000 Besançon, France",03 81 66 81 66,http://www.chu-besancon.fr/,Chu Jean Minjoz,https://maps.google.com/?cid=12487662489913647924
france,Besancon,Polyclinique de Franche-Comté,47.2154252,5.9798398,"4 Rue Auguste Rodin, 25000 Besançon, France",03 81 41 81 41,https://www.elsan.care/fr/polyclinique-franche-comte,🏥 Polyclinique de Franche-Comté - ELSAN,https://maps.google.com/?cid=5923337409533863948
france,Bezannes,CHI Nord Ardennes,49.7617943,4.7006492,"45 Av. de Manchester, 08000 Charleville-Mézières, France",03 24 58 70 70,https://www.hopitaux-nord-ardenne.fr/,Central Hospital of Charleville-Mézières,https://maps.google.com/?cid=6341967895066986803
france,Bondy,Hôpital Jean Verdier,48.9092198,2.4862503,"3 Rue Arthur Groussier, 93140 Bondy, France",01 48 02 66 66,,Hospital Jean-Verdier,https://maps.google.com/?cid=10849870087497482071
france,Bordeaux,CHU Centre Aliénor d’Aquitaine,44.8270441,-0.602146,"Groupe Hospitalier Pellegrin, Pl. Amélie Raba Léon, 33000 Bordeaux, France",05 56 79 56 79,,Maternity Eleanor of Aquitaine - Bordeaux Hospital,https://maps.google.com/?cid=4714709621131975131
france,Brest,CHRU hôpital Morvan,48.3930252,-4.4865519,"2 Av. Foch, 29200 Brest, France",02 98 22 33 33,http://www.chu-brest.fr/,Chu Brest - Hospital Morvan,https://maps.google.com/?cid=5079343084311495017
france,Brest,Clinique Pasteur Lanroze,48.400736,-4.4893016,"32 Rue Auguste Kervern, 29200 Brest, France",02 98 31 32 33,https://cliniquepasteurlanroze.vivalto-sante.com/?utm_source=Yext&utm_medium=ExtNet,Chp Brest - Pasteur,https://maps.google.com/?cid=1429292032427765644
france,Bron,Hôpital femme Mère Enfant,45.7462537,4.9007108,"59 Bd Pinel, 69500 Bron, France",0 825 08 25 69,https://www.chu-lyon.fr/hopital-femme-mere-enfant?utm_source=GMB&utm_medium=organic,Woman-Mother-Child Hospital,https://maps.google.com/?cid=4322728715758871856
france,Bruges,Polyclinique Jean Villar,44.8888114,-0.6159737,"56Avenue Maryse Bastié, 33520 Bruges, France",05 56 16 13 57,https://www.elsan.care/fr/polyclinique-jean-villar,Polyclinique Jean Villar - Elsan,https://maps.google.com/?cid=1268198395569127679
france,Caen,CHU de Caen,49.2055856,-0.3559348,"Av. de la Côte de Nacre CS 30001, 14000 Caen, France",02 31 06 31 06,https://www.chu-caen.fr/,University Hospital Center of Caen,https://maps.google.com/?cid=2082986130779945061
france,Calais,CH de Calais,50.9410244,1.8917571,"1601 Bd des Justes, 62100 Calais, France",03 21 46 33 33,http://www.ch-calais.fr/,Calais Hospital Center,https://maps.google.com/?cid=1800113548943512552
france,Chambray-Les-Tours,Pôle de Santé-Léonard de Vinci,47.3358632,0.6891401,"1 Av. Alexandre Minkowski, 37170 Chambray-lès-Tours, France",02 47 22 21 11,http://www.pslv.fr/,Pôle Santé Léonard De Vinci,https://maps.google.com/?cid=3877566990646145876
france,Charleville-Mezieres,CHI Nord-Ardennes,49.7617943,4.7006492,"45 Av. de Manchester, 08000 Charleville-Mézières, France",03 24 58 70 70,https://www.hopitaux-nord-ardenne.fr/,Central Hospital of Charleville-Mézières,https://maps.google.com/?cid=6341967895066986803
france,Cherbourg-en-Cotentin,Polyclinique du COTENTIN,49.6359632,-1.6561397,"Av. du Thivet, 50120 Équeurdreville-Hainneville, France",02 33 78 50 50,http://www.polyclinique-cotentin.fr/,Polyclinic Cotentin,https://maps.google.com/?cid=4292443138906832621
france,Clamart,APHP Hôpital Antoine Béclère,48.7885168,2.2549009,"157 Rue de la Prte de Trivaux, 92140 Clamart, France",01 45 37 44 44,http://hopital-antoine-beclere.aphp.fr/,Antoine-Béclère Hospital,https://maps.google.com/?cid=17227038235175375088
france,Clermont-Ferrand,CHU Estaing,45.7855546,3.111202,"1 Rue Lucie et Raymond Aubrac, 63100 Clermont-Ferrand, France",04 73 75 07 50,https://www.chu-clermontferrand.fr/,Clermont-Ferrand University Hospital,https://maps.google.com/?cid=15727393086716288439
france,Contamine-sur-arve,CH ALPES LEMAN,46.1409287,6.3202342,"558 Rte de Findrol, 74130 Contamine-sur-Arve, France",04 50 82 20 00,http://www.ch-alpes-leman.fr/,Hospital Center Alps-Leman Chal,https://maps.google.com/?cid=16305978936767601619
france,Créteil,CHI de Creteil,48.7965026,2.4654091,"40 Av. de Verdun, 94000 Créteil, France",01 57 02 20 00,http://www.chicreteil.fr/,Intercommunal Hospital of Creteil,https://maps.google.com/?cid=14641368565408696343
france,Dijon,Complexe Hospitalier du Bocage,47.3193867,5.0732821,"Parking, 14 Rue Paul Gaffarel, 21000 Dijon, France",03 80 29 30 31,https://www.chu-dijon.fr/fr,University Hospital F.mitterand Dijon-Bourgogne,https://maps.google.com/?cid=14508859131252080526
france,Dreux,CH Dreux hôpital Victor Jousselin,48.7281936,1.3845345,"44 Av. du Président John Fitzgerald Kennedy, 28100 Dreux, France",02 37 51 52 53,http://www.ch-dreux.fr/,Hospital Center Victor Jousselin,https://maps.google.com/?cid=17627678646714141607
france,Ecully,Clinique du Val d'ouest Vendome,45.7686663,4.7807949,"39 Chem. de la Vernique, 69130 Écully, France",04 72 19 32 00,http://www.cliniqueduvaldouest.com/,Clinical Du Val D'ouest Vendôme,https://maps.google.com/?cid=65737497918608157
france,Epinal,Polyclinique la ligne bleue,48.1993764,6.4636296,"9 Av. du Rose Poirier, 88000 Épinal, France",03 29 68 60 60,https://polesante-lalignebleue.fr/,HOSPITAL BLUE LINE,https://maps.google.com/?cid=2876713632077380062
france,Ermont,Capio clinique Claude Bernard,48.9808331,2.2641277,"9 Av. Louis Armand, 95120 Ermont, France",01 30 72 34 34,https://clinique-claude-bernard-ermont.ramsaygds.fr/,Clinique Claude Bernard,https://maps.google.com/?cid=17633603928191662456
france,Fort-de-France,Clinique Saint-Paul,50.9091688,1.9352456,"Rue Hibiscus 4, 97200 Fort de France, France",05 96 55 14 96,,Saint-Paul Radiologie,https://maps.google.com/?cid=8510580394950160182
france,Guilherand-Granges,Clinique Pasteur,44.9344753,4.8825155,"294 Bd Charles de Gaulle, 07500 Guilherand-Granges, France",04 75 75 24 24,https://hopital-prive-drome-ardeche-valence-guilherand-granges.ramsaysante.fr/,Private _ Hospital Drôme Ardèche,https://maps.google.com/?cid=12286647382257440030
france,La Roche sur Yon,Clinique Saint-Charles,46.6578219,-1.4142849,"11 Bd René Lévesque, 85000 La Roche-sur-Yon, France",02 51 44 44 44,http://www.facebook.com/cliniquesaintcharleslarochesuryon/?utm_source=gmb,Clinical Saint Charles,https://maps.google.com/?cid=9635721285389197773
france,La Tronche,Hôpital couple enfant,45.2027809,5.7415424,"Quai Yermoloff, 38700 La Tronche, France",04 76 76 75 75,http://www.chu-grenoble.fr/content/pole-couple-enfant,Hôpital couple enfant,https://maps.google.com/?cid=8384774232228705684
france,Le Blanc Mesnil,Hopital Privé De La Seine Saint Denis,48.9363106,2.4569726,"7 Av. Henri Barbusse, 93150 Le Blanc-Mesnil, France",01 86 86 34 44,https://hopital-prive-de-la-seine-saint-denis-le-blanc-mesnil.ramsaysante.fr/,Private Hospital De La Seine-Saint-Denis - Ramsay Santé,https://maps.google.com/?cid=2951214352699233595
france,Le Chesnay,Centre Medico Chirurgical de Parly II,48.830203,2.1198163,"21 Rue Moxouris, 78150 Le Chesnay-Rocquencourt, France",01 39 63 70 00,https://hopital-prive-de-parly2-le-chesnay.ramsaysante.fr/,Private Hospital De Parly 2 Ramsay Santé,https://maps.google.com/?cid=14327100480013762678
france,Le Mans,Clinique du Tertre Rouge,47.9660162,0.2259826,"62 Rue de Guetteloup, 72100 Le Mans, France",02 43 78 58 58,https://www.tertrerouge.fr/,Maternity Du Tertre Rouge - Elsan,https://maps.google.com/?cid=4913435437686436231
france,Le Port,Clinique Jeanne d'Arc,48.8263396,2.3675256,"11 Rue Ponscarme, 75013 Paris, France",01 40 77 02 02,,Jeanne d'Arc Clinic,https://maps.google.com/?cid=5781287486387474018
france,Lens,CH Lens,50.439091,2.8177668,"99 Rte de la Bassée, 62300 Lens, France",03 21 69 12 34,https://www.ch-lens.fr/,Lens Hospital,https://maps.google.com/?cid=7780858971218004381
france,Les Abymes,CHU de Pointe à Pitre Abymes,16.2366943,-61.5253733,"Rte de Chauvel, Les Abymes 97142, Guadeloupe",0590 89 10 10,http://www.chu-guadeloupe.fr/,Hospital Center Regional University,https://maps.google.com/?cid=14479280557689750293
france,Lille,Hôpital Jeanne de Flandres,50.6055441,3.0321267,"Av. Eugène Avinée, 59000 Lille, France",03 20 44 59 62,http://maternite.chru-lille.fr/,Joan of Flanders Hospital,https://maps.google.com/?cid=4937549548881310316
france,Lille,hôpital prive Le Bois,50.6348978,3.0310725,"44 Av. Marx Dormoy, 59000 Lille, France",03 59 75 75 75,https://hopital-prive-le-bois-lille.ramsaysante.fr/,Hôpital privé Le Bois - Ramsay Santé,https://maps.google.com/?cid=1531475911935607439
france,Limoges,Hôpital de la mère et de l’enfant,45.813602,1.2401077,"8 Av. Dominique Larrey, 87000 Limoges, France",05 55 05 55 55,http://www.chu-limoges.fr/hopital-de-la-mere-et-de-l-enfant.html,University Hospital Limoges Mother and Child Hospital,https://maps.google.com/?cid=4975226948945985008
france,Lorient,CH Bretagne Sud,47.7530002,-3.356251,"5 Av. Choiseul, 56322 Lorient, France",02 97 06 90 90,http://www.ghbs.bzh/,South Brittany Hospital Group,https://maps.google.com/?cid=16305756864209593456
france,Lyon,Clinic Natecia,45.7412346,4.8833702,"22 Av. Rockefeller, 69008 Lyon, France",0 826 96 99 99,https://natecia.fr/,Private Hospital Natécia,https://maps.google.com/?cid=2787153859288953166
france,Marseille,APHM Hôpital de la Conception,43.2911143,5.3959632,"147 Bd Baille, 13005 Marseille, France",04 91 38 00 00,http://fr.ap-hm.fr/nos-hopitaux/hopital-de-la-conception,Hospitals Academics De Marseille Conception,https://maps.google.com/?cid=17667796099171497663
france,Marseille,Clinique Bouchard,43.2827951,5.3796342,"Clinique Bouchard, 77 Rue Dr Escat, 13006 Marseille, France",04 91 15 90 22,https://www.elsan.care/fr/clinique-bouchard,Clinique Bouchard - Elsan,https://maps.google.com/?cid=804153261575024257
france,Marseille,Hôpital St Joseph,43.2754391,5.3933468,"26 Bd de Louvain, 13008 Marseille, France",04 91 80 65 00,http://www.hopital-saint-joseph.fr/,Hôpital Saint Joseph,https://maps.google.com/?cid=17829730430592996326
france,Meaux,CH de Meaux,48.9673077,2.8865536,"6-8 Rue Saint-Fiacre, 77100 Meaux, France",01 64 77 64 77,http://www.ghef.fr/,Grand Hospital Eastern Ile - Website De Meaux,https://maps.google.com/?cid=14237091292711443020
france,Montivilliers,Groupe hospitalier du Havre,49.5268679,0.1843254,"29 Av. Pierre Mendès France, 76290 Montivilliers, France",02 32 73 32 32,http://www.ch-havre.fr/,Hospital Group Du Havre,https://maps.google.com/?cid=5808430114996259956
france,Montpellier,CHU Hôpital Arnaud de Villeneuve,43.6323305,3.8496282,"371 Av. du Doyen Gaston Giraud, 34090 Montpellier, France",04 67 33 67 33,https://www.chu-montpellier.fr/fr/,Arnaud-De-Villeneuve Hospital,https://maps.google.com/?cid=15555384292619027664
france,Montpellier,Polyclinique Saint Roch,43.5832093,3.8611928,"560 Av. du Colonel André Pavelet dit Villars, 34000 Montpellier, France",04 67 61 88 88,https://www.oc-sante.fr/etablissements/polyclinique-saint-roch/?utm_source=gmb,Polyclinic Saint-Roch,https://maps.google.com/?cid=15974509541338981721
france,Mulhouse,Fondation du Diaconat,47.7494856,7.3320409,"12 Rue d'Alsace, 68100 Mulhouse, France",03 89 32 17 09,,House Diaconat,https://maps.google.com/?cid=15359250990198803861
france,Nancy,Polyclinique Majorelle,48.7009191,6.1441959,"95 Rue Ambroise Paré, 54000 Nancy, France",03 83 94 41 00,http://www.elsan.care/fr/polyclinique-majorelle,Polyclinique Majorelle De Nancy - Elsan,https://maps.google.com/?cid=15045851521256172230
france,Nancy,CHRU Nancy maternité,48.6809973,6.1898787,"10 Av. Dr Heydenreich, 54000 Nancy, France",03 83 85 85 85,http://maternite.chru-nancy.fr/,Regional University Maternity Hospital - Nancy CHRU,https://maps.google.com/?cid=2864857522927020640
france,Nantes,Hôpital femme enfant adolescent,47.2094056,-1.5509318,"38 Bd Jean Monnet, 44093 Nantes, France",02 40 08 33 33,http://www.chu-nantes.fr/,Hôpital Femme-Enfant-Adolescent Chu De Nantes,https://maps.google.com/?cid=9038684143296213343
france,Nantes,Clinique Brétéché Viaud,47.22629,-1.5468167,"3 Rue de la Beraudière, 44000 Nantes, France",02 51 86 86 86,https://www.elsan.care/fr/clinique-breteche,Clinical Bretéché - Elsan,https://maps.google.com/?cid=220958154821750343
france,Nantes,Clinique Jules Verne,47.248532,-1.5185325,"2-4 Rte de Paris, 44300 Nantes, France",02 51 17 17 17,,Jules Verne Clinic,https://maps.google.com/?cid=11384889953185724001
france,Neuilly sur Seine,Hôpital Américain,48.8918717,2.2724618,"55 Bd du Château, 92200 Neuilly-sur-Seine, France",01 46 41 25 25,http://www.american-hospital.org/,American Hospital of Paris,https://maps.google.com/?cid=18053306323280351893
france,Neuilly sur Seine,Centre Chirurgical Pierre Cherest,48.8832302,2.2798525,"5 Rue Pierre Cherest, 92200 Neuilly-sur-Seine, France",01 46 41 86 86,http://www.ambroisepare.fr/,Pierre Cherest clinic,https://maps.google.com/?cid=10501174795051420435
france,Nice,Clinique Saint Georges,43.7332066,7.2775244,"2 Av. de Rimiez, 06105 Nice, France",04 93 81 71 50,https://www.clinique-saint-george.com/,Saint George Clinic,https://maps.google.com/?cid=326619548541644814
france,Nice,Hopital De L'archet,43.6966154,7.2268082,"151 Route de Saint-Antoine, 06200 Nice, France",04 92 03 77 77,https://www.chu-nice.fr/,Hospital L'archet,https://maps.google.com/?cid=15382712536995995492
france,Nimes,CHU de Nimes Hôpital Caremeau,43.8238818,4.3211256,"4 Rue du Professeur Robert Debré, 30900 Nîmes, France",04 66 68 68 68,https://www.chu-nimes.fr/,University Hospital of Nimes,https://maps.google.com/?cid=12332648923194788107
france,Orleans,CHRO Hôpital de la source,47.8353634,1.9201458,"14 Av. de l'Hôpital, 45100 Orléans, France",02 38 51 44 44,https://www.chu-orleans.fr/,Hospital Center Régional D'orléans Hospital La Source,https://maps.google.com/?cid=18374333815109536756
france,Paris,Hopital Des Diaconesses,48.8448101,2.3916809,"12-18 Rue du Sergent Bauchat, 75012 Paris, France",01 44 74 10 10,https://hopital-dcss.org/,Hospital Group Diaconesses Croix Saint-Simon,https://maps.google.com/?cid=12914644766205001753
france,Paris,Hopital Pierre Rouques « Les Bluets »,48.8430742,2.4060606,"4 Rue Lasson, 75012 Paris, France",01 53 36 41 00,http://www.bluets.org/,Hospital Pierre Rouquès - Les Bluets,https://maps.google.com/?cid=5945614415222982505
france,Paris,Hôpital Cochin-Hôtel Dieu-Broca,48.8368937,2.3402667,"27 Rue du Faubourg Saint-Jacques, 75014 Paris, France",01 58 41 41 41,http://hopital-cochin-port-royal.aphp.fr/,Cochin Hospital,https://maps.google.com/?cid=1958451157549168227
france,Paris,Institut mutualiste Montsouris,48.8228338,2.332665,"42 Bd Jourdan, 75014 Paris, France",01 56 61 62 63,http://www.imm.fr/,Institute Mutualiste Montsouris,https://maps.google.com/?cid=11375906782007697010
france,Paris,Clinique de La Muette,48.8604159,2.2778,"46-48 Rue Nicolo, 75116 Paris, France",01 40 72 33 33,https://clinique-de-la-muette-paris.ramsaysante.fr/,Clinique de la Muette,https://maps.google.com/?cid=5207916333852723670
france,Paris,APHP Hopital Bichat Claude Bernard,48.8988787,2.3318441,"46 Rue Henri Huchard, 75018 Paris, France",01 40 25 80 80,http://hopital-bichat.aphp.fr/,Bichat-Claude Bernard Hospital,https://maps.google.com/?cid=930656196023901341
france,Paris,APHP Hôpital Tenon,48.8658998,2.40103,"4 Rue de la Chine, 75020 Paris, France",01 56 01 70 00,http://tenon.aphp.fr/,Tenon Hospital,https://maps.google.com/?cid=7599010438487709895
france,Pau,Polyclinique de Navarre,43.323914,-0.3499424,"8 Bd Hauterive, 64000 Pau, France",05 59 14 54 54,https://polycliniquepaupyrenees.fr/,Polyclinic De Navarre,https://maps.google.com/?cid=3959960973205378904
france,Perigueux,Clinique Francheville,45.1816653,0.7175782,"4 Pl. Francheville, 24000 Périgueux, France",05 53 02 11 11,https://hopitalprivefrancheville.fr/,Private Hospital Francheville,https://maps.google.com/?cid=13534698170702760808
france,Perpignan,Clinique Saint Pierre,42.6961031,2.864888,"169 Av. de Prades, 66000 Perpignan, France",04 68 56 26 26,https://www.elsan.care/fr/clinique-saint-pierre,Clinical Saint-Pierre - Elsan,https://maps.google.com/?cid=10531992662185486655
france,Poissy,C.H. Int. De Poissy/St Germain en Laye,48.9192679,2.0236706,"10 Rue du Champ Gaillard, 78300 Poissy, France",01 39 27 40 50,https://www.ghtyvelinesnord.fr/les-etablissements-de-sante/chi-poissy-saint-germain-en-laye/,Saint-Germain-en-Laye Intercommunal Hospital Center,https://maps.google.com/?cid=7299253562142493698
france,Poitiers,CHU de Poitiers,46.558575,0.384929,"2 Rue de la Milétrie, 86000 Poitiers, France",05 49 44 44 44,https://www.chu-poitiers.fr/,Poitiers University Hospital,https://maps.google.com/?cid=486007134694385431
france,Puilboreau,clinique de l'Atlantique,46.1752215,-1.1259954,"26 Rue Moulin des Justices, 17138 Puilboreau, France",05 36 28 85 00,https://clinique-atlantique-puilboreau.ramsaygds.fr/,Clinique de l'Atlantique - Ramsay Santé entrée E,https://maps.google.com/?cid=12608488582394485150
france,Quint-Fonsegrives,Clinique Capio La Croix du Sud,43.5828406,1.5082475,"52 Chem. de Ribaute, 31130 Quint-Fonsegrives, France",05 36 28 00 00,https://clinique-croix-du-sud-toulouse.ramsaysante.fr/,Clinical La Croix Du Sud - Ramsay Santé,https://maps.google.com/?cid=13330257315144005266
france,Reims,CHU de Reims Hopital Maison Blanche,49.2296995,4.0188639,"45 Rue Cognacq-Jay, 51092 Reims CEDEX, France",03 26 78 78 78,http://www.chu-reims.fr/,CHU of Reims - Maison Blanche Hospital,https://maps.google.com/?cid=12739683666625525095
france,Rennes,CHU de Rennes Hôpital Sud,48.0837382,-1.6530919,"16 Bd de Bulgarie, 35200 Rennes, France",02 99 28 43 21,https://maternite.chu-rennes.fr/index.html,Chu Rennes - Hospital Sud - Maternity,https://maps.google.com/?cid=16855601579070984865
france,Rennes,Clinique mutualiste La Sagesse,48.1007841,-1.713059,"4 Pl. Saint-Guénolé CS 44345, 35043 Rennes, France",02 99 85 75 75,,La Clinical De La Sagesse,https://maps.google.com/?cid=4632759117754007111
france,Roanne,CH De Roanne,46.0428097,4.0783417,"28 Rue de Charlieu, 42300 Roanne, France",04 77 44 30 00,http://www.ch-roanne.fr/,Hospital Center De Roanne,https://maps.google.com/?cid=2774083101631009183
france,Rouen,CHU de Rouen Hôpital Charles Nicolle,49.4386196,1.1108685,"37 Bd Gambetta, 76000 Rouen, France",02 32 88 89 90,https://www.chu-rouen.fr/,Hospital Center University De Rouen,https://maps.google.com/?cid=15380728541507966753
france,Rouen,Clinique Mathilde Rouen,49.4282472,1.0965157,"7 Bd de l'Europe, 76000 Rouen, France",02 32 81 10 10,https://www.clinique-mathilde.fr/?utm_source=Yext&utm_medium=ExtNet,Clinical Mathilde,https://maps.google.com/?cid=8984411326909287882
france,Saint-Cloud,CH des Quatre villes site St Cloud,48.8440883,2.2178553,"Rue Charles Lauer, 92210 Saint-Cloud, France",01 77 70 70 70,http://www.ch4v.fr/,Hospital Center des Quatre Villes,https://maps.google.com/?cid=9908322769342340183
france,Saint-Denis,CH General Delafontaine,48.9354084,2.3749157,"2 Rue du Dr Delafontaine, 93200 Saint-Denis, France",01 42 35 61 40,http://www.ch-stdenis.fr/,Saint-Denis Hospital Center,https://maps.google.com/?cid=16980786402510924951
france,Saint-Herblain,Polyclinique de L’Atlantique,47.2260968,-1.6107416,"Av. Claude Bernard, 44800 Saint-Herblain, France",02 40 95 93 93,http://www.elsan.care/fr/sante-atlantique,Santé Atlantique,https://maps.google.com/?cid=4063217300977348411
france,Saint-Martin-Boulogne,CMCO Côte D’Opale,50.7237618,1.6437613,"173 Rte de Desvres, 62280 Saint-Martin-Boulogne, France",03 21 99 11 11,https://hautsdefrance.vivalto-sante.com/cmco/?utm_source=Yext&utm_medium=ExtNet,Centre Mco De La Côte D'opale,https://maps.google.com/?cid=14866591872430093615
france,Saint-Martin- d’Heres,Clinique Belledonne,45.1861937,5.7602632,"83 Av. Gabriel Péri, 38400 Saint-Martin-d'Hères, France",04 38 38 02 02,https://www.elsan.care/fr/clinique-belledonne,Clinique Belledonne - Elsan,https://maps.google.com/?cid=14612578773703825556
france,Saint Pierre,Groupe Hospitalier Sud Réunion,49.7446792,0.3876172,"Av. du Président François Mitterrand, 97410 Saint Pierre, France",02 62 91 40 22,,Hospital Group Sud Réunion,https://maps.google.com/?cid=1171188992374494922
france,Saint-Priest-en-Jarez,CHU de Saint Etienne Hôpital Nord,45.481534,4.3634613,"Av. Albert Raimond, 42270 Saint-Priest-en-Jarez, France",04 77 82 80 00,http://www.chu-st-etienne.fr/,Hospital Nord,https://maps.google.com/?cid=7775503161043099225
france,Salouel,CHU Amiens Sud,49.8724803,2.2536568,"1 Rue du Professeur Christian Cabrol, 80000 Amiens, France",03 22 08 80 00,https://www.chu-amiens.fr/,CHU Amiens-Picardie,https://maps.google.com/?cid=5197102302284423992
france,Saran,Polyclinique les longues allées,47.9396793,1.8785153,"ZAC des Portes du Loiret Sud, 555 Av. Jacqueline Auriol, 45770 Saran, France",02 38 79 60 00,http://www.oreliance.com/,Oréliance health center,https://maps.google.com/?cid=15161910977502775258
france,Schiltigheim,SIHCUS/CMCO,48.6007015,7.7498385,"19 Rue Louis Pasteur, 67300 Schiltigheim, France",03 88 11 67 68,http://www.chru-strasbourg.fr/Centre-Medico-chirurgical-Obstetrique-CMCO,CMCO : Centre médico-chirurgical et obstétrical - Hôpitaux Universitaires de Strasbourg,https://maps.google.com/?cid=5940136218180142407
france,Senlis,GHPSO de Senlis,49.1959981,2.5753399,"Av. Paul Rouge, 60300 Senlis, France",03 44 21 71 00,https://www.ghpso.fr/,Ghpso,https://maps.google.com/?cid=961883799570499001
france,Suresnes,Hôpital Foch,48.8707605,2.222492,"40 Rue Worth, 92150 Suresnes, France",01 46 25 20 00,https://www.hopital-foch.com/,Hospital Foch,https://maps.google.com/?cid=16471856132436392995
france,Toulon,Clinique Saint Michel,43.1226607,5.9545384,"Av. d'Orient, 83100 Toulon, France",04 83 08 62 56,https://www.elsan.care/fr/clinique-saint-michel-toulon,Clinique Saint-Michel,https://maps.google.com/?cid=773362171928060788
france,Toulouse,Hôpitaux Mère & Enfants,43.6096865,1.4027864,"330 Av. de Grande Bretagne, 31300 Toulouse, France",05 61 77 22 33,http://www.chu-toulouse.fr/-hopital-des-enfants-,Hospital Children,https://maps.google.com/?cid=5632371906361073266
france,Tours,C.H.R.U. de Tours hôpital Bretonneau,47.3873682,0.6693445,"2 Bd Tonnellé, 37000 Tours, France",02 47 47 47 47,http://www.chu-tours.fr/,Chru Hospitals Of Tours,https://maps.google.com/?cid=6397633889138945808
france,Valenciennes-Saint-Saulve,Centre d’AMP de la polyclinique du Parc,50.3735818,3.5511743,"48 Rue Henri Barbusse, 59880 Saint-Saulve, France",03 27 23 16 66,http://www.pma-stsaulve.fr/,Medical Assistance Center procreation,https://maps.google.com/?cid=4323364472237464015
france,Villeurbanne,Médipole Lyon-Villeurbanne,45.7598565,4.9081005,"158 Rue Léon Blum, 69100 Villeurbanne, France",04 87 65 00 00,https://www.medipolelyonvilleurbanne.fr/,Médipôle Lyon-Villeurbanne,https://maps.google.com/?cid=12708957577356519149
france,Vitry Sur Seine,Hôpital Privé de Vitry Site Noriets,48.7942687,2.38144,"Rue Audran, 94400 Vitry-sur-Seine, France",01 45 59 55 00,http://www.hopitalprivedevitry.fr/page-le-site-des-noriets-26.php,Clinique des Noriets,https://maps.google.com/?cid=7094157822282105700